{
  "features": [
    {
      "type": "Feature",
      "properties": {
        "addr:housenumber": "1901",
        "internet_access": "no",
        "opening_hours": "11:00 - 02:00",
        "name": "Sit on It Bar",
        "addr:street": "South 19th Street",
        "phone": "+1 215 551 9389",
        "addr:city": "Philadelphia",
        "addr:postcode": "19145",
        "amenity": "bar",
        "@id": "node/2699327332",
        "food": "yes"
      },
      "geometry": {
        "coordinates": [
          -75.177025,
          39.927749
        ],
        "type": "Point"
      },
      "id": "052758465fedac9009e0fec79010090b"
    },
    {
      "type": "Feature",
      "properties": {
        "@id": "node/5172104654",
        "amenity": "bar",
        "name": "Art Bar"
      },
      "geometry": {
        "coordinates": [
          -75.170282,
          39.953045
        ],
        "type": "Point"
      },
      "id": "05bf15468b36b286bba5cbfd8e7bfd2e"
    },
    {
      "type": "Feature",
      "properties": {
        "@id": "node/3892460932",
        "amenity": "bar",
        "name": "U-Bahn"
      },
      "geometry": {
        "coordinates": [
          -75.162593,
          39.950609
        ],
        "type": "Point"
      },
      "id": "1950a67d864067d01e37fe1904e75d4f"
    },
    {
      "type": "Feature",
      "properties": {
        "@id": "node/1204761128",
        "amenity": "bar",
        "name": "Vikings High School Club"
      },
      "geometry": {
        "coordinates": [
          -75.163629,
          39.926847
        ],
        "type": "Point"
      },
      "id": "1e31ee8fd878bd4f4852dfa20408aef0"
    },
    {
      "type": "Feature",
      "properties": {
        "addr:housenumber": "1509",
        "wheelchair": "yes",
        "name": "Bob and Barbara's",
        "addr:street": "South Street",
        "addr:city": "Philadelphia",
        "addr:postcode": "19146",
        "amenity": "bar",
        "website": "http://bobandbarbaras.com/",
        "@id": "node/2701472360"
      },
      "geometry": {
        "coordinates": [
          -75.167477,
          39.94397
        ],
        "type": "Point"
      },
      "id": "224b88bd8b0ea452ad1e2bdf6cbdbf4d"
    },
    {
      "type": "Feature",
      "properties": {
        "@id": "node/2822025477",
        "addr:city": "Philadelphia",
        "addr:postcode": "19107",
        "addr:street": "South 13th Street",
        "amenity": "bar",
        "name": "Woody's Bar"
      },
      "geometry": {
        "coordinates": [
          -75.162289,
          39.948839
        ],
        "type": "Point"
      },
      "id": "36477a4c5ae35fca941d504a9b19a6ae"
    },
    {
      "type": "Feature",
      "properties": {
        "@id": "node/3496961798",
        "amenity": "bar",
        "name": "The Fountain Porter"
      },
      "geometry": {
        "coordinates": [
          -75.16144,
          39.929501
        ],
        "type": "Point"
      },
      "id": "45b8ca8e8b5c577bd654522fb0c24a66"
    },
    {
      "type": "Feature",
      "properties": {
        "@id": "node/3094702133",
        "amenity": "bar",
        "name": "Tria Taproom"
      },
      "geometry": {
        "coordinates": [
          -75.174018,
          39.950665
        ],
        "type": "Point"
      },
      "id": "46d02351f7586c99307b0f4d7ce90ad1"
    },
    {
      "type": "Feature",
      "properties": {
        "@id": "node/1980171513",
        "amenity": "bar",
        "name": "SideCar Bar",
        "website": "http://www.thesidecarbar.com/"
      },
      "geometry": {
        "coordinates": [
          -75.179427,
          39.94177
        ],
        "type": "Point"
      },
      "id": "5ee6313ba36594999b94aad2a6188aef"
    },
    {
      "type": "Feature",
      "properties": {
        "@id": "node/1475234787",
        "amenity": "bar",
        "name": "Royal Tavern"
      },
      "geometry": {
        "coordinates": [
          -75.154805,
          39.936855
        ],
        "type": "Point"
      },
      "id": "63ff0a85b66c5e2261cb9563ccad072f"
    },
    {
      "type": "Feature",
      "properties": {
        "@id": "node/1518109393",
        "amenity": "bar",
        "name": "Fieldhouse Philadelphia",
        "toilets:wheelchair": "yes",
        "wheelchair": "yes"
      },
      "geometry": {
        "coordinates": [
          -75.159239,
          39.952996
        ],
        "type": "Point"
      },
      "id": "6c315301e3e326e8f218781510574f97"
    },
    {
      "type": "Feature",
      "properties": {
        "@id": "node/3527163512",
        "addr:city": "Philadelphia",
        "addr:housenumber": "1318",
        "addr:street": "Chestnut Street",
        "amenity": "bar",
        "name": "Brü Craft & Wurst"
      },
      "geometry": {
        "coordinates": [
          -75.162521,
          39.950594
        ],
        "type": "Point"
      },
      "id": "719f71c71d47590672afc1edffcf25bb"
    },
    {
      "type": "Feature",
      "properties": {
        "addr:housenumber": "947",
        "opening_hours": "17:00-02:00",
        "name": "The Dive Bar",
        "smoking": "yes",
        "addr:street": "East Passyunk Avenue",
        "phone": "+1 215 465 5505",
        "addr:city": "Philadelphia",
        "addr:postcode": "19147",
        "amenity": "bar",
        "@id": "node/1475234971"
      },
      "geometry": {
        "coordinates": [
          -75.154855,
          39.936814
        ],
        "type": "Point"
      },
      "id": "77abf773f036348a79ab9b14e0975b37"
    },
    {
      "type": "Feature",
      "properties": {
        "@id": "node/4175104198",
        "addr:housenumber": "1200",
        "addr:street": "East Passyunk Avenue",
        "amenity": "bar"
      },
      "geometry": {
        "coordinates": [
          -75.165109,
          39.928482
        ],
        "type": "Point"
      },
      "id": "7a429d2f2932b64b482b12f70baa8033"
    },
    {
      "type": "Feature",
      "properties": {
        "@id": "node/5366495321",
        "amenity": "bar",
        "name": "Strangeloves Craft Beer, New Orleans grub"
      },
      "geometry": {
        "coordinates": [
          -75.159232,
          39.948082
        ],
        "type": "Point"
      },
      "id": "825f1f5f0a49c7373895c8892e4f97ad"
    },
    {
      "type": "Feature",
      "properties": {
        "@id": "node/2538795585",
        "addr:city": "Philadelphia",
        "addr:housename": "The Bard's",
        "addr:housenumber": "2013",
        "addr:postcode": "19103",
        "addr:street": "Walnut Street",
        "amenity": "bar",
        "name": "The Bard's"
      },
      "geometry": {
        "coordinates": [
          -75.174352,
          39.950699
        ],
        "type": "Point"
      },
      "id": "85dd5f21866fcc9c857dfa49a6d88af8"
    },
    {
      "type": "Feature",
      "properties": {
        "@id": "node/4668627526",
        "amenity": "bar",
        "name": "South Philly Bar and Grill"
      },
      "geometry": {
        "coordinates": [
          -75.158902,
          39.933416
        ],
        "type": "Point"
      },
      "id": "860a811d7b6e744f36f888582042cda5"
    },
    {
      "type": "Feature",
      "properties": {
        "@id": "node/3106219788",
        "amenity": "bar",
        "name": "Las Vegas Lounge",
        "wheelchair": "limited",
        "wheelchair:description": "Double door vestibule entrance is wheelchair accessible. Restrooms have prohibitively narrow doors."
      },
      "geometry": {
        "coordinates": [
          -75.152691,
          39.949557
        ],
        "type": "Point"
      },
      "id": "8b507a092c4c5a3f8e19f83965429ba2"
    },
    {
      "type": "Feature",
      "properties": {
        "addr:housenumber": "264",
        "opening_hours": "Mo-Su 11:30-02:00",
        "name": "Monk's Cafe",
        "addr:street": "South 16th Street",
        "phone": "+1 215-545-7005",
        "addr:postcode": "19102",
        "name:en": "Monk's Cafe",
        "amenity": "bar",
        "website": "http://monkscafe.com",
        "@id": "node/4949327723",
        "name:es": "Monk's Cafe"
      },
      "geometry": {
        "coordinates": [
          -75.168079,
          39.947693
        ],
        "type": "Point"
      },
      "id": "93e813513c466812cac6f14658f5694e"
    },
    {
      "type": "Feature",
      "properties": {
        "@id": "node/2256040057",
        "amenity": "bar",
        "name": "Lucky Strike",
        "sport": "bowlin"
      },
      "geometry": {
        "coordinates": [
          -75.163281,
          39.950677
        ],
        "type": "Point"
      },
      "id": "9c96fdfcb537643c3dae52f077837b18"
    },
    {
      "type": "Feature",
      "properties": {
        "addr:housenumber": "264",
        "opening_hours": "Mo-Su 11:30-02:00",
        "name": "Monk's Cafe",
        "addr:street": "South 16th Street",
        "phone": "+1215-545-7005",
        "addr:postcode": "19102",
        "name:en": "Monk's Cafe",
        "amenity": "bar",
        "website": "http://monkscafe.com",
        "@id": "node/4949265921",
        "name:es": "Monk's Cafe"
      },
      "geometry": {
        "coordinates": [
          -75.168068,
          39.947687
        ],
        "type": "Point"
      },
      "id": "a5eb999b3039f1a4c8ddde53159c8e26"
    },
    {
      "type": "Feature",
      "properties": {
        "@id": "node/4551221875",
        "addr:housenumber": "2711",
        "addr:street": "West Girard Avenue",
        "amenity": "bar",
        "name": "Crime & Punishment Brewing Company",
        "smoking": "outside"
      },
      "geometry": {
        "coordinates": [
          -75.180842,
          39.974364
        ],
        "type": "Point"
      },
      "id": "a792639497a6f36abf1bc50813d71bb1"
    },
    {
      "type": "Feature",
      "properties": {
        "addr:housenumber": "1231-1233",
        "contact:facebook": "garagephilly",
        "opening_hours": "5:00 PM - 2:00 AM Monday - Friday, 12:00 PM - 2:00 AM Saturday, Sunday",
        "addr:state": "PA",
        "name": "The Garage",
        "smoking": "outside",
        "addr:street": "East Passyunk Avenue",
        "phone": "(215) 278-2429",
        "addr:city": "Philadelphia",
        "addr:postcode": "19147",
        "amenity": "bar",
        "website": "http://garagephilly.com/",
        "@id": "node/3885206651"
      },
      "geometry": {
        "coordinates": [
          -75.158834,
          39.933499
        ],
        "type": "Point"
      },
      "id": "a870fdbc99b8610d9721cd1867dc29df"
    },
    {
      "type": "Feature",
      "properties": {
        "@id": "node/1749989684",
        "amenity": "bar",
        "name": "Watkins Drinkery"
      },
      "geometry": {
        "coordinates": [
          -75.162035,
          39.927958
        ],
        "type": "Point"
      },
      "id": "b174b1a6fadca89c766939fd956e6120"
    },
    {
      "type": "Feature",
      "properties": {
        "@id": "node/2822026031",
        "amenity": "bar",
        "name": "Devil's Den"
      },
      "geometry": {
        "coordinates": [
          -75.16199,
          39.93581
        ],
        "type": "Point"
      },
      "id": "b8e83f895bc91b6cff80556a7ae3e38d"
    },
    {
      "type": "Feature",
      "properties": {
        "@id": "node/4379394799",
        "amenity": "bar",
        "name": "Emily's"
      },
      "geometry": {
        "coordinates": [
          -75.171807,
          39.930851
        ],
        "type": "Point"
      },
      "id": "bc20f4d12ca492891d60365c5fb84b21"
    },
    {
      "type": "Feature",
      "properties": {
        "addr:housenumber": "831",
        "opening_hours": "11:00-02:00",
        "name": "12 Steps Down",
        "smoking": "yes",
        "addr:street": "Christian Street",
        "phone": "+1 215 238 0379",
        "addr:city": "Philadelphia",
        "addr:postcode": "19147",
        "amenity": "bar",
        "website": "http://www.12stepsdown.com",
        "@id": "node/2876251699"
      },
      "geometry": {
        "coordinates": [
          -75.157683,
          39.939052
        ],
        "type": "Point"
      },
      "id": "bfaffcb139769ef565ef518bed42187b"
    },
    {
      "type": "Feature",
      "properties": {
        "@id": "node/3944590539",
        "amenity": "bar",
        "name": "Philadium Tavern"
      },
      "geometry": {
        "coordinates": [
          -75.176393,
          39.912512
        ],
        "type": "Point"
      },
      "id": "c54262e3c497b32e0979ec3dfd4a6d25"
    },
    {
      "type": "Feature",
      "properties": {
        "@id": "node/4175144191",
        "addr:street": "Pine Street",
        "amenity": "bar",
        "name": "Dirty Franks"
      },
      "geometry": {
        "coordinates": [
          -75.16286,
          39.945425
        ],
        "type": "Point"
      },
      "id": "d9d8106edb39561324bfe5be2972d272"
    },
    {
      "type": "Feature",
      "properties": {
        "addr:housenumber": "1216",
        "name": "Señor Baynard's Bar & Grill",
        "smoking": "yes",
        "addr:street": "South 17th Street",
        "phone": "+1 215 462 1888",
        "addr:city": "Philadelphia",
        "addr:postcode": "19146",
        "amenity": "bar",
        "@id": "node/2931994044"
      },
      "geometry": {
        "coordinates": [
          -75.172214,
          39.93599
        ],
        "type": "Point"
      },
      "id": "e05571396bddc5bfa225a971ef85034b"
    },
    {
      "type": "Feature",
      "properties": {
        "@id": "node/3944585958",
        "amenity": "bar",
        "cuisine": "american",
        "name": "Chickie's and Pete's Crabhouse and Sports Bar"
      },
      "geometry": {
        "coordinates": [
          -75.17477,
          39.911589
        ],
        "type": "Point"
      },
      "id": "e0ee8b8c8a4f87500a93de3f67d63f6d"
    },
    {
      "type": "Feature",
      "properties": {
        "@id": "node/4267167928",
        "amenity": "bar",
        "name": "Ray's Happy Birthday Bar",
        "opening_hours": "2am close",
        "smoking": "yes"
      },
      "geometry": {
        "coordinates": [
          -75.158492,
          39.934111
        ],
        "type": "Point"
      },
      "id": "fb5fedc69afd8fb4236873a6fe6e79b7"
    },
    {
      "type": "Feature",
      "properties": {
        "@id": "node/4175142992",
        "addr:housenumber": "1524",
        "addr:street": "Sansom Street",
        "amenity": "bar",
        "name": "Oscar's Dive Bar"
      },
      "geometry": {
        "coordinates": [
          -75.166966,
          39.95069
        ],
        "type": "Point"
      },
      "id": "ff91ff308d6edb830e3deffc3ba9e607"
    }
  ],
  "type": "FeatureCollection"
}