{
  "features": [
    {
      "type": "Feature",
      "properties": {
        "@id": "node/2822025477",
        "addr:city": "Philadelphia",
        "addr:postcode": "19107",
        "addr:street": "South 13th Street",
        "amenity": "bar",
        "name": "Woody's Bar"
      },
      "geometry": {
        "coordinates": [
          -75.162289,
          39.948839
        ],
        "type": "Point"
      },
      "id": "009222fb7b83e3ef8cc9fbe87e74a4a0"
    },
    {
      "type": "Feature",
      "properties": {
        "@id": "node/1518109393",
        "amenity": "bar",
        "name": "Fieldhouse Philadelphia",
        "toilets:wheelchair": "yes",
        "wheelchair": "yes"
      },
      "geometry": {
        "coordinates": [
          -75.159239,
          39.952996
        ],
        "type": "Point"
      },
      "id": "041132e2ac4282bd0bae3f38f1333297"
    },
    {
      "type": "Feature",
      "properties": {
        "@id": "node/4790082821",
        "addr:housenumber": "1615",
        "addr:street": "Chancellor Street",
        "amenity": "restaurant",
        "name": "Vetri"
      },
      "geometry": {
        "coordinates": [
          -75.16841,
          39.949399
        ],
        "type": "Point"
      },
      "id": "054ae2bc66f26a890517a8ef86b5d83c"
    },
    {
      "type": "Feature",
      "properties": {
        "@id": "node/2296287510",
        "amenity": "restaurant",
        "cuisine": "nordic",
        "name": "Noord"
      },
      "geometry": {
        "coordinates": [
          -75.163024,
          39.929695
        ],
        "type": "Point"
      },
      "id": "05c4944b11f69dbdbdcb74a37fc2798f"
    },
    {
      "type": "Feature",
      "properties": {
        "addr:housenumber": "1436",
        "addr:housename": "Jamacian Jerk Hut",
        "cuisine": "international",
        "wheelchair": "limited",
        "name": "Jamaican Jerk Hut",
        "addr:street": "South Street",
        "addr:city": "Philadelphia",
        "addr:postcode": "19146",
        "amenity": "restaurant",
        "@id": "node/1482514637"
      },
      "geometry": {
        "coordinates": [
          -75.166638,
          39.943642
        ],
        "type": "Point"
      },
      "id": "07595dc43d2f0521c2c2c761682c368a"
    },
    {
      "type": "Feature",
      "properties": {
        "@id": "node/2267258439",
        "addr:housenumber": "1714",
        "addr:street": "Walnut Street",
        "amenity": "restaurant",
        "name": "Pietro's Coal Oven Pizza"
      },
      "geometry": {
        "coordinates": [
          -75.169923,
          39.949953
        ],
        "type": "Point"
      },
      "id": "08e8d95430f7f28494609d50de22028c"
    },
    {
      "type": "Feature",
      "properties": {
        "@id": "node/2040436590",
        "addr:housenumber": "640",
        "addr:street": "North Broad Street",
        "amenity": "restaurant",
        "cuisine": "italian",
        "name": "Osteria",
        "website": "www.osteriaphilly.com"
      },
      "geometry": {
        "coordinates": [
          -75.161107,
          39.964982
        ],
        "type": "Point"
      },
      "id": "0a9783a67c6bbeeb2646d7c6b120611e"
    },
    {
      "type": "Feature",
      "properties": {
        "@id": "node/3545078824",
        "addr:housenumber": "124",
        "addr:street": "South 15th Street",
        "amenity": "restaurant",
        "name": "Ocean Prime"
      },
      "geometry": {
        "coordinates": [
          -75.165949,
          39.950151
        ],
        "type": "Point"
      },
      "id": "0b309fd049b8d8a77797b6e669776447"
    },
    {
      "type": "Feature",
      "properties": {
        "addr:housenumber": "1138",
        "cuisine": "mexican",
        "addr:state": "PA",
        "name": "El Jarocho",
        "smoking": "no",
        "addr:street": "South 13th Street",
        "addr:city": "Philadelphia",
        "delivery": "yes",
        "takeaway": "yes",
        "addr:postcode": "19147",
        "amenity": "restaurant",
        "@id": "node/4532260719"
      },
      "geometry": {
        "coordinates": [
          -75.164977,
          39.936491
        ],
        "type": "Point"
      },
      "id": "0eb95901b2055b53583be1f5d86be64a"
    },
    {
      "type": "Feature",
      "properties": {
        "addr:housenumber": "1921",
        "cuisine": "american",
        "name": "BlueCat",
        "addr:street": "Fairmount Avenue",
        "addr:postcode": "19130",
        "designation": "Anna McPeak",
        "amenity": "restaurant",
        "website": "bluecatrestaurant.com/",
        "@id": "node/2003023048"
      },
      "geometry": {
        "coordinates": [
          -75.16971,
          39.967402
        ],
        "type": "Point"
      },
      "id": "0f2c6cb95799139c565fe9f1cc9ffacc"
    },
    {
      "type": "Feature",
      "properties": {
        "addr:housenumber": "1501-1503",
        "cuisine": "pizza",
        "addr:state": "PA",
        "name": "LaScala's Pronto Pizza and Italian Restaurant",
        "addr:street": "Spring Garden Street",
        "addr:city": "Philadelphia",
        "addr:postcode": "19130",
        "amenity": "restaurant",
        "@id": "node/1697912584"
      },
      "geometry": {
        "coordinates": [
          -75.163202,
          39.962887
        ],
        "type": "Point"
      },
      "id": "0f8d9d973576a8217e4a12a7395f19f5"
    },
    {
      "type": "Feature",
      "properties": {
        "addr:housenumber": "1137",
        "internet_access": "wlan",
        "wheelchair": "limited",
        "name": "Tria",
        "wheelchair:description": "Entrance and restroom accessible but unfortunately all seating in wheelchair accessible indoor area is high top tables. Outdoor seating tables in warmer weather.",
        "addr:street": "Spruce Street",
        "phone": "+1 215 629 92 00",
        "addr:city": "Philadelphia",
        "addr:postcode": "19107",
        "amenity": "restaurant",
        "website": "https://triaphilly.com/tria-cafe/",
        "@id": "node/3094941729"
      },
      "geometry": {
        "coordinates": [
          -75.161027,
          39.946541
        ],
        "type": "Point"
      },
      "id": "0ff3a74fbeba2fe87c58a3c7aa4b14a0"
    },
    {
      "type": "Feature",
      "properties": {
        "addr:housenumber": "264",
        "opening_hours": "Mo-Su 11:30-02:00",
        "name": "Monk's Cafe",
        "addr:street": "South 16th Street",
        "phone": "+1215-545-7005",
        "addr:postcode": "19102",
        "name:en": "Monk's Cafe",
        "amenity": "bar",
        "website": "http://monkscafe.com",
        "@id": "node/4949265921",
        "name:es": "Monk's Cafe"
      },
      "geometry": {
        "coordinates": [
          -75.168068,
          39.947687
        ],
        "type": "Point"
      },
      "id": "10a904b8fc91b08f96912009ba57bb21"
    },
    {
      "type": "Feature",
      "properties": {
        "addr:housenumber": "1838",
        "cuisine": "indonesian",
        "name": "Seulanga",
        "smoking": "no",
        "addr:street": "South 18th Street",
        "phone": "+1 267 357 4635",
        "addr:city": "Philadelphia",
        "takeaway": "yes",
        "addr:postcode": "19145",
        "amenity": "restaurant",
        "outdoor_seating": "no",
        "@id": "node/2699315011"
      },
      "geometry": {
        "coordinates": [
          -75.175672,
          39.927761
        ],
        "type": "Point"
      },
      "id": "10ba13a6c85b7623509c4f885a4f1515"
    },
    {
      "type": "Feature",
      "properties": {
        "@id": "node/3076971133",
        "amenity": "restaurant",
        "name": "Fat Salmon",
        "wheelchair": "yes"
      },
      "geometry": {
        "coordinates": [
          -75.153406,
          39.94809
        ],
        "type": "Point"
      },
      "id": "118bd052c85b917c41debe89339202cd"
    },
    {
      "type": "Feature",
      "properties": {
        "@id": "node/4175143395",
        "addr:housenumber": "1837",
        "addr:street": "East Passyunk Avenue",
        "amenity": "restaurant",
        "name": "Sate Kampar"
      },
      "geometry": {
        "coordinates": [
          -75.166972,
          39.926856
        ],
        "type": "Point"
      },
      "id": "1243bc8b63fa4d3e96875cee0d58884b"
    },
    {
      "type": "Feature",
      "properties": {
        "@id": "node/2226025522",
        "amenity": "restaurant",
        "name": "Chili's"
      },
      "geometry": {
        "coordinates": [
          -75.161094,
          39.95323
        ],
        "type": "Point"
      },
      "id": "14ee0f6afaf43110dde57d974d5d1a90"
    },
    {
      "type": "Feature",
      "properties": {
        "@id": "node/1475234787",
        "amenity": "bar",
        "name": "Royal Tavern"
      },
      "geometry": {
        "coordinates": [
          -75.154805,
          39.936855
        ],
        "type": "Point"
      },
      "id": "165e8557da9c2a36d243b806dd64abad"
    },
    {
      "type": "Feature",
      "properties": {
        "@id": "node/2581946416",
        "addr:housenumber": "1824",
        "addr:street": "Callowhill Street",
        "amenity": "restaurant",
        "cuisine": "indian",
        "name": "King of Tandoor"
      },
      "geometry": {
        "coordinates": [
          -75.169451,
          39.960375
        ],
        "type": "Point"
      },
      "id": "17d0d3007c2360809958b1cd201552b3"
    },
    {
      "type": "Feature",
      "properties": {
        "@id": "node/2571955811",
        "amenity": "restaurant",
        "cuisine": "japanese",
        "name": "Kansai Japanese Cuisine",
        "phone": "(215) 568-0888",
        "website": "www.kansaiphilly.com"
      },
      "geometry": {
        "coordinates": [
          -75.169333,
          39.963226
        ],
        "type": "Point"
      },
      "id": "17f6aa402b3662a265b2053f0e9c738a"
    },
    {
      "type": "Feature",
      "properties": {
        "addr:housenumber": "1801",
        "cuisine": "korean",
        "name": "Southgate",
        "smoking": "outside",
        "addr:street": "Lombard Street",
        "addr:city": "Philadelphia",
        "addr:postcode": "19146",
        "amenity": "restaurant",
        "@id": "node/2583160710"
      },
      "geometry": {
        "coordinates": [
          -75.171786,
          39.945558
        ],
        "type": "Point"
      },
      "id": "183b540d9e6cf772f279b7a0f5c9f1c7"
    },
    {
      "type": "Feature",
      "properties": {
        "@id": "node/2599725035",
        "amenity": "restaurant",
        "name": "Sbraga"
      },
      "geometry": {
        "coordinates": [
          -75.165342,
          39.945516
        ],
        "type": "Point"
      },
      "id": "1886f061fcc989baa12f0310da9a4f33"
    },
    {
      "type": "Feature",
      "properties": {
        "addr:housenumber": "831",
        "opening_hours": "11:00-02:00",
        "name": "12 Steps Down",
        "smoking": "yes",
        "addr:street": "Christian Street",
        "phone": "+1 215 238 0379",
        "addr:city": "Philadelphia",
        "addr:postcode": "19147",
        "amenity": "bar",
        "website": "http://www.12stepsdown.com",
        "@id": "node/2876251699"
      },
      "geometry": {
        "coordinates": [
          -75.157683,
          39.939052
        ],
        "type": "Point"
      },
      "id": "1897103a4f11f1f8927a92a76aa62328"
    },
    {
      "type": "Feature",
      "properties": {
        "@id": "node/1486106670",
        "addr:housename": "Lolitas",
        "addr:housenumber": "106",
        "addr:street": "South Street",
        "amenity": "restaurant",
        "name": "Lolitas Restaurant"
      },
      "geometry": {
        "coordinates": [
          -75.162065,
          39.949931
        ],
        "type": "Point"
      },
      "id": "18bdf98a94d00318390c8f8c316c7d22"
    },
    {
      "type": "Feature",
      "properties": {
        "addr:housenumber": "131",
        "cuisine": "chinese",
        "opening_hours": "Mo-Su 10:30-22:00",
        "name": "Spice C",
        "addr:street": "North 10th Street",
        "phone": "215 923 2222",
        "addr:postcode": "19107",
        "amenity": "restaurant",
        "website": "http://www.spicecnoodle.com/",
        "@id": "node/4564414010"
      },
      "geometry": {
        "coordinates": [
          -75.155856,
          39.954365
        ],
        "type": "Point"
      },
      "id": "190e80fab754809786d409d820b9d2c9"
    },
    {
      "type": "Feature",
      "properties": {
        "@id": "node/2267258437",
        "addr:city": "Philadelphia",
        "addr:housenumber": "1411",
        "addr:street": "Walnut Street",
        "amenity": "restaurant",
        "cuisine": "american",
        "name": "Morton's Steakhouse"
      },
      "geometry": {
        "coordinates": [
          -75.164841,
          39.949515
        ],
        "type": "Point"
      },
      "id": "1b3ae28fd7754ff26cef555d54b4fbcf"
    },
    {
      "type": "Feature",
      "properties": {
        "@id": "node/1479227496",
        "amenity": "restaurant",
        "cuisine": "pizza",
        "name": "Lorenzo's Pizza",
        "website": "lorenzospizza.net"
      },
      "geometry": {
        "coordinates": [
          -75.157942,
          39.938916
        ],
        "type": "Point"
      },
      "id": "1c1567eb896d2e0cbecef218fa92a6a7"
    },
    {
      "type": "Feature",
      "properties": {
        "addr:housenumber": "1646",
        "cuisine": "italian",
        "name": "Mr. Martino's Trattoria",
        "addr:street": "East Passyunk Avenue",
        "phone": "(215) 755-0663",
        "addr:city": "Philadelphia",
        "addr:postcode": "19148",
        "amenity": "restaurant",
        "@id": "node/2296287498"
      },
      "geometry": {
        "coordinates": [
          -75.164675,
          39.929016
        ],
        "type": "Point"
      },
      "id": "1d50b6836a37941f6176f0894727e562"
    },
    {
      "type": "Feature",
      "properties": {
        "@id": "node/4175142992",
        "addr:housenumber": "1524",
        "addr:street": "Sansom Street",
        "amenity": "bar",
        "name": "Oscar's Dive Bar"
      },
      "geometry": {
        "coordinates": [
          -75.166966,
          39.95069
        ],
        "type": "Point"
      },
      "id": "1db638fd14886a5770e8fcf7a4ff5a7c"
    },
    {
      "type": "Feature",
      "properties": {
        "addr:housenumber": "929",
        "cuisine": "pizza",
        "wheelchair": "yes",
        "name": "Stella Rosa Pizzeria",
        "wheelchair:description": "entrance at right of front accessible.",
        "addr:street": "Walnut Street",
        "phone": "(215) 644-9074",
        "addr:city": "Philadelphia",
        "addr:postcode": "19107",
        "amenity": "restaurant",
        "website": "http://www.stellarossaristorante.com/",
        "@id": "node/3076983433"
      },
      "geometry": {
        "coordinates": [
          -75.157268,
          39.948566
        ],
        "type": "Point"
      },
      "id": "1f2e0ace3c47c8e69f8f45e6a893656b"
    },
    {
      "type": "Feature",
      "properties": {
        "@id": "node/1697912581",
        "amenity": "restaurant",
        "name": "Fare"
      },
      "geometry": {
        "coordinates": [
          -75.1713,
          39.967178
        ],
        "type": "Point"
      },
      "id": "1ff9cb0985aebada2db8c5484c4392c6"
    },
    {
      "type": "Feature",
      "properties": {
        "@id": "node/4140719306",
        "amenity": "restaurant",
        "name": "Jazz"
      },
      "geometry": {
        "coordinates": [
          -75.165342,
          39.950312
        ],
        "type": "Point"
      },
      "id": "21c9c260ef9151804cfc31e930e976da"
    },
    {
      "type": "Feature",
      "properties": {
        "addr:housenumber": "18",
        "cuisine": "kosher",
        "opening_hours": "Mo-Th 11:00-21:00;Fr 11:00-15:00;Sa closed;Su 12:00-19:00",
        "name": "Mama's Vegetarian",
        "addr:street": "South 20th Street",
        "phone": "+1 215 751 0477",
        "addr:city": "Philadelphia",
        "addr:postcode": "19103",
        "amenity": "restaurant",
        "website": "http://www.mamasvegetarian.com",
        "@id": "node/2912805533"
      },
      "geometry": {
        "coordinates": [
          -75.173489,
          39.952706
        ],
        "type": "Point"
      },
      "id": "21f84806e069ae66a2b1e924d521df71"
    },
    {
      "type": "Feature",
      "properties": {
        "@id": "node/774334229",
        "amenity": "restaurant",
        "name": "Fairmount Pizza"
      },
      "geometry": {
        "coordinates": [
          -75.170324,
          39.96712
        ],
        "type": "Point"
      },
      "id": "2200c063ca2be6a8b17a621f79df5c2d"
    },
    {
      "type": "Feature",
      "properties": {
        "@id": "node/3548911782",
        "addr:city": "Philadelphia",
        "addr:housenumber": "117",
        "addr:postcode": "19107",
        "addr:street": "South 12th Street",
        "amenity": "restaurant",
        "name": "Kitchenette"
      },
      "geometry": {
        "coordinates": [
          -75.160231,
          39.949821
        ],
        "type": "Point"
      },
      "id": "2520440e411b37212278aa23d115b1ab"
    },
    {
      "type": "Feature",
      "properties": {
        "@id": "node/3040246034",
        "addr:city": "Philadelphia",
        "addr:housenumber": "210",
        "addr:postcode": "19106",
        "addr:street": "West Washington Square",
        "amenity": "restaurant",
        "cuisine": "american",
        "name": "Talula's Garden"
      },
      "geometry": {
        "coordinates": [
          -75.153482,
          39.947155
        ],
        "type": "Point"
      },
      "id": "253a16592ec5038b71a3374c47ddf9c4"
    },
    {
      "type": "Feature",
      "properties": {
        "addr:housenumber": "204",
        "cuisine": "ramen",
        "name:ja": "寺川らーめん",
        "name": "Terakawa Ramen",
        "addr:street": "North 9th Street",
        "addr:city": "Philadelphia",
        "addr:postcode": "19107",
        "amenity": "restaurant",
        "@id": "node/3554597113"
      },
      "geometry": {
        "coordinates": [
          -75.154387,
          39.955398
        ],
        "type": "Point"
      },
      "id": "263e60cc8de0dc0c8cfc3cb27b47e6be"
    },
    {
      "type": "Feature",
      "properties": {
        "addr:housenumber": "1543",
        "cuisine": "chinese",
        "addr:state": "PA",
        "name": "Long River Chinese Food",
        "addr:street": "Spring Garden St",
        "addr:city": "Philadelphia",
        "addr:postcode": "19130",
        "amenity": "restaurant",
        "@id": "node/2571727575"
      },
      "geometry": {
        "coordinates": [
          -75.164335,
          39.963026
        ],
        "type": "Point"
      },
      "id": "2aa10fd308b40945dc6e4c4feafdd2c6"
    },
    {
      "type": "Feature",
      "properties": {
        "addr:housenumber": "238",
        "alt_name": "SangKee",
        "cuisine": "chinese",
        "opening_hours": "Mo-Su 10:00-22:45; Fr,Sa 10:00-23:45",
        "name": "Sang Kee Peking Duck House",
        "addr:street": "North 9th Street",
        "short_name": "Sang Kee",
        "addr:city": "Philadelphia",
        "addr:postcode": "19107",
        "amenity": "restaurant",
        "source": "Official website, http://www.phillychinatown.com/sangkee.htm",
        "website": "http://www.sangkeechinatown.com/",
        "@id": "node/1702834404"
      },
      "geometry": {
        "coordinates": [
          -75.154172,
          39.9564
        ],
        "type": "Point"
      },
      "id": "2dbca69022dccaac8a4ae532005584f1"
    },
    {
      "type": "Feature",
      "properties": {
        "addr:housenumber": "1915",
        "cuisine": "italian",
        "opening_hours": "Tu-Sa 17:00 - 22:00; Su 16:00-21:00; Mo Closed",
        "addr:state": "PA",
        "name": "Tre Scalini",
        "addr:street": "East Passyunk Avenue",
        "addr:city": "Philadelphia",
        "addr:postcode": "19148",
        "amenity": "restaurant",
        "website": "http://www.trescaliniphiladelphia.com/",
        "@id": "node/3629237317"
      },
      "geometry": {
        "coordinates": [
          -75.167561,
          39.926243
        ],
        "type": "Point"
      },
      "id": "2ded2d4dc24455e94b1d484ad61b9304"
    },
    {
      "type": "Feature",
      "properties": {
        "@id": "node/3532578442",
        "addr:street": "South 13th Street",
        "amenity": "restaurant",
        "name": "Green Eggs Cafe"
      },
      "geometry": {
        "coordinates": [
          -75.162404,
          39.94832
        ],
        "type": "Point"
      },
      "id": "2e66bba0f71ffa24a11e68a42796e790"
    },
    {
      "type": "Feature",
      "properties": {
        "@id": "node/2581938913",
        "addr:housenumber": "529",
        "addr:street": "North 20th Street",
        "amenity": "restaurant",
        "name": "McCrossen's Tavern"
      },
      "geometry": {
        "coordinates": [
          -75.170932,
          39.96306
        ],
        "type": "Point"
      },
      "id": "2f7f9b5131a9f9e9f0544c66ce504c5d"
    },
    {
      "type": "Feature",
      "properties": {
        "@id": "node/2296287526",
        "amenity": "restaurant",
        "cuisine": "New_American",
        "name": "Stateside"
      },
      "geometry": {
        "coordinates": [
          -75.163222,
          39.930193
        ],
        "type": "Point"
      },
      "id": "3025b15e5d601cf08ca91df8f5d158bc"
    },
    {
      "type": "Feature",
      "properties": {
        "@id": "node/1060440118",
        "addr:housenumber": "1107",
        "addr:street": "Walnut Street",
        "amenity": "restaurant",
        "cuisine": "pizza",
        "name": "Top Tomato Pizza"
      },
      "geometry": {
        "coordinates": [
          -75.159423,
          39.948841
        ],
        "type": "Point"
      },
      "id": "31258fb19a43c1329298cab666937eab"
    },
    {
      "type": "Feature",
      "properties": {
        "addr:housenumber": "1919",
        "cuisine": "pizza",
        "opening_hours": "Mo-We 15:00-24:00; Th 12:00-24:00; Fr-Su 11:30-24:00",
        "addr:state": "PA",
        "name": "Adobe Cafe",
        "addr:street": "East Passyunk Avenue",
        "phone": "215-551-2243",
        "addr:city": "Philadelphia",
        "delivery": "yes",
        "takeaway": "yes",
        "addr:postcode": "19148",
        "amenity": "restaurant",
        "website": "http://www.myadobecafe.com/",
        "@id": "node/3629235052"
      },
      "geometry": {
        "coordinates": [
          -75.16769,
          39.926101
        ],
        "type": "Point"
      },
      "id": "3580bf09ed8710f4569c2266b7d3daa1"
    },
    {
      "type": "Feature",
      "properties": {
        "@id": "node/914761497",
        "amenity": "restaurant",
        "name": "Bibou"
      },
      "geometry": {
        "coordinates": [
          -75.156544,
          39.936881
        ],
        "type": "Point"
      },
      "id": "35bbe74a3fb9172c7e196b1e14127f6e"
    },
    {
      "type": "Feature",
      "properties": {
        "@id": "node/2065990011",
        "addr:housename": "Empress Gardens",
        "addr:housenumber": "108",
        "addr:postcode": "19107",
        "addr:street": "North 10th Street",
        "amenity": "restaurant",
        "cuisine": "chinese",
        "name": "Empress Gardens"
      },
      "geometry": {
        "coordinates": [
          -75.156319,
          39.953949
        ],
        "type": "Point"
      },
      "id": "36482645aab108a9cd62bdf651c528bc"
    },
    {
      "type": "Feature",
      "properties": {
        "@id": "node/3944590539",
        "amenity": "bar",
        "name": "Philadium Tavern"
      },
      "geometry": {
        "coordinates": [
          -75.176393,
          39.912512
        ],
        "type": "Point"
      },
      "id": "36d76c5e58483df4cb20bf09005bac48"
    },
    {
      "type": "Feature",
      "properties": {
        "@id": "node/4175104198",
        "addr:housenumber": "1200",
        "addr:street": "East Passyunk Avenue",
        "amenity": "bar"
      },
      "geometry": {
        "coordinates": [
          -75.165109,
          39.928482
        ],
        "type": "Point"
      },
      "id": "3e1e95dd571cf0e15c861cd0c5c70562"
    },
    {
      "type": "Feature",
      "properties": {
        "addr:housenumber": "1529-31",
        "cuisine": "pizza",
        "payment:bitcoin": "yes",
        "name": "John's Place",
        "addr:street": "Spring Garden St",
        "contact:phone": "215-665-0972",
        "amenity": "restaurant",
        "source": "http://www.coindesk.com/menufy-now-supports-bitcoin-payments-400-us-restaurants/",
        "website": "http://johnsplacepa.com/",
        "@id": "node/2571727557",
        "description": "BTC payment via Menufy."
      },
      "geometry": {
        "coordinates": [
          -75.163932,
          39.962976
        ],
        "type": "Point"
      },
      "id": "3f017b2c6ac963adb2ad00b743efc43c"
    },
    {
      "type": "Feature",
      "properties": {
        "@id": "node/1167105751",
        "amenity": "restaurant",
        "name": "Dunkin' Donuts"
      },
      "geometry": {
        "coordinates": [
          -75.162368,
          39.95241
        ],
        "type": "Point"
      },
      "id": "3fde2231896624cab1b2db7535e68fe6"
    },
    {
      "type": "Feature",
      "properties": {
        "@id": "node/4801346328",
        "amenity": "restaurant",
        "name": "16th Street Seafood"
      },
      "geometry": {
        "coordinates": [
          -75.171532,
          39.930805
        ],
        "type": "Point"
      },
      "id": "43f18f34db44e226ea3742e6ff828b8e"
    },
    {
      "type": "Feature",
      "properties": {
        "@id": "node/1940776523",
        "addr:housenumber": "2012",
        "addr:street": "Sansom Street",
        "amenity": "restaurant",
        "cuisine": "italian",
        "name": "Melograno",
        "website": "http://www.melogranorestaurant.com/"
      },
      "geometry": {
        "coordinates": [
          -75.174141,
          39.951279
        ],
        "type": "Point"
      },
      "id": "441e6d332cc7dc6fcd141c677f3c52d2"
    },
    {
      "type": "Feature",
      "properties": {
        "@id": "node/1847081973",
        "addr:housenumber": "640 ",
        "addr:postcode": "19130",
        "addr:street": "Waterworks Drive ",
        "amenity": "restaurant",
        "cuisine": "american",
        "designation": "Anna McPeak",
        "name": "Water Works Restaurant and Lounge"
      },
      "geometry": {
        "coordinates": [
          -75.183388,
          39.965856
        ],
        "type": "Point"
      },
      "id": "452c1f16c544026ff1181582def8ad2f"
    },
    {
      "type": "Feature",
      "properties": {
        "@id": "node/2040440589",
        "addr:housenumber": "1410",
        "addr:street": "Mount Vernon Street",
        "amenity": "restaurant",
        "cuisine": "italian",
        "name": "Alla Spina",
        "website": "www.allaspinaphilly.com"
      },
      "geometry": {
        "coordinates": [
          -75.161523,
          39.964417
        ],
        "type": "Point"
      },
      "id": "46d929a695a173779508b092a8c44e6f"
    },
    {
      "type": "Feature",
      "properties": {
        "addr:housenumber": "227",
        "cuisine": "french",
        "name": "Parc",
        "addr:street": "South 18th Street",
        "phone": "+1 215 545 2262",
        "addr:city": "Philadelphia",
        "addr:postcode": "19103",
        "amenity": "restaurant",
        "@id": "node/651838077"
      },
      "geometry": {
        "coordinates": [
          -75.170755,
          39.949089
        ],
        "type": "Point"
      },
      "id": "477d89c5552d39b1f65bb1be14207b87"
    },
    {
      "type": "Feature",
      "properties": {
        "@id": "node/4175144191",
        "addr:street": "Pine Street",
        "amenity": "bar",
        "name": "Dirty Franks"
      },
      "geometry": {
        "coordinates": [
          -75.16286,
          39.945425
        ],
        "type": "Point"
      },
      "id": "48e2156766cbd0ead39b2bc2396eaf31"
    },
    {
      "type": "Feature",
      "properties": {
        "addr:housenumber": "700",
        "cuisine": "american",
        "name": "Jones Restaurant",
        "addr:street": "Chestnut",
        "addr:city": "Philadelphia",
        "addr:postcode": "19016",
        "designation": "Anna McPeak",
        "amenity": "restaurant",
        "website": "jones-restaurant.com",
        "@id": "node/2002973851"
      },
      "geometry": {
        "coordinates": [
          -75.152559,
          39.949358
        ],
        "type": "Point"
      },
      "id": "4ca0d65c1413161c0a65c55fc013b2be"
    },
    {
      "type": "Feature",
      "properties": {
        "addr:housenumber": "1216",
        "name": "Señor Baynard's Bar & Grill",
        "smoking": "yes",
        "addr:street": "South 17th Street",
        "phone": "+1 215 462 1888",
        "addr:city": "Philadelphia",
        "addr:postcode": "19146",
        "amenity": "bar",
        "@id": "node/2931994044"
      },
      "geometry": {
        "coordinates": [
          -75.172214,
          39.93599
        ],
        "type": "Point"
      },
      "id": "4cc0577f689602ffdaec25156c1d8798"
    },
    {
      "type": "Feature",
      "properties": {
        "addr:housenumber": "1138",
        "addr:housename": "Pinefish",
        "cuisine": "seafood",
        "name": "Pinefish",
        "addr:street": "Pine Street",
        "addr:postcode": "19107",
        "amenity": "restaurant",
        "website": "pinestreetpizza.com",
        "@id": "node/1489279350"
      },
      "geometry": {
        "coordinates": [
          -75.161285,
          39.945011
        ],
        "type": "Point"
      },
      "id": "4df0a20a93111f9cb49e87a7742ba2e6"
    },
    {
      "type": "Feature",
      "properties": {
        "addr:housenumber": "1917",
        "opening_hours": "Mo-Sa 11:00 - 22:00; Su 11:00 - 21:00",
        "addr:state": "PA",
        "name": "Fuel",
        "addr:street": "East Passyunk Avenue",
        "addr:city": "Philadelphia",
        "delivery": "yes",
        "takeaway": "yes",
        "addr:postcode": "19148",
        "amenity": "restaurant",
        "website": "http://fuelrechargeyourself.com/",
        "@id": "node/3629224847"
      },
      "geometry": {
        "coordinates": [
          -75.167603,
          39.926197
        ],
        "type": "Point"
      },
      "id": "4e0822c47a028cf7acb7a0b761d715a2"
    },
    {
      "type": "Feature",
      "properties": {
        "@id": "node/3454064542",
        "addr:housenumber": "1200",
        "addr:postcode": "19107",
        "addr:street": "Market Street",
        "amenity": "restaurant",
        "name": "Bank & Bourbon"
      },
      "geometry": {
        "coordinates": [
          -75.16004,
          39.951778
        ],
        "type": "Point"
      },
      "id": "4eefa3bb27a0df0a37f136bcebf4460c"
    },
    {
      "type": "Feature",
      "properties": {
        "@id": "node/3496961798",
        "amenity": "bar",
        "name": "The Fountain Porter"
      },
      "geometry": {
        "coordinates": [
          -75.16144,
          39.929501
        ],
        "type": "Point"
      },
      "id": "502b1e6f40a88bffd93c9b479f70dd65"
    },
    {
      "type": "Feature",
      "properties": {
        "@id": "node/1702834399",
        "addr:city": "Philadelphia",
        "addr:housenumber": "146",
        "addr:street": "North 10th Street",
        "amenity": "restaurant",
        "cuisine": "chinese",
        "name": "Imperial Inn"
      },
      "geometry": {
        "coordinates": [
          -75.156125,
          39.954888
        ],
        "type": "Point"
      },
      "id": "509072304a8f5519e383670e260e42d7"
    },
    {
      "type": "Feature",
      "properties": {
        "addr:housenumber": "1800",
        "cuisine": "chinese",
        "opening_hours": "Mo-Th 11:00-23:00; Fr-Sa 11:00-00:00; Su 12:00-23:00",
        "name": "Oriental Chinese Restaurant",
        "smoking": "no",
        "addr:street": "South Broad Street",
        "phone": "+1 215 463 9333",
        "addr:city": "Philadelphia",
        "addr:postcode": "19145",
        "amenity": "restaurant",
        "website": "http://www.orientalchinesephilly.com",
        "@id": "node/2845864074"
      },
      "geometry": {
        "coordinates": [
          -75.169138,
          39.927984
        ],
        "type": "Point"
      },
      "id": "52a98b50774bb66275d11d2e716c22a5"
    },
    {
      "type": "Feature",
      "properties": {
        "addr:housenumber": "1929",
        "addr:housename": "Dolce Carini",
        "cuisine": "pizza",
        "name": "Dolce Carini",
        "addr:street": "Chestnut Street",
        "addr:postcode": "19103",
        "amenity": "restaurant",
        "website": "dolce-carini.com",
        "@id": "node/1489698375"
      },
      "geometry": {
        "coordinates": [
          -75.172681,
          39.952054
        ],
        "type": "Point"
      },
      "id": "52c49aed83a920af45897b1de6580ea0"
    },
    {
      "type": "Feature",
      "properties": {
        "@id": "node/333786448",
        "amenity": "restaurant",
        "created_by": "Potlatch 0.10f",
        "name": "Supper",
        "source": "knowledge"
      },
      "geometry": {
        "coordinates": [
          -75.157958,
          39.942641
        ],
        "type": "Point"
      },
      "id": "53e64f3a79b3cb5ca748bbac566e868c"
    },
    {
      "type": "Feature",
      "properties": {
        "addr:housenumber": "917",
        "cuisine": "pizza",
        "name": "South Side Pizza",
        "addr:street": "South 20th Street",
        "addr:city": "Philadelphia",
        "addr:postcode": "19146",
        "amenity": "restaurant",
        "website": "http://www.southsidepizzaphilly.com/",
        "@id": "node/2740627574"
      },
      "geometry": {
        "coordinates": [
          -75.175885,
          39.940435
        ],
        "type": "Point"
      },
      "id": "5562db166689341da565467fb5e501f1"
    },
    {
      "type": "Feature",
      "properties": {
        "addr:housenumber": "1500",
        "cuisine": "american",
        "name": "Max Brenner",
        "addr:street": "Walnut Street",
        "addr:postcode": "19102",
        "designation": "Anna McPeak",
        "amenity": "restaurant",
        "website": "maxbrenner.com",
        "@id": "node/2003008235"
      },
      "geometry": {
        "coordinates": [
          -75.166083,
          39.94945
        ],
        "type": "Point"
      },
      "id": "5853fa0c42cce12fabdd16bd0318f372"
    },
    {
      "type": "Feature",
      "properties": {
        "@id": "node/1204759133",
        "amenity": "restaurant",
        "name": "Red East Chinese aka \"Fenny's\""
      },
      "geometry": {
        "coordinates": [
          -75.163731,
          39.927451
        ],
        "type": "Point"
      },
      "id": "58b676d6b029494c1246244fd6625322"
    },
    {
      "type": "Feature",
      "properties": {
        "@id": "node/4307290990",
        "addr:housenumber": "943",
        "addr:street": "South 9th Street",
        "amenity": "restaurant",
        "name": "Neuf Restaurant"
      },
      "geometry": {
        "coordinates": [
          -75.157825,
          39.938627
        ],
        "type": "Point"
      },
      "id": "59790654f0daca654961e91e010343ea"
    },
    {
      "type": "Feature",
      "properties": {
        "@id": "node/2538795585",
        "addr:city": "Philadelphia",
        "addr:housename": "The Bard's",
        "addr:housenumber": "2013",
        "addr:postcode": "19103",
        "addr:street": "Walnut Street",
        "amenity": "bar",
        "name": "The Bard's"
      },
      "geometry": {
        "coordinates": [
          -75.174352,
          39.950699
        ],
        "type": "Point"
      },
      "id": "5a7cfda667b0957c811f9f316a12c78c"
    },
    {
      "type": "Feature",
      "properties": {
        "@id": "node/1035941121",
        "amenity": "restaurant",
        "cuisine": "moroccan",
        "name": "Argan Moroccan Cuisine"
      },
      "geometry": {
        "coordinates": [
          -75.169114,
          39.95046
        ],
        "type": "Point"
      },
      "id": "5a83640073369056a702748dd386c276"
    },
    {
      "type": "Feature",
      "properties": {
        "addr:housenumber": "900",
        "cuisine": "barbecue",
        "name": "Percy Street Barbecue",
        "smoking": "no",
        "addr:street": "South Street",
        "addr:city": "Philadelphia",
        "amenity": "restaurant",
        "website": "http://www.percystreet.com/",
        "@id": "node/3265628446"
      },
      "geometry": {
        "coordinates": [
          -75.157504,
          39.942582
        ],
        "type": "Point"
      },
      "id": "5a96545d4f52c5a409b9705e848eafe6"
    },
    {
      "type": "Feature",
      "properties": {
        "@id": "node/2573928772",
        "amenity": "restaurant",
        "name": "Little Pete's Restaurant"
      },
      "geometry": {
        "coordinates": [
          -75.177576,
          39.966861
        ],
        "type": "Point"
      },
      "id": "5b3147e811450c7a412cd649b0ffc126"
    },
    {
      "type": "Feature",
      "properties": {
        "addr:housenumber": "211",
        "cuisine": "japanese",
        "name": "Yakitori Boy",
        "addr:street": "North 11th Street",
        "addr:city": "Philadelphia",
        "addr:postcode": "19107",
        "amenity": "restaurant",
        "website": "http://www.yakitoriboy.com/",
        "@id": "node/1702834419"
      },
      "geometry": {
        "coordinates": [
          -75.157271,
          39.955961
        ],
        "type": "Point"
      },
      "id": "5df52c43cc81e0dd3f01aafbb312262e"
    },
    {
      "type": "Feature",
      "properties": {
        "@id": "node/2078082474",
        "addr:housenumber": "306",
        "addr:street": "South 16th Street",
        "amenity": "restaurant",
        "cuisine": "thai",
        "name": "Jasmine Rice"
      },
      "geometry": {
        "coordinates": [
          -75.168236,
          39.947073
        ],
        "type": "Point"
      },
      "id": "5ed320472ebbc831046e97d0d00dfe95"
    },
    {
      "type": "Feature",
      "properties": {
        "@id": "node/1889907923",
        "addr:housenumber": "901",
        "addr:postcode": "19147",
        "addr:street": "South St",
        "amenity": "restaurant",
        "cuisine": "pizza",
        "name": "Little Italy Pizza",
        "website": "http://www.littleitalyone.com"
      },
      "geometry": {
        "coordinates": [
          -75.157117,
          39.942946
        ],
        "type": "Point"
      },
      "id": "5f8a927976d342ce37cbd676d056c37f"
    },
    {
      "type": "Feature",
      "properties": {
        "@id": "node/2571727616",
        "addr:city": "Philadelphia",
        "addr:housenumber": "545",
        "addr:postcode": "19123",
        "addr:street": "North Broad Street",
        "amenity": "restaurant",
        "name": "Subway"
      },
      "geometry": {
        "coordinates": [
          -75.161005,
          39.962974
        ],
        "type": "Point"
      },
      "id": "5ff9f0cc13b8a28f173e64b1dfd6dff1"
    },
    {
      "type": "Feature",
      "properties": {
        "@id": "node/2186349324",
        "amenity": "restaurant",
        "name": "Del Frisco's"
      },
      "geometry": {
        "coordinates": [
          -75.165508,
          39.950944
        ],
        "type": "Point"
      },
      "id": "6019e90de348a88241eb76b987bb5121"
    },
    {
      "type": "Feature",
      "properties": {
        "addr:housenumber": "1221",
        "cuisine": "vegan",
        "addr:state": "PA",
        "name": "Vedge",
        "smoking": "no",
        "addr:street": "Locust Street",
        "phone": "+1 215 3207500",
        "addr:city": "Philadelphia",
        "amenity": "restaurant",
        "website": "http://vedgerestaurant.com",
        "@id": "node/4236656391"
      },
      "geometry": {
        "coordinates": [
          -75.161386,
          39.947902
        ],
        "type": "Point"
      },
      "id": "62afe6c8b16eb77b70ee04a678386234"
    },
    {
      "type": "Feature",
      "properties": {
        "addr:housenumber": "2101",
        "wheelchair": "yes",
        "name": "Honey's Sit N' Eat",
        "addr:street": "South Street",
        "addr:city": "Philadelphia",
        "addr:postcode": "19146",
        "amenity": "restaurant",
        "website": "http://honeyssitneat.com/",
        "@id": "node/2805227282"
      },
      "geometry": {
        "coordinates": [
          -75.177063,
          39.945187
        ],
        "type": "Point"
      },
      "id": "62d30b80012b496a20c36f1722bf0e7e"
    },
    {
      "type": "Feature",
      "properties": {
        "@id": "node/1698067762",
        "amenity": "restaurant",
        "name": "Petes Pizza"
      },
      "geometry": {
        "coordinates": [
          -75.160823,
          39.96683
        ],
        "type": "Point"
      },
      "id": "65b9916646f7f646a5edb23b91e914f4"
    },
    {
      "type": "Feature",
      "properties": {
        "@id": "node/3944585958",
        "amenity": "bar",
        "cuisine": "american",
        "name": "Chickie's and Pete's Crabhouse and Sports Bar"
      },
      "geometry": {
        "coordinates": [
          -75.17477,
          39.911589
        ],
        "type": "Point"
      },
      "id": "676e9f7b41948065bc8cf08e12973dc9"
    },
    {
      "type": "Feature",
      "properties": {
        "@id": "node/2571727632",
        "addr:city": "Philadelphia",
        "addr:housenumber": "600",
        "addr:state": "PA",
        "addr:street": "North Broad Street",
        "amenity": "restaurant",
        "name": "Vie",
        "operator": "Cescaphe Event Group"
      },
      "geometry": {
        "coordinates": [
          -75.161374,
          39.963999
        ],
        "type": "Point"
      },
      "id": "6ae13aac5f4373273c8646452bce39d7"
    },
    {
      "type": "Feature",
      "properties": {
        "@id": "node/2571727598",
        "addr:city": "Philadelphia",
        "addr:housenumber": "600",
        "addr:postcode": "19130",
        "addr:state": "PA",
        "addr:street": "North Broad Street",
        "amenity": "restaurant",
        "name": "Route 6"
      },
      "geometry": {
        "coordinates": [
          -75.161322,
          39.964395
        ],
        "type": "Point"
      },
      "id": "6c29f0e03e4bd6d45e10d6d6da70d6f5"
    },
    {
      "type": "Feature",
      "properties": {
        "@id": "node/4271027594",
        "amenity": "restaurant",
        "name": "Jake's Sandwich Board"
      },
      "geometry": {
        "coordinates": [
          -75.160434,
          39.949587
        ],
        "type": "Point"
      },
      "id": "6c6179e46714d1113e8db40a6e414b48"
    },
    {
      "type": "Feature",
      "properties": {
        "addr:housenumber": "1000",
        "addr:housename": "Pho Cali",
        "cuisine": "vietnamese",
        "opening_hours": "Su-Th 10:30-22:30, Fr,Sa 11:00-23:00",
        "name": "Pho Cali",
        "addr:street": "Arch Street",
        "addr:postcode": "19107",
        "amenity": "restaurant",
        "@id": "node/2065987946"
      },
      "geometry": {
        "coordinates": [
          -75.156444,
          39.953448
        ],
        "type": "Point"
      },
      "id": "6d59feea5975d6b939d8bc7908293546"
    },
    {
      "type": "Feature",
      "properties": {
        "@id": "node/4175144190",
        "addr:street": "Spruce Street",
        "amenity": "restaurant",
        "cuisine": "french",
        "name": "Audrey Claire"
      },
      "geometry": {
        "coordinates": [
          -75.174433,
          39.948283
        ],
        "type": "Point"
      },
      "id": "6e72f4d4c2386b1515c865312a2df947"
    },
    {
      "type": "Feature",
      "properties": {
        "@id": "node/3548911780",
        "addr:city": "Philadelphia",
        "addr:housenumber": "1102",
        "addr:postcode": "19107",
        "addr:street": "Chestnut Street",
        "amenity": "restaurant",
        "cuisine": "ramen",
        "name": "Hiro Ramen"
      },
      "geometry": {
        "coordinates": [
          -75.158848,
          39.950114
        ],
        "type": "Point"
      },
      "id": "70cd414a3e7325113730ec8a647cee84"
    },
    {
      "type": "Feature",
      "properties": {
        "@id": "node/2296287513",
        "amenity": "restaurant",
        "cuisine": "sushi",
        "name": "Izumi"
      },
      "geometry": {
        "coordinates": [
          -75.163444,
          39.929747
        ],
        "type": "Point"
      },
      "id": "71a9ab94604017745ed2172b115d9c21"
    },
    {
      "type": "Feature",
      "properties": {
        "@id": "node/4666484197",
        "amenity": "restaurant",
        "name": "Green Egg Cafe"
      },
      "geometry": {
        "coordinates": [
          -75.166488,
          39.931402
        ],
        "type": "Point"
      },
      "id": "751176cc6721db1dd667b10a26d19a33"
    },
    {
      "type": "Feature",
      "properties": {
        "@id": "node/4514675789",
        "addr:housenumber": "133",
        "amenity": "restaurant",
        "name": "Bar Bombon"
      },
      "geometry": {
        "coordinates": [
          -75.170447,
          39.950618
        ],
        "type": "Point"
      },
      "id": "76d0de93e2426060d2d786f80ce3e297"
    },
    {
      "type": "Feature",
      "properties": {
        "@id": "node/2267258442",
        "addr:city": "Philadelphia",
        "addr:postcode": "19107",
        "addr:street": "Market Street",
        "amenity": "restaurant",
        "name": "Hard Rock Cafe"
      },
      "geometry": {
        "coordinates": [
          -75.159635,
          39.952069
        ],
        "type": "Point"
      },
      "id": "7809b83cd2b365a531988e9b1c0a3b17"
    },
    {
      "type": "Feature",
      "properties": {
        "@id": "node/5172104653",
        "amenity": "restaurant",
        "cuisine": "steak_house",
        "name": "Ruth's Chris Steak House"
      },
      "geometry": {
        "coordinates": [
          -75.170185,
          39.953012
        ],
        "type": "Point"
      },
      "id": "78263b62231a053f7f0c15c8c31bff1b"
    },
    {
      "type": "Feature",
      "properties": {
        "@id": "node/3573041119",
        "addr:city": "Philadelphia",
        "addr:housenumber": "234",
        "addr:postcode": "19107",
        "addr:street": "North 9th Street",
        "amenity": "restaurant",
        "cuisine": "chinese",
        "name": "Ocean City Restaurant"
      },
      "geometry": {
        "coordinates": [
          -75.154204,
          39.956294
        ],
        "type": "Point"
      },
      "id": "78313028d8d643800b97678a1ba10ece"
    },
    {
      "type": "Feature",
      "properties": {
        "@id": "node/2254889201",
        "addr:city": "Philadelphia",
        "amenity": "restaurant",
        "cuisine": "brazilian",
        "name": "Fogo de Chao"
      },
      "geometry": {
        "coordinates": [
          -75.162944,
          39.950862
        ],
        "type": "Point"
      },
      "id": "7c25984095cd88321b9ec3b9ad558619"
    },
    {
      "type": "Feature",
      "properties": {
        "@id": "node/3094702133",
        "amenity": "bar",
        "name": "Tria Taproom"
      },
      "geometry": {
        "coordinates": [
          -75.174018,
          39.950665
        ],
        "type": "Point"
      },
      "id": "7d49a825f7184cdb2d8d8f97446f81f4"
    },
    {
      "type": "Feature",
      "properties": {
        "@id": "node/1131465187",
        "amenity": "restaurant",
        "name": "August",
        "wheelchair": "no"
      },
      "geometry": {
        "coordinates": [
          -75.165261,
          39.933937
        ],
        "type": "Point"
      },
      "id": "7e2dc2e9685e6bebe94cbf41ede1b417"
    },
    {
      "type": "Feature",
      "properties": {
        "@id": "node/4236656389",
        "amenity": "restaurant"
      },
      "geometry": {
        "coordinates": [
          -75.161059,
          39.948241
        ],
        "type": "Point"
      },
      "id": "7ef59d6e89edd53b0337dfd918c27d65"
    },
    {
      "type": "Feature",
      "properties": {
        "@id": "node/4551221875",
        "addr:housenumber": "2711",
        "addr:street": "West Girard Avenue",
        "amenity": "bar",
        "name": "Crime & Punishment Brewing Company",
        "smoking": "outside"
      },
      "geometry": {
        "coordinates": [
          -75.180842,
          39.974364
        ],
        "type": "Point"
      },
      "id": "81a8bfe0d594884117a55b18e56ae774"
    },
    {
      "type": "Feature",
      "properties": {
        "@id": "node/1482514639",
        "addr:postcode": "19102",
        "addr:street": "1410 Pine Street",
        "amenity": "restaurant",
        "cuisine": "italian",
        "name": "Girasole"
      },
      "geometry": {
        "coordinates": [
          -75.165474,
          39.945527
        ],
        "type": "Point"
      },
      "id": "838388581cc141069870f2a4e5290b58"
    },
    {
      "type": "Feature",
      "properties": {
        "addr:housenumber": "1508",
        "cuisine": "burger",
        "wheelchair": "yes",
        "name": "The Cambridge",
        "addr:street": "South Street",
        "phone": "(267) 455-0647",
        "addr:city": "Philadelphia",
        "addr:postcode": "19146",
        "amenity": "restaurant",
        "website": "http://www.cambridgeonsouth.com/",
        "@id": "node/2701474215"
      },
      "geometry": {
        "coordinates": [
          -75.167615,
          39.943819
        ],
        "type": "Point"
      },
      "id": "84ce28a87f50568b73ff24ff940c098d"
    },
    {
      "type": "Feature",
      "properties": {
        "addr:housenumber": "611",
        "cuisine": "pizza",
        "opening_hours": "Tu-Th 17:00-22:00;Fr-Sa 12:00-23:00;Su 12:00-21:00",
        "name": "Nomad Pizza Company",
        "smoking": "no",
        "addr:street": "South 7th Street",
        "phone": "+1 215 238 0900",
        "addr:city": "Philadelphia",
        "addr:postcode": "19147",
        "amenity": "restaurant",
        "website": "http://www.nomadpizzaco.com/philadelphia.html",
        "@id": "node/2973059795"
      },
      "geometry": {
        "coordinates": [
          -75.153865,
          39.941845
        ],
        "type": "Point"
      },
      "id": "85478442d46b4294b2c2d3002b565a9b"
    },
    {
      "type": "Feature",
      "properties": {
        "addr:housenumber": "768",
        "cuisine": "italian",
        "name": "Cucina Forte",
        "addr:street": "South 8th Street",
        "phone": "(215) 238-0778",
        "addr:city": "Philadelphia",
        "addr:postcode": "19147",
        "amenity": "restaurant",
        "website": "https://www.cucinaforte.com/",
        "@id": "node/2296211827"
      },
      "geometry": {
        "coordinates": [
          -75.156181,
          39.939765
        ],
        "type": "Point"
      },
      "id": "8573186fd845499089416b6f2c18b7a6"
    },
    {
      "type": "Feature",
      "properties": {
        "addr:housenumber": "2000",
        "cuisine": "burger",
        "opening_hours": "11:00-23:00",
        "name": "Shake Shack",
        "smoking": "no",
        "addr:street": "Sansom Street",
        "phone": "+1 215 809 1742",
        "addr:city": "Philadelphia",
        "addr:postcode": "19103",
        "amenity": "restaurant",
        "website": "http://www.shakeshack.com/location/philadelphia/",
        "@id": "node/2910156409"
      },
      "geometry": {
        "coordinates": [
          -75.173792,
          39.95124
        ],
        "type": "Point"
      },
      "id": "85de78350a9515783667aecd3fec05b4"
    },
    {
      "type": "Feature",
      "properties": {
        "@id": "node/2040424579",
        "addr:housenumber": "1312 Spruce Street  Philadelphia, PA 19107",
        "addr:street": "Spruce",
        "amenity": "restaurant",
        "cuisine": "italian",
        "name": "Vetri",
        "website": "www.vetristorante.com"
      },
      "geometry": {
        "coordinates": [
          -75.163189,
          39.946736
        ],
        "type": "Point"
      },
      "id": "8668c9f504faf3c7d4034a88b238cf57"
    },
    {
      "type": "Feature",
      "properties": {
        "@id": "node/1190349091",
        "amenity": "restaurant",
        "name": "Cafe Lift"
      },
      "geometry": {
        "coordinates": [
          -75.166936,
          39.96394
        ],
        "type": "Point"
      },
      "id": "86b2c4141948d0da5945182b0d15b11b"
    },
    {
      "type": "Feature",
      "properties": {
        "addr:housenumber": "1026",
        "cuisine": "chinese",
        "name": "Joy Tsin Lau",
        "addr:street": "Race St",
        "addr:city": "Philadelphia",
        "addr:postcode": "19107",
        "amenity": "restaurant",
        "source": "http://www.yelp.com/biz/joy-tsin-lau-philadelphia-2",
        "@id": "node/1702834425"
      },
      "geometry": {
        "coordinates": [
          -75.156998,
          39.95542
        ],
        "type": "Point"
      },
      "id": "86d0ec90408d8565ba52d01c8683e2db"
    },
    {
      "type": "Feature",
      "properties": {
        "@id": "node/1847081953",
        "amenity": "restaurant",
        "cuisine": "sandwich",
        "name": "Rybread"
      },
      "geometry": {
        "coordinates": [
          -75.175942,
          39.967468
        ],
        "type": "Point"
      },
      "id": "875c7ef8888915de8de804ea333c9a49"
    },
    {
      "type": "Feature",
      "properties": {
        "addr:housenumber": "1743",
        "cuisine": "pizza",
        "name": "Lazaro's Pizzeria & Grill",
        "addr:street": "South Street",
        "phone": "215-545-2775",
        "addr:city": "Philadelphia",
        "addr:postcode": "19146",
        "amenity": "restaurant",
        "@id": "node/2581146172"
      },
      "geometry": {
        "coordinates": [
          -75.171726,
          39.944505
        ],
        "type": "Point"
      },
      "id": "87930126d2746aa2842b1dd41bbedb8b"
    },
    {
      "type": "Feature",
      "properties": {
        "@id": "node/2296287506",
        "amenity": "restaurant",
        "cuisine": "New_American",
        "name": "Fond"
      },
      "geometry": {
        "coordinates": [
          -75.162972,
          39.92987
        ],
        "type": "Point"
      },
      "id": "89b1007ae23e4eaeb72d33eb0a163abf"
    },
    {
      "type": "Feature",
      "properties": {
        "addr:housenumber": "1509",
        "wheelchair": "yes",
        "name": "Bob and Barbara's",
        "addr:street": "South Street",
        "addr:city": "Philadelphia",
        "addr:postcode": "19146",
        "amenity": "bar",
        "website": "http://bobandbarbaras.com/",
        "@id": "node/2701472360"
      },
      "geometry": {
        "coordinates": [
          -75.167477,
          39.94397
        ],
        "type": "Point"
      },
      "id": "8bd519c98545233c4c41f00859fcb782"
    },
    {
      "type": "Feature",
      "properties": {
        "addr:housenumber": "1709",
        "cuisine": "spanish;wine",
        "opening_hours": "Mo-Su 4:00p-2:00a",
        "name": "Barcelona Wine Bar",
        "addr:street": "East Passyunk Avenue",
        "addr:city": "Philadelphia",
        "amenity": "restaurant",
        "outdoor_seating": "yes",
        "@id": "node/5056439943"
      },
      "geometry": {
        "coordinates": [
          -75.165269,
          39.928131
        ],
        "type": "Point"
      },
      "id": "8c372416c353c959b867cd101f2021b4"
    },
    {
      "type": "Feature",
      "properties": {
        "@id": "node/774311358",
        "addr:city": "Philadelphia",
        "addr:housenumber": "2025",
        "addr:postcode": "19130",
        "addr:street": "Fairmount Avenue",
        "amenity": "restaurant",
        "name": "Hickory Lane",
        "website": "http://hickorylanebistro.com/"
      },
      "geometry": {
        "coordinates": [
          -75.171156,
          39.967418
        ],
        "type": "Point"
      },
      "id": "8cef0f695fa2dffa76a15ff4ca48655c"
    },
    {
      "type": "Feature",
      "properties": {
        "@id": "node/4379394799",
        "amenity": "bar",
        "name": "Emily's"
      },
      "geometry": {
        "coordinates": [
          -75.171807,
          39.930851
        ],
        "type": "Point"
      },
      "id": "8d599f5a23e2bd9f0bbb5ac96652c4f5"
    },
    {
      "type": "Feature",
      "properties": {
        "@id": "node/774310365",
        "addr:housenumber": "2130",
        "addr:street": "Fairmount Avenue",
        "amenity": "restaurant",
        "cuisine": "american",
        "designation": "Anna McPeak",
        "name": "Jack's Firehouse"
      },
      "geometry": {
        "coordinates": [
          -75.173243,
          39.967126
        ],
        "type": "Point"
      },
      "id": "8f1bcc940bc3ae0ee82c901d830f4a6c"
    },
    {
      "type": "Feature",
      "properties": {
        "@id": "node/2296514766",
        "addr:city": "Philadelphia",
        "addr:housenumber": "726",
        "addr:postcode": "19130",
        "addr:street": "N 24th St.",
        "amenity": "restaurant",
        "name": "Bridgid's",
        "website": "http://bridgids.com/"
      },
      "geometry": {
        "coordinates": [
          -75.176833,
          39.968467
        ],
        "type": "Point"
      },
      "id": "8f2e1137276df860ff7d552c385529c5"
    },
    {
      "type": "Feature",
      "properties": {
        "@id": "node/2256040035",
        "amenity": "restaurant",
        "cuisine": "italian",
        "name": "Maggiano's",
        "wheelchair": "yes"
      },
      "geometry": {
        "coordinates": [
          -75.159882,
          39.953111
        ],
        "type": "Point"
      },
      "id": "90470f01b30afd9bd467d54acffe629e"
    },
    {
      "type": "Feature",
      "properties": {
        "@id": "node/2573865973",
        "amenity": "restaurant",
        "name": "Saladworks"
      },
      "geometry": {
        "coordinates": [
          -75.163405,
          39.962434
        ],
        "type": "Point"
      },
      "id": "90a579eaedc000081d1385b78db71491"
    },
    {
      "type": "Feature",
      "properties": {
        "addr:housenumber": "209",
        "addr:housename": "13th Street Pizza",
        "cuisine": "pizza",
        "name": "13th Street Pizza",
        "addr:street": "South 13th Street",
        "addr:postcode": "19107",
        "amenity": "restaurant",
        "website": "13streetpizza.com",
        "@id": "node/1489690688"
      },
      "geometry": {
        "coordinates": [
          -75.162158,
          39.948431
        ],
        "type": "Point"
      },
      "id": "90aad5d1930a68e079a0be7141fbb95a"
    },
    {
      "type": "Feature",
      "properties": {
        "internet_access": "wlan",
        "cuisine": "italian",
        "opening_hours": "Mo-Th 11:00-22:00; Fr-Sa 11:00-23:00; Su 11:00-21:00",
        "name": "LaScala's",
        "phone": "+1 215 928 09 00",
        "addr:postcode": "19106",
        "name:en": "LaScala's",
        "amenity": "restaurant",
        "website": "http://lascalasphilly.com/",
        "@id": "node/4880698721",
        "email": "Eat@lascalasphilly.com"
      },
      "geometry": {
        "coordinates": [
          -75.152127,
          39.949501
        ],
        "type": "Point"
      },
      "id": "9330f4f1ddf052c0df9c4e3fe9c99f47"
    },
    {
      "type": "Feature",
      "properties": {
        "@id": "node/3527163512",
        "addr:city": "Philadelphia",
        "addr:housenumber": "1318",
        "addr:street": "Chestnut Street",
        "amenity": "bar",
        "name": "Brü Craft & Wurst"
      },
      "geometry": {
        "coordinates": [
          -75.162521,
          39.950594
        ],
        "type": "Point"
      },
      "id": "956a33a96735a7fc3078caa45d795546"
    },
    {
      "type": "Feature",
      "properties": {
        "addr:housenumber": "1231-1233",
        "contact:facebook": "garagephilly",
        "opening_hours": "5:00 PM - 2:00 AM Monday - Friday, 12:00 PM - 2:00 AM Saturday, Sunday",
        "addr:state": "PA",
        "name": "The Garage",
        "smoking": "outside",
        "addr:street": "East Passyunk Avenue",
        "phone": "(215) 278-2429",
        "addr:city": "Philadelphia",
        "addr:postcode": "19147",
        "amenity": "bar",
        "website": "http://garagephilly.com/",
        "@id": "node/3885206651"
      },
      "geometry": {
        "coordinates": [
          -75.158834,
          39.933499
        ],
        "type": "Point"
      },
      "id": "973a2d8ad4c7f4ad4401e7c2714d1427"
    },
    {
      "type": "Feature",
      "properties": {
        "@id": "node/1702834414",
        "addr:city": "Philadelphia",
        "addr:housenumber": "1001",
        "addr:postcode": "19107",
        "addr:street": "Race St",
        "amenity": "restaurant",
        "cuisine": "chinese",
        "name": "David's Mai Lai Wah"
      },
      "geometry": {
        "coordinates": [
          -75.155983,
          39.955472
        ],
        "type": "Point"
      },
      "id": "983e4593685f35030b9b9a5052f6e21b"
    },
    {
      "type": "Feature",
      "properties": {
        "addr:housenumber": "1927",
        "cuisine": "italian",
        "opening_hours": "Mo-Th 17:00-22:00; Fr-Sa 17:00-22:30; Su 16:00-21:30",
        "addr:state": "PA",
        "name": "Le Virtu",
        "addr:street": "East Passyunk Avenue",
        "addr:city": "Philadelphia",
        "addr:postcode": "19148",
        "amenity": "restaurant",
        "website": "http://levirtu.com/",
        "@id": "node/2296287523"
      },
      "geometry": {
        "coordinates": [
          -75.167802,
          39.925989
        ],
        "type": "Point"
      },
      "id": "9932c0041822e1c7c20306ccb7840936"
    },
    {
      "type": "Feature",
      "properties": {
        "addr:housenumber": "1549",
        "cuisine": "italian",
        "addr:state": "PA",
        "name": "Francoluigi's Italian Restaurant & High Note Cafe",
        "addr:street": "South 13th Street",
        "addr:city": "Philadelphia",
        "takeaway": "yes",
        "addr:postcode": "19147",
        "amenity": "restaurant",
        "@id": "node/4534023856"
      },
      "geometry": {
        "coordinates": [
          -75.166077,
          39.930288
        ],
        "type": "Point"
      },
      "id": "9bd41fe51bab92c4e7cfcedf250f3dd4"
    },
    {
      "type": "Feature",
      "properties": {
        "@id": "node/3545078826",
        "addr:city": "Philadelphia",
        "addr:housenumber": "1504",
        "addr:street": "Sansom Street",
        "amenity": "restaurant",
        "name": "500º"
      },
      "geometry": {
        "coordinates": [
          -75.166276,
          39.950304
        ],
        "type": "Point"
      },
      "id": "a0c0821f6a59fca017764dc35aa268dd"
    },
    {
      "type": "Feature",
      "properties": {
        "@id": "node/2581946414",
        "addr:housenumber": "1822",
        "addr:street": "Callowhill Street",
        "amenity": "restaurant",
        "cuisine": "japanese",
        "name": "Doma Japanese Restaurant"
      },
      "geometry": {
        "coordinates": [
          -75.169326,
          39.96036
        ],
        "type": "Point"
      },
      "id": "a17718865ad4d2f274e771ff44d58876"
    },
    {
      "type": "Feature",
      "properties": {
        "@id": "node/774290075",
        "amenity": "restaurant",
        "name": "Rembrandt's",
        "website": "http://www.rembrandts.com/"
      },
      "geometry": {
        "coordinates": [
          -75.174874,
          39.968622
        ],
        "type": "Point"
      },
      "id": "a243559487b370abc3ac14c773f0a7b1"
    },
    {
      "type": "Feature",
      "properties": {
        "@id": "node/2584498142",
        "amenity": "restaurant",
        "cuisine": "pizza",
        "name": "Luigi's Pizzeria"
      },
      "geometry": {
        "coordinates": [
          -75.177176,
          39.967461
        ],
        "type": "Point"
      },
      "id": "a319961e86c1c400b37159f0618b5855"
    },
    {
      "type": "Feature",
      "properties": {
        "@id": "node/2571955549",
        "addr:city": "Philadelphia",
        "addr:housenumber": "1820",
        "addr:street": "Spring Garden St",
        "amenity": "restaurant",
        "cuisine": "chinese",
        "name": "Golden Chopsticks"
      },
      "geometry": {
        "coordinates": [
          -75.167997,
          39.963079
        ],
        "type": "Point"
      },
      "id": "a389eb6b43dc93654fe187ecec1e1711"
    },
    {
      "type": "Feature",
      "properties": {
        "addr:housenumber": "1002",
        "addr:housename": "Mixx Fusions & Sushi",
        "cuisine": "sushi",
        "opening_hours": "Mo-Th 12:00-23:30, Fr 12:00-00:30, Sa 11:30-00:30, Su 11:30-11:00",
        "name": "Mixx Fusions & Sushi",
        "addr:street": "Arch Street",
        "addr:postcode": "19107",
        "amenity": "restaurant",
        "@id": "node/2065988627"
      },
      "geometry": {
        "coordinates": [
          -75.156541,
          39.953465
        ],
        "type": "Point"
      },
      "id": "a3dcc03ea70bb07484129c6e29c483d1"
    },
    {
      "type": "Feature",
      "properties": {
        "@id": "node/3892460932",
        "amenity": "bar",
        "name": "U-Bahn"
      },
      "geometry": {
        "coordinates": [
          -75.162593,
          39.950609
        ],
        "type": "Point"
      },
      "id": "a5b5e3bcbfac368044028cac70b62221"
    },
    {
      "type": "Feature",
      "properties": {
        "@id": "node/3548494994",
        "addr:housenumber": "1405",
        "addr:street": "Locust Street",
        "amenity": "restaurant",
        "cuisine": "greek",
        "name": "Estia"
      },
      "geometry": {
        "coordinates": [
          -75.165306,
          39.948409
        ],
        "type": "Point"
      },
      "id": "a5f4afb426ebd7622520dc2a3c23f74d"
    },
    {
      "type": "Feature",
      "properties": {
        "@id": "node/1749989684",
        "amenity": "bar",
        "name": "Watkins Drinkery"
      },
      "geometry": {
        "coordinates": [
          -75.162035,
          39.927958
        ],
        "type": "Point"
      },
      "id": "aaf048c2c6b89526f1892791b4476d89"
    },
    {
      "type": "Feature",
      "properties": {
        "addr:housenumber": "1506",
        "name": "So Crepe",
        "addr:street": "South Street",
        "phone": "(267) 761-9310",
        "addr:city": "Philadelphia",
        "addr:postcode": "19146",
        "amenity": "restaurant",
        "website": "http://www.socrepe.com/",
        "@id": "node/2701473727"
      },
      "geometry": {
        "coordinates": [
          -75.16755,
          39.943812
        ],
        "type": "Point"
      },
      "id": "ac97010965ce4c768763c376ddda4e71"
    },
    {
      "type": "Feature",
      "properties": {
        "@id": "node/4267167928",
        "amenity": "bar",
        "name": "Ray's Happy Birthday Bar",
        "opening_hours": "2am close",
        "smoking": "yes"
      },
      "geometry": {
        "coordinates": [
          -75.158492,
          39.934111
        ],
        "type": "Point"
      },
      "id": "adb479eb5dee1e707d109f319ef257dc"
    },
    {
      "type": "Feature",
      "properties": {
        "@id": "node/3529171172",
        "addr:housenumber": "1315",
        "addr:street": "Sansom Street",
        "amenity": "restaurant",
        "name": "Time"
      },
      "geometry": {
        "coordinates": [
          -75.162644,
          39.95
        ],
        "type": "Point"
      },
      "id": "b0a4f43ff8a5534624e5c580a47c80be"
    },
    {
      "type": "Feature",
      "properties": {
        "@id": "node/1204761128",
        "amenity": "bar",
        "name": "Vikings High School Club"
      },
      "geometry": {
        "coordinates": [
          -75.163629,
          39.926847
        ],
        "type": "Point"
      },
      "id": "b0fb21794344287af546f3e9e8b6066a"
    },
    {
      "type": "Feature",
      "properties": {
        "@id": "node/1033935437",
        "amenity": "restaurant",
        "name": "Mix"
      },
      "geometry": {
        "coordinates": [
          -75.175524,
          39.95242
        ],
        "type": "Point"
      },
      "id": "b389b3a27afe627d9e519ee30df5dbd0"
    },
    {
      "type": "Feature",
      "properties": {
        "addr:housenumber": "1648",
        "cuisine": "Asian",
        "opening_hours": "M-Th 5p - 10p, F 5p - 11p, S 12p - 11p, Su 12p - 10p",
        "addr:state": "PA",
        "name": "Bing Bing Dim Sum",
        "smoking": "no",
        "addr:street": "East Passyunk Avenue",
        "addr:city": "Philadelphia",
        "addr:postcode": "19148",
        "amenity": "restaurant",
        "@id": "node/3832762234"
      },
      "geometry": {
        "coordinates": [
          -75.164783,
          39.92891
        ],
        "type": "Point"
      },
      "id": "b3d4fdca8495998b1953bbd19341da5f"
    },
    {
      "type": "Feature",
      "properties": {
        "@id": "node/2040446963",
        "addr:housenumber": "760 South 9th Street philadelphia,Pa 19147",
        "addr:street": "9th street",
        "amenity": "restaurant",
        "cuisine": "italian",
        "name": "Ralphs",
        "website": "www.ralpsresturant.com"
      },
      "geometry": {
        "coordinates": [
          -75.157647,
          39.940255
        ],
        "type": "Point"
      },
      "id": "b4174715ac563ea35d56790f4cefec0d"
    },
    {
      "type": "Feature",
      "properties": {
        "addr:housenumber": "264",
        "opening_hours": "Mo-Su 11:30-02:00",
        "name": "Monk's Cafe",
        "addr:street": "South 16th Street",
        "phone": "+1 215-545-7005",
        "addr:postcode": "19102",
        "name:en": "Monk's Cafe",
        "amenity": "bar",
        "website": "http://monkscafe.com",
        "@id": "node/4949327723",
        "name:es": "Monk's Cafe"
      },
      "geometry": {
        "coordinates": [
          -75.168079,
          39.947693
        ],
        "type": "Point"
      },
      "id": "b48c7f95be52a2885be3360aacb271a9"
    },
    {
      "type": "Feature",
      "properties": {
        "@id": "node/3475530937",
        "amenity": "restaurant",
        "name": "Serafina"
      },
      "geometry": {
        "coordinates": [
          -75.170645,
          39.950842
        ],
        "type": "Point"
      },
      "id": "b4a03eff61841ef01d472ff0fffd98fd"
    },
    {
      "type": "Feature",
      "properties": {
        "addr:housenumber": "2000",
        "cuisine": "pizza",
        "opening_hours": "Mo 11:00-01:00; Tu-Fr 11:00-22:00; Sa-Su 11:00-01:00",
        "name": "San Lucas Pizzeria",
        "addr:street": "South Bouvier Street",
        "phone": "+1 215 465 0134",
        "addr:city": "Philadelphia",
        "addr:postcode": "19145",
        "amenity": "restaurant",
        "website": "http://sanlucasphila.webs.com",
        "@id": "node/2705744113"
      },
      "geometry": {
        "coordinates": [
          -75.175313,
          39.926275
        ],
        "type": "Point"
      },
      "id": "b6acc5ae63b4540749b2f7f3e3dac293"
    },
    {
      "type": "Feature",
      "properties": {
        "@id": "node/1479226444",
        "amenity": "restaurant",
        "cuisine": "vegetarian",
        "diet:vegetarian": "only",
        "name": "Sabrina's Cafe",
        "website": "sabrinascafe.com"
      },
      "geometry": {
        "coordinates": [
          -75.158248,
          39.938962
        ],
        "type": "Point"
      },
      "id": "b9544b8c3d7e49fc444565b56220edac"
    },
    {
      "type": "Feature",
      "properties": {
        "@id": "node/4668627526",
        "amenity": "bar",
        "name": "South Philly Bar and Grill"
      },
      "geometry": {
        "coordinates": [
          -75.158902,
          39.933416
        ],
        "type": "Point"
      },
      "id": "bba1ea1126bd519c412baefb63578eb2"
    },
    {
      "type": "Feature",
      "properties": {
        "@id": "node/2296287516",
        "amenity": "restaurant",
        "cuisine": "italian",
        "name": "Chiarella's"
      },
      "geometry": {
        "coordinates": [
          -75.163268,
          39.929727
        ],
        "type": "Point"
      },
      "id": "bba470f6524d5d01fa6175fc05d03a7d"
    },
    {
      "type": "Feature",
      "properties": {
        "@id": "node/2571727551",
        "addr:city": "Philadelphia",
        "addr:housenumber": "1537",
        "addr:postcode": "19130",
        "addr:state": "PA",
        "addr:street": "Spring Garden St",
        "amenity": "restaurant",
        "name": "I Tea"
      },
      "geometry": {
        "coordinates": [
          -75.164178,
          39.963007
        ],
        "type": "Point"
      },
      "id": "befd31520b219d789d1e39b55cf9e255"
    },
    {
      "type": "Feature",
      "properties": {
        "addr:housenumber": "126",
        "cuisine": "vegan",
        "opening_hours": "Mo off",
        "addr:state": "PA",
        "name": "Vstreet",
        "smoking": "no",
        "addr:street": "South 19th Street",
        "phone": "+1 215 2787943",
        "addr:city": "Philadelphia",
        "amenity": "restaurant",
        "website": "vstreetfood.com",
        "@id": "node/4236713604"
      },
      "geometry": {
        "coordinates": [
          -75.172265,
          39.950951
        ],
        "type": "Point"
      },
      "id": "c0d8de922d21170d690fe0f96f36ce19"
    },
    {
      "type": "Feature",
      "properties": {
        "@id": "node/3777019863",
        "addr:city": "Philadelphia",
        "addr:housenumber": "2217",
        "addr:postcode": "19148",
        "addr:state": "PA",
        "addr:street": "South 7th Street",
        "amenity": "restaurant",
        "name": "Heng Seng"
      },
      "geometry": {
        "coordinates": [
          -75.158415,
          39.921173
        ],
        "type": "Point"
      },
      "id": "c32b64c128e9093b77352b0166f10c40"
    },
    {
      "type": "Feature",
      "properties": {
        "addr:housenumber": "1901",
        "internet_access": "no",
        "opening_hours": "11:00 - 02:00",
        "name": "Sit on It Bar",
        "addr:street": "South 19th Street",
        "phone": "+1 215 551 9389",
        "addr:city": "Philadelphia",
        "addr:postcode": "19145",
        "amenity": "bar",
        "@id": "node/2699327332",
        "food": "yes"
      },
      "geometry": {
        "coordinates": [
          -75.177025,
          39.927749
        ],
        "type": "Point"
      },
      "id": "c451ee04cd2cb936df8185ab88e2773d"
    },
    {
      "type": "Feature",
      "properties": {
        "@id": "node/5366495321",
        "amenity": "bar",
        "name": "Strangeloves Craft Beer, New Orleans grub"
      },
      "geometry": {
        "coordinates": [
          -75.159232,
          39.948082
        ],
        "type": "Point"
      },
      "id": "c46742c303e965bfb239139c42fc6419"
    },
    {
      "type": "Feature",
      "properties": {
        "@id": "node/2795233692",
        "addr:city": "Philadelphia",
        "addr:housenumber": "325",
        "addr:postcode": "19107",
        "addr:street": "North 12th Street",
        "amenity": "restaurant",
        "cuisine": "american",
        "name": "Jany's"
      },
      "geometry": {
        "coordinates": [
          -75.15836,
          39.958465
        ],
        "type": "Point"
      },
      "id": "c4b1b33ab9528e7dbd4c147aef729288"
    },
    {
      "type": "Feature",
      "properties": {
        "addr:housenumber": "1823",
        "cuisine": "burger",
        "opening_hours": "Su-Th 10:00-22:00; Fr 10:00-00:00; Sa 10:00-03:00",
        "addr:state": "PA",
        "name": "P'unk Burger",
        "smoking": "no",
        "addr:street": "East Passyunk Avenue",
        "addr:city": "Philadelphia",
        "delivery": "yes",
        "takeaway": "yes",
        "addr:postcode": "19148",
        "amenity": "restaurant",
        "@id": "node/3713299198"
      },
      "geometry": {
        "coordinates": [
          -75.16655,
          39.927144
        ],
        "type": "Point"
      },
      "id": "c4cb26bd9d6ee62de842c526a135006a"
    },
    {
      "type": "Feature",
      "properties": {
        "@id": "node/2296287519",
        "amenity": "restaurant",
        "cuisine": "pizza",
        "name": "Birra"
      },
      "geometry": {
        "coordinates": [
          -75.165125,
          39.928721
        ],
        "type": "Point"
      },
      "id": "c5e7604b05eebe50b6e86f93d564c1b0"
    },
    {
      "type": "Feature",
      "properties": {
        "addr:housenumber": "1801",
        "internet_access": "no",
        "cuisine": "chinese",
        "wheelchair": "no",
        "name": "Great Wall",
        "smoking": "no",
        "addr:street": "Moore Street",
        "phone": "+1 215 336 7105",
        "addr:city": "Philadelphia",
        "delivery": "no",
        "takeaway": "only",
        "addr:postcode": "19145",
        "amenity": "restaurant",
        "outdoor_seating": "no",
        "@id": "node/2699324359"
      },
      "geometry": {
        "coordinates": [
          -75.175395,
          39.928985
        ],
        "type": "Point"
      },
      "id": "c6d6a72bf3084d8fce0223067f18dcde"
    },
    {
      "type": "Feature",
      "properties": {
        "@id": "node/2296511242",
        "amenity": "restaurant",
        "name": "Bishop's Collar",
        "website": "http://thecollar.us/"
      },
      "geometry": {
        "coordinates": [
          -75.176882,
          39.967487
        ],
        "type": "Point"
      },
      "id": "c97685a976692f1498fa71792a4681ac"
    },
    {
      "type": "Feature",
      "properties": {
        "@id": "node/3496953291",
        "amenity": "restaurant",
        "name": "Brigantessa"
      },
      "geometry": {
        "coordinates": [
          -75.162837,
          39.930527
        ],
        "type": "Point"
      },
      "id": "cbd194e089343301f1ad9ac89ca5775e"
    },
    {
      "type": "Feature",
      "properties": {
        "addr:housenumber": "1824",
        "cuisine": "pizza",
        "opening_hours": "Su-Th 07:00-23:00; Fr-Sa 07:00-0:00",
        "addr:state": "PA",
        "name": "Isabella Pizza",
        "smoking": "no",
        "addr:street": "East Passyunk Avenue",
        "addr:city": "Philadelphia",
        "delivery": "yes",
        "takeaway": "yes",
        "addr:postcode": "19148",
        "amenity": "restaurant",
        "capacity": "10",
        "@id": "node/3713265390"
      },
      "geometry": {
        "coordinates": [
          -75.166773,
          39.927194
        ],
        "type": "Point"
      },
      "id": "ce163e51069e1c0f56af46ef6399add0"
    },
    {
      "type": "Feature",
      "properties": {
        "@id": "node/4900271521",
        "amenity": "restaurant",
        "cuisine": "mexican",
        "internet_access": "wlan",
        "name": "Lolita",
        "name:en": "Lolita"
      },
      "geometry": {
        "coordinates": [
          -75.162178,
          39.949959
        ],
        "type": "Point"
      },
      "id": "ce901240bc04e2c26a9f008f5a2f617c"
    },
    {
      "type": "Feature",
      "properties": {
        "@id": "node/2822026031",
        "amenity": "bar",
        "name": "Devil's Den"
      },
      "geometry": {
        "coordinates": [
          -75.16199,
          39.93581
        ],
        "type": "Point"
      },
      "id": "cf7ad35f68eb9294dd4bad09f16acc7b"
    },
    {
      "type": "Feature",
      "properties": {
        "@id": "node/3554597100",
        "addr:city": "Philadelphia",
        "addr:postcode": "19107",
        "addr:street": "Race Street",
        "amenity": "restaurant",
        "cuisine": "chinese",
        "name": "Jade Harbor Restaurant"
      },
      "geometry": {
        "coordinates": [
          -75.155809,
          39.955296
        ],
        "type": "Point"
      },
      "id": "cf85b037aeafae84a7cfd16b300d2336"
    },
    {
      "type": "Feature",
      "properties": {
        "@id": "node/2065989577",
        "addr:housename": "Yummy Yummy",
        "addr:housenumber": "52",
        "addr:postcode": "19107",
        "addr:street": "North 10th Street",
        "amenity": "restaurant",
        "cuisine": "asian",
        "name": "Yummy Yummy"
      },
      "geometry": {
        "coordinates": [
          -75.156466,
          39.953274
        ],
        "type": "Point"
      },
      "id": "d09d6c90604710c4734fb9ee70a0556f"
    },
    {
      "type": "Feature",
      "properties": {
        "addr:housenumber": "1716",
        "internet_access": "wlan",
        "cuisine": "italian",
        "opening_hours": "Mo-Th 07:00-23:00; Fr 07:00-24:00; Sa 08:00-24:00; Su 08:00-23:00",
        "addr:state": "PA",
        "name": "Gran Caffe L'Aquila",
        "addr:street": "Chestnut Street",
        "phone": "+1 215 568 5600",
        "addr:city": "Philadelphia",
        "delivery": "no",
        "addr:postcode": "19103",
        "amenity": "restaurant",
        "@id": "node/4055253177"
      },
      "geometry": {
        "coordinates": [
          -75.169469,
          39.951457
        ],
        "type": "Point"
      },
      "id": "d12a2039b95be8a0e641fc8f2aad333a"
    },
    {
      "type": "Feature",
      "properties": {
        "@id": "node/774291327",
        "amenity": "restaurant",
        "name": "London Grill",
        "website": "http://www.londongrill.com/"
      },
      "geometry": {
        "coordinates": [
          -75.175478,
          39.967491
        ],
        "type": "Point"
      },
      "id": "d220357476e57740ede7dcdd27e884dd"
    },
    {
      "type": "Feature",
      "properties": {
        "addr:housenumber": "1909",
        "cuisine": "italian",
        "addr:state": "PA",
        "amenity_1": "bar",
        "name": "Noir",
        "addr:street": "East Passyunk Avenue",
        "addr:city": "Philadelphia",
        "addr:postcode": "19148",
        "amenity": "restaurant",
        "website": "http://www.noirrestaurantandbar.com/",
        "@id": "node/3629250848"
      },
      "geometry": {
        "coordinates": [
          -75.167499,
          39.926299
        ],
        "type": "Point"
      },
      "id": "d2a1ccb575d3d744b1a79d418ea3cb65"
    },
    {
      "type": "Feature",
      "properties": {
        "@id": "node/333786044",
        "amenity": "restaurant",
        "created_by": "Potlatch 0.10f",
        "name": "Sam's Morning Glory",
        "source": "knowledge",
        "wheelchair": "limited"
      },
      "geometry": {
        "coordinates": [
          -75.158928,
          39.940858
        ],
        "type": "Point"
      },
      "id": "d3addedf548f6e7ca45ada467ddd41e1"
    },
    {
      "type": "Feature",
      "properties": {
        "addr:housenumber": "947",
        "opening_hours": "17:00-02:00",
        "name": "The Dive Bar",
        "smoking": "yes",
        "addr:street": "East Passyunk Avenue",
        "phone": "+1 215 465 5505",
        "addr:city": "Philadelphia",
        "addr:postcode": "19147",
        "amenity": "bar",
        "@id": "node/1475234971"
      },
      "geometry": {
        "coordinates": [
          -75.154855,
          39.936814
        ],
        "type": "Point"
      },
      "id": "d3ed66d94b1215ac0f8637659bd7f4c6"
    },
    {
      "type": "Feature",
      "properties": {
        "addr:housenumber": "2120",
        "cuisine": "american",
        "name": "Urban Saloon",
        "addr:street": "Farimount Avenue",
        "addr:postcode": "19130",
        "designation": "Anna McPeak",
        "amenity": "restaurant",
        "website": "urbansaloon.com",
        "@id": "node/2002997662"
      },
      "geometry": {
        "coordinates": [
          -75.172692,
          39.967158
        ],
        "type": "Point"
      },
      "id": "d496fe6973cc2f8fd465a38f887b1bae"
    },
    {
      "type": "Feature",
      "properties": {
        "@id": "node/3529171171",
        "addr:housenumber": "1311",
        "addr:street": "Sansom Street",
        "amenity": "restaurant",
        "cuisine": "greek",
        "name": "Opa"
      },
      "geometry": {
        "coordinates": [
          -75.162427,
          39.949971
        ],
        "type": "Point"
      },
      "id": "d615af684487f26e50f0709df8eb1938"
    },
    {
      "type": "Feature",
      "properties": {
        "@id": "node/3496961797",
        "amenity": "restaurant",
        "cuisine": "mexican",
        "name": "El Maguey"
      },
      "geometry": {
        "coordinates": [
          -75.161641,
          39.929697
        ],
        "type": "Point"
      },
      "id": "da91148834c574e3e2e16a87c2ce8326"
    },
    {
      "type": "Feature",
      "properties": {
        "addr:housenumber": "1301",
        "cuisine": "breakfast",
        "addr:state": "PA",
        "name": "Porto",
        "addr:street": "South 11th Street",
        "addr:city": "Philadelphia",
        "addr:postcode": "19147",
        "amenity": "restaurant",
        "@id": "node/4668627861"
      },
      "geometry": {
        "coordinates": [
          -75.162071,
          39.933353
        ],
        "type": "Point"
      },
      "id": "db4b1be0c49ef1f265a048d952b20391"
    },
    {
      "type": "Feature",
      "properties": {
        "@id": "node/2575194593",
        "addr:housenumber": "2230",
        "addr:street": "Fairmount Avenue",
        "amenity": "restaurant",
        "cuisine": "greek",
        "name": "Zorba's Tavern"
      },
      "geometry": {
        "coordinates": [
          -75.174854,
          39.967182
        ],
        "type": "Point"
      },
      "id": "db4d6bfb7c8616314b2abd0a7778f868"
    },
    {
      "type": "Feature",
      "properties": {
        "addr:housenumber": "121",
        "internet_access": "wlan",
        "opening_hours": "Mo-Th 07:00-22:00; Fr 07:00-23:00; Sa 08:00-23:00; Su 08:00-21:00",
        "name": "Marathon - 16th & Sansom",
        "addr:street": "South 16th Street",
        "phone": "+1 215 569 32 78",
        "addr:postcode": "19102",
        "name:en": "Marathon",
        "amenity": "restaurant",
        "@id": "node/4542120004"
      },
      "geometry": {
        "coordinates": [
          -75.167491,
          39.950389
        ],
        "type": "Point"
      },
      "id": "dd8b4917b644fe1381e6b71140cfaa00"
    },
    {
      "type": "Feature",
      "properties": {
        "addr:housenumber": "2101",
        "opening_hours": "7am-11pm",
        "addr:state": "PA",
        "name": "Whole Foods",
        "addr:street": "Pennsylvania Avenue",
        "building": "yes",
        "addr:city": "Philadelphia",
        "addr:postcode": "19130",
        "amenity": "restaurant",
        "@id": "node/3871051833"
      },
      "geometry": {
        "coordinates": [
          -75.174359,
          39.96292
        ],
        "type": "Point"
      },
      "id": "dd8d48306a4004c866ab3390ef70b41d"
    },
    {
      "type": "Feature",
      "properties": {
        "@id": "node/1479237282",
        "amenity": "restaurant",
        "cuisine": "mexican",
        "name": "Paloma",
        "website": "palomafinedining.com"
      },
      "geometry": {
        "coordinates": [
          -75.156266,
          39.938497
        ],
        "type": "Point"
      },
      "id": "debd1787b08f209e7a6b794f03076a4e"
    },
    {
      "type": "Feature",
      "properties": {
        "@id": "node/2254889194",
        "amenity": "restaurant",
        "cuisine": "italian",
        "name": "Fratelli's"
      },
      "geometry": {
        "coordinates": [
          -75.163249,
          39.950897
        ],
        "type": "Point"
      },
      "id": "e07c3805c931887beea983c3a07e367c"
    },
    {
      "type": "Feature",
      "properties": {
        "@id": "node/2267258438",
        "amenity": "restaurant",
        "name": "Rouge"
      },
      "geometry": {
        "coordinates": [
          -75.170636,
          39.94972
        ],
        "type": "Point"
      },
      "id": "e15ed64284865b06d75aad7a57beafb0"
    },
    {
      "type": "Feature",
      "properties": {
        "@id": "node/4839107785",
        "amenity": "restaurant",
        "cuisine": "pizza",
        "name": "Santucci's "
      },
      "geometry": {
        "coordinates": [
          -75.15932,
          39.939066
        ],
        "type": "Point"
      },
      "id": "e17e1ac9be53bcf04f0c62badc24020c"
    },
    {
      "type": "Feature",
      "properties": {
        "@id": "node/1482487571",
        "addr:housenumber": "534",
        "addr:postcode": "19146",
        "addr:street": "South 15th Street",
        "amenity": "restaurant",
        "cuisine": "thai",
        "designation": "South 15th Street",
        "name": "Sawatdee"
      },
      "geometry": {
        "coordinates": [
          -75.167286,
          39.943947
        ],
        "type": "Point"
      },
      "id": "e18b115b2b6e250cb21d11b363d8b482"
    },
    {
      "type": "Feature",
      "properties": {
        "@id": "node/2256040057",
        "amenity": "bar",
        "name": "Lucky Strike",
        "sport": "bowlin"
      },
      "geometry": {
        "coordinates": [
          -75.163281,
          39.950677
        ],
        "type": "Point"
      },
      "id": "e22eeaea35091aabe76005954cb95549"
    },
    {
      "type": "Feature",
      "properties": {
        "@id": "node/1937637142",
        "amenity": "restaurant",
        "name": "Mace's Crossing",
        "source": "survey"
      },
      "geometry": {
        "coordinates": [
          -75.168297,
          39.955878
        ],
        "type": "Point"
      },
      "id": "e322b513f2858aef4dc274e0e31a038c"
    },
    {
      "type": "Feature",
      "properties": {
        "addr:housenumber": "412",
        "cuisine": "italian",
        "addr:state": "PA",
        "name": "Amis",
        "addr:street": "South 13th Street",
        "addr:city": "Philadelphia",
        "addr:postcode": "19147",
        "designation": "13th and Waverly street",
        "amenity": "restaurant",
        "website": "www.amisphilly.com",
        "@id": "node/2040315443"
      },
      "geometry": {
        "coordinates": [
          -75.16321,
          39.944812
        ],
        "type": "Point"
      },
      "id": "e3bdad9e485946afe2e0b700637e0487"
    },
    {
      "type": "Feature",
      "properties": {
        "addr:housenumber": "1521",
        "cuisine": "japanese",
        "addr:state": "PA",
        "name": "Saukra Japanese Cuisine",
        "addr:street": "Spring Garden St",
        "addr:city": "Philadelphia",
        "addr:postcode": "19130",
        "amenity": "restaurant",
        "@id": "node/2571727603"
      },
      "geometry": {
        "coordinates": [
          -75.163731,
          39.962952
        ],
        "type": "Point"
      },
      "id": "e4be965a60a41ba0c1230ba1c8da0748"
    },
    {
      "type": "Feature",
      "properties": {
        "@id": "node/2571727374",
        "addr:city": "Philadelphia",
        "addr:housenumber": "532",
        "addr:street": "North 15th Street",
        "amenity": "restaurant",
        "cuisine": "pizza",
        "name": "Brandywine Pizza"
      },
      "geometry": {
        "coordinates": [
          -75.163107,
          39.963278
        ],
        "type": "Point"
      },
      "id": "e4cb016c8ec8b476e87a175efbc7602f"
    },
    {
      "type": "Feature",
      "properties": {
        "addr:housenumber": "25",
        "cuisine": "pizza",
        "opening_hours": "Sunday - Thursday 10 am to 8 pm;Friday and Saturday 10 am - 3 am",
        "name": "Rosa Fresh Pizza",
        "smoking": "no",
        "addr:street": "South 11th Street",
        "phone": "215 627 6727",
        "addr:city": "Philadelphia",
        "addr:postcode": "19462",
        "amenity": "restaurant",
        "capacity": "20",
        "website": "http://rosasfreshpizza.com/",
        "@id": "node/3072954827"
      },
      "geometry": {
        "coordinates": [
          -75.158365,
          39.950725
        ],
        "type": "Point"
      },
      "id": "e63991bbb345efa286d89fe7d44c7527"
    },
    {
      "type": "Feature",
      "properties": {
        "@id": "node/3106219788",
        "amenity": "bar",
        "name": "Las Vegas Lounge",
        "wheelchair": "limited",
        "wheelchair:description": "Double door vestibule entrance is wheelchair accessible. Restrooms have prohibitively narrow doors."
      },
      "geometry": {
        "coordinates": [
          -75.152691,
          39.949557
        ],
        "type": "Point"
      },
      "id": "e69052a7000a10bb84213cfa3996e480"
    },
    {
      "type": "Feature",
      "properties": {
        "addr:housenumber": "1547",
        "cuisine": "pizza",
        "addr:state": "PA",
        "name": "City View Pizza",
        "addr:street": "Spring Garden St",
        "addr:city": "Philadelphia",
        "addr:postcode": "19130",
        "amenity": "restaurant",
        "@id": "node/2571727377"
      },
      "geometry": {
        "coordinates": [
          -75.164421,
          39.963036
        ],
        "type": "Point"
      },
      "id": "e6a7fe7756f5ef4c3bdb49088b9a0af8"
    },
    {
      "type": "Feature",
      "properties": {
        "@id": "node/1167105119",
        "addr:city": "Philadelphia",
        "addr:housenumber": "1388",
        "addr:street": "Chestnut Street",
        "amenity": "restaurant",
        "name": "The Capital Grille"
      },
      "geometry": {
        "coordinates": [
          -75.163718,
          39.950726
        ],
        "type": "Point"
      },
      "id": "e947548fdea326086da8d9b4ce045a7a"
    },
    {
      "type": "Feature",
      "properties": {
        "@id": "node/1482492640",
        "addr:postcode": "19146",
        "addr:street": "1314 South Street",
        "amenity": "restaurant",
        "cuisine": "american",
        "name": "Ms. Tootsies"
      },
      "geometry": {
        "coordinates": [
          -75.163843,
          39.943358
        ],
        "type": "Point"
      },
      "id": "ea5a30aa9429b70197586351d7f7ae6f"
    },
    {
      "type": "Feature",
      "properties": {
        "addr:housenumber": "118",
        "cuisine": "american",
        "opening_hours": "Mo 11:00-23:00;Tu-Th 11:00-00:00;Fr 11:00-01:00;Sa 10:30-01:00;Su 10:30-23:00",
        "name": "Village Whiskey",
        "addr:street": "South 20th Street",
        "phone": "+1 215 665 1088",
        "addr:city": "Philadelphia",
        "addr:postcode": "19103",
        "amenity": "restaurant",
        "website": "http://villagewhiskey.com",
        "@id": "node/2910156414"
      },
      "geometry": {
        "coordinates": [
          -75.173783,
          39.951393
        ],
        "type": "Point"
      },
      "id": "eaa706463cc145a57611cc6aa62b0a78"
    },
    {
      "type": "Feature",
      "properties": {
        "addr:housenumber": "1635",
        "cuisine": "sandwich",
        "name": "Potbelly Sandwich Shop",
        "addr:street": "Market Street",
        "addr:city": "Philadelphia",
        "addr:postcode": "19103",
        "amenity": "restaurant",
        "website": "http://www.potbelly.com/",
        "@id": "node/3524777069"
      },
      "geometry": {
        "coordinates": [
          -75.168207,
          39.953476
        ],
        "type": "Point"
      },
      "id": "ec07808b1b3ea80779470acea0f448da"
    },
    {
      "type": "Feature",
      "properties": {
        "@id": "node/1475239798",
        "amenity": "restaurant",
        "cuisine": "mexican",
        "name": "Cantina Los Caballitos"
      },
      "geometry": {
        "coordinates": [
          -75.164486,
          39.928911
        ],
        "type": "Point"
      },
      "id": "ed7d20210ef25758bfdd5c143f35d19c"
    },
    {
      "type": "Feature",
      "properties": {
        "@id": "node/2654371485",
        "amenity": "restaurant",
        "cuisine": "sandwich",
        "name": "Panera Bread"
      },
      "geometry": {
        "coordinates": [
          -75.159692,
          39.953843
        ],
        "type": "Point"
      },
      "id": "ee2d8530a49956b990b22820b54431f8"
    },
    {
      "type": "Feature",
      "properties": {
        "addr:housenumber": "1133",
        "cuisine": "chinese",
        "addr:state": "PA",
        "name": "Mui Chung",
        "smoking": "no",
        "addr:street": "South Broad Street",
        "addr:city": "Philadelphia",
        "takeaway": "yes",
        "addr:postcode": "19147",
        "amenity": "restaurant",
        "@id": "node/4365255887"
      },
      "geometry": {
        "coordinates": [
          -75.166785,
          39.936798
        ],
        "type": "Point"
      },
      "id": "f07c99883df115ad6ff366920e0d6607"
    },
    {
      "type": "Feature",
      "properties": {
        "@id": "node/5174799738",
        "amenity": "restaurant",
        "cuisine": "diner",
        "description": "breakfast all day",
        "wheelchair": "limited"
      },
      "geometry": {
        "coordinates": [
          -75.17032,
          39.952293
        ],
        "type": "Point"
      },
      "id": "f18c5546cc40971a7f1dfcdc726e3f21"
    },
    {
      "type": "Feature",
      "properties": {
        "@id": "node/1204753172",
        "amenity": "restaurant",
        "cuisine": "pizza",
        "name": "Marras Pizza"
      },
      "geometry": {
        "coordinates": [
          -75.16587,
          39.927989
        ],
        "type": "Point"
      },
      "id": "f1b4bb13fd570e192f7ed25e94b93a7a"
    },
    {
      "type": "Feature",
      "properties": {
        "@id": "node/2267258440",
        "addr:city": "Philadelphia",
        "addr:housenumber": "1334",
        "addr:postcode": "19107",
        "addr:street": "Walnut Street",
        "amenity": "restaurant",
        "cuisine": "middle_eastern",
        "name": "Sahara Grill"
      },
      "geometry": {
        "coordinates": [
          -75.163659,
          39.94917
        ],
        "type": "Point"
      },
      "id": "f2a6db138a8a930aa8023f5a15900009"
    },
    {
      "type": "Feature",
      "properties": {
        "addr:housenumber": "1111",
        "cuisine": "vietnamese",
        "opening_hours": "Su-Th 10:00-22:00; Fr-Sa 10:00-23:00",
        "wheelchair": "yes",
        "name": "Pho Ta",
        "addr:street": "South 11th Street",
        "phone": "+1 215 755 4000",
        "addr:city": "Philadelphia",
        "addr:postcode": "19147",
        "amenity": "restaurant",
        "website": "http://www.photarestaurant.com",
        "@id": "node/2848698990"
      },
      "geometry": {
        "coordinates": [
          -75.161376,
          39.936675
        ],
        "type": "Point"
      },
      "id": "f3ceedd4fd22c3bab42507e71e6b8a5c"
    },
    {
      "type": "Feature",
      "properties": {
        "addr:housenumber": "1408",
        "cuisine": "vegetarian",
        "diet:vegetarian": "only",
        "wheelchair": "limited",
        "name": "Govindas",
        "addr:street": "South Street",
        "addr:postcode": "19146",
        "amenity": "restaurant",
        "@id": "node/1482514627"
      },
      "geometry": {
        "coordinates": [
          -75.165792,
          39.943586
        ],
        "type": "Point"
      },
      "id": "f47813690c5d8f01c5758abe38ef4ac4"
    },
    {
      "type": "Feature",
      "properties": {
        "@id": "node/4562079042",
        "amenity": "restaurant",
        "cuisine": "pizza",
        "delivery": "yes",
        "name": "The Pizza Pub",
        "smoking": "outside",
        "takeaway": "yes"
      },
      "geometry": {
        "coordinates": [
          -75.179527,
          39.92355
        ],
        "type": "Point"
      },
      "id": "f4fdbe41cb278c10db382c0ebdb3245b"
    },
    {
      "type": "Feature",
      "properties": {
        "@id": "node/2821950508",
        "amenity": "restaurant",
        "cuisine": "seafood",
        "name": "Luke's Lobster",
        "source:cuisine": "survey"
      },
      "geometry": {
        "coordinates": [
          -75.169086,
          39.950535
        ],
        "type": "Point"
      },
      "id": "f5df05d3c0461586390daa12dc5c1c7b"
    },
    {
      "type": "Feature",
      "properties": {
        "@id": "node/2571956193",
        "amenity": "restaurant",
        "name": "Christie's Deli",
        "phone": "(215) 563-0555"
      },
      "geometry": {
        "coordinates": [
          -75.169352,
          39.963143
        ],
        "type": "Point"
      },
      "id": "f616cda198bccbfe2db409306a398425"
    },
    {
      "type": "Feature",
      "properties": {
        "addr:housenumber": "1009",
        "addr:housename": "Banana Leaf",
        "cuisine": "asian",
        "opening_hours": "Mo-Su 11:00-01:00",
        "name": "Banana Leaf",
        "addr:street": "Arch Street",
        "addr:postcode": "19107",
        "amenity": "restaurant",
        "@id": "node/2065987563"
      },
      "geometry": {
        "coordinates": [
          -75.156726,
          39.953748
        ],
        "type": "Point"
      },
      "id": "f763ce115929891ab8f3e6f6a48bb857"
    },
    {
      "type": "Feature",
      "properties": {
        "@id": "node/5172104654",
        "amenity": "bar",
        "name": "Art Bar"
      },
      "geometry": {
        "coordinates": [
          -75.170282,
          39.953045
        ],
        "type": "Point"
      },
      "id": "f7b4b3d61e7d8df276c926c7d1c2ace6"
    },
    {
      "type": "Feature",
      "properties": {
        "@id": "node/566683522",
        "amenity": "restaurant",
        "cuisine": "pizza",
        "name": "Spring Garden Pizza & Restaurant"
      },
      "geometry": {
        "coordinates": [
          -75.157492,
          39.961962
        ],
        "type": "Point"
      },
      "id": "f847defcbf583e040d26512147a31c54"
    },
    {
      "type": "Feature",
      "properties": {
        "addr:housenumber": "1511",
        "cuisine": "italian",
        "name": "Quick Fixx",
        "addr:street": "South Street",
        "addr:city": "Philadelphia",
        "addr:postcode": "19146",
        "amenity": "restaurant",
        "website": "http://thequickfixx.com/",
        "@id": "node/2701472727"
      },
      "geometry": {
        "coordinates": [
          -75.167541,
          39.943978
        ],
        "type": "Point"
      },
      "id": "f985c1e6cb34a21e1bd5e26c19970d78"
    },
    {
      "type": "Feature",
      "properties": {
        "@id": "node/2267258443",
        "amenity": "restaurant",
        "cuisine": "fondue",
        "name": "The Melting Pot",
        "wheelchair": "no"
      },
      "geometry": {
        "coordinates": [
          -75.16052,
          39.953166
        ],
        "type": "Point"
      },
      "id": "fa779ce2ecd79542f9977c387468c9a4"
    },
    {
      "type": "Feature",
      "properties": {
        "addr:housenumber": "111",
        "addr:housename": "Zio Pizza",
        "cuisine": "pizza",
        "name": "Zio Pizza",
        "addr:street": "South 13th Street",
        "addr:postcode": "19107",
        "amenity": "restaurant",
        "source": "Good Maps",
        "website": "ziospizzaphilly.com",
        "@id": "node/1489697259"
      },
      "geometry": {
        "coordinates": [
          -75.161799,
          39.950078
        ],
        "type": "Point"
      },
      "id": "fd1b4bc35380f74c187df199d3d97d23"
    },
    {
      "type": "Feature",
      "properties": {
        "addr:housenumber": "795",
        "addr:state": "PA",
        "name": "Brown Street Pub",
        "addr:street": "North 24th Street",
        "phone": "215-235-0506",
        "addr:city": "Philadelphia",
        "takeaway": "yes",
        "addr:postcode": "19130",
        "amenity": "restaurant",
        "website": "http://www.brownstreetpub.com/",
        "@id": "node/2296511246",
        "fax": "215-235-2360"
      },
      "geometry": {
        "coordinates": [
          -75.17635,
          39.969818
        ],
        "type": "Point"
      },
      "id": "ff538dec3b13c39b7d51b2d175575ec4"
    }
  ],
  "type": "FeatureCollection"
}