{
  "type": "FeatureCollection",
  "generator": "overpass-ide",
  "copyright": "The data included in this document is from www.openstreetmap.org. The data is made available under ODbL.",
  "timestamp": "2018-02-06T00:41:02Z",
  "features": [
    {
      "type": "Feature",
      "properties": {
        "@id": "node/274216909",
        "amenity": "restaurant",
        "created_by": "Potlatch 0.9c",
        "cuisine": "southwestern",
        "name": "Chili's"
      },
      "geometry": {
        "type": "Point",
        "coordinates": [
          -75.1985865,
          39.9553056
        ]
      },
      "id": "node/274216909"
    },
    {
      "type": "Feature",
      "properties": {
        "@id": "node/274217382",
        "addr:city": "Philadelphia",
        "addr:housenumber": "3401",
        "addr:postcode": "19104",
        "addr:street": "Walnut Street",
        "amenity": "restaurant",
        "cuisine": "mexican",
        "email": "universitycity@madmex.com",
        "fax": "215-382-2225",
        "name": "Mad4Mex",
        "opening_hours": "Mo-Su 00:00-02:00,11:30-24:00",
        "phone": "215-382-2221",
        "website": "http://madmex.com/philadelphia/university-city?location=university-city"
      },
      "geometry": {
        "type": "Point",
        "coordinates": [
          -75.1934932,
          39.9533422
        ]
      },
      "id": "node/274217382"
    },
    {
      "type": "Feature",
      "properties": {
        "@id": "node/333786044",
        "amenity": "restaurant",
        "created_by": "Potlatch 0.10f",
        "name": "Sam's Morning Glory",
        "source": "knowledge",
        "wheelchair": "limited"
      },
      "geometry": {
        "type": "Point",
        "coordinates": [
          -75.1589281,
          39.9408584
        ]
      },
      "id": "node/333786044"
    },
    {
      "type": "Feature",
      "properties": {
        "@id": "node/333786448",
        "amenity": "restaurant",
        "created_by": "Potlatch 0.10f",
        "name": "Supper",
        "source": "knowledge"
      },
      "geometry": {
        "type": "Point",
        "coordinates": [
          -75.1579582,
          39.9426417
        ]
      },
      "id": "node/333786448"
    },
    {
      "type": "Feature",
      "properties": {
        "@id": "node/566683522",
        "amenity": "restaurant",
        "cuisine": "pizza",
        "name": "Spring Garden Pizza & Restaurant"
      },
      "geometry": {
        "type": "Point",
        "coordinates": [
          -75.1574922,
          39.961962
        ]
      },
      "id": "node/566683522"
    },
    {
      "type": "Feature",
      "properties": {
        "@id": "node/649984276",
        "amenity": "restaurant",
        "name": "Omega Pizza"
      },
      "geometry": {
        "type": "Point",
        "coordinates": [
          -75.1784079,
          39.9453458
        ]
      },
      "id": "node/649984276"
    },
    {
      "type": "Feature",
      "properties": {
        "@id": "node/651838077",
        "addr:city": "Philadelphia",
        "addr:housenumber": "227",
        "addr:postcode": "19103",
        "addr:street": "South 18th Street",
        "amenity": "restaurant",
        "cuisine": "french",
        "name": "Parc",
        "phone": "+1 215 545 2262"
      },
      "geometry": {
        "type": "Point",
        "coordinates": [
          -75.1707551,
          39.949089
        ]
      },
      "id": "node/651838077"
    },
    {
      "type": "Feature",
      "properties": {
        "@id": "node/655417067",
        "amenity": "restaurant",
        "name": "Qdoba",
        "website": "www.qdoba.com"
      },
      "geometry": {
        "type": "Point",
        "coordinates": [
          -75.2029524,
          39.9531356
        ]
      },
      "id": "node/655417067"
    },
    {
      "type": "Feature",
      "properties": {
        "@id": "node/655418864",
        "amenity": "restaurant",
        "name": "Koreana"
      },
      "geometry": {
        "type": "Point",
        "coordinates": [
          -75.1988468,
          39.9556259
        ]
      },
      "id": "node/655418864"
    },
    {
      "type": "Feature",
      "properties": {
        "@id": "node/655424989",
        "amenity": "restaurant",
        "name": "Abner's Cheesesteaks"
      },
      "geometry": {
        "type": "Point",
        "coordinates": [
          -75.1987849,
          39.9553186
        ]
      },
      "id": "node/655424989"
    },
    {
      "type": "Feature",
      "properties": {
        "@id": "node/655425237",
        "amenity": "restaurant",
        "name": "Sitar Indian Restaurant"
      },
      "geometry": {
        "type": "Point",
        "coordinates": [
          -75.1984979,
          39.9555797
        ]
      },
      "id": "node/655425237"
    },
    {
      "type": "Feature",
      "properties": {
        "@id": "node/655426630",
        "amenity": "restaurant",
        "description": "Cuban-fusion restaurant",
        "name": "Distrito"
      },
      "geometry": {
        "type": "Point",
        "coordinates": [
          -75.202076,
          39.9559107
        ]
      },
      "id": "node/655426630"
    },
    {
      "type": "Feature",
      "properties": {
        "@id": "node/655427420",
        "amenity": "restaurant",
        "name": "Singha Thai Restaurant"
      },
      "geometry": {
        "type": "Point",
        "coordinates": [
          -75.2017166,
          39.9557236
        ]
      },
      "id": "node/655427420"
    },
    {
      "type": "Feature",
      "properties": {
        "@id": "node/655428288",
        "addr:housenumber": "140",
        "addr:street": "South 36th Street",
        "amenity": "restaurant",
        "name": "Cosi"
      },
      "geometry": {
        "type": "Point",
        "coordinates": [
          -75.1949927,
          39.9535857
        ]
      },
      "id": "node/655428288"
    },
    {
      "type": "Feature",
      "properties": {
        "@id": "node/666303120",
        "addr:city": "Philadelphia",
        "addr:housenumber": "107",
        "addr:postcode": "19104",
        "addr:state": "PA",
        "addr:street": "North 33rd Street",
        "amenity": "restaurant",
        "cuisine": "pizza",
        "name": "Drexel Pizza"
      },
      "geometry": {
        "type": "Point",
        "coordinates": [
          -75.1889413,
          39.9579633
        ]
      },
      "id": "node/666303120"
    },
    {
      "type": "Feature",
      "properties": {
        "@id": "node/666303127",
        "addr:city": "Philadelphia",
        "addr:housename": "Northside Dining Terrace",
        "addr:housenumber": "3351",
        "addr:postcode": "19104",
        "addr:state": "PA",
        "addr:street": "Race Street",
        "amenity": "restaurant",
        "cuisine": "mexican",
        "name": "Currito"
      },
      "geometry": {
        "type": "Point",
        "coordinates": [
          -75.1906462,
          39.9588845
        ]
      },
      "id": "node/666303127"
    },
    {
      "type": "Feature",
      "properties": {
        "@id": "node/774290075",
        "amenity": "restaurant",
        "name": "Rembrandt's",
        "website": "http://www.rembrandts.com/"
      },
      "geometry": {
        "type": "Point",
        "coordinates": [
          -75.174874,
          39.9686226
        ]
      },
      "id": "node/774290075"
    },
    {
      "type": "Feature",
      "properties": {
        "@id": "node/774291327",
        "amenity": "restaurant",
        "name": "London Grill",
        "website": "http://www.londongrill.com/"
      },
      "geometry": {
        "type": "Point",
        "coordinates": [
          -75.1754786,
          39.9674915
        ]
      },
      "id": "node/774291327"
    },
    {
      "type": "Feature",
      "properties": {
        "@id": "node/774310365",
        "addr:housenumber": "2130",
        "addr:street": "Fairmount Avenue",
        "amenity": "restaurant",
        "cuisine": "american",
        "designation": "Anna McPeak",
        "name": "Jack's Firehouse"
      },
      "geometry": {
        "type": "Point",
        "coordinates": [
          -75.1732432,
          39.9671261
        ]
      },
      "id": "node/774310365"
    },
    {
      "type": "Feature",
      "properties": {
        "@id": "node/774311358",
        "addr:city": "Philadelphia",
        "addr:housenumber": "2025",
        "addr:postcode": "19130",
        "addr:street": "Fairmount Avenue",
        "amenity": "restaurant",
        "name": "Hickory Lane",
        "website": "http://hickorylanebistro.com/"
      },
      "geometry": {
        "type": "Point",
        "coordinates": [
          -75.1711563,
          39.9674185
        ]
      },
      "id": "node/774311358"
    },
    {
      "type": "Feature",
      "properties": {
        "@id": "node/774334229",
        "amenity": "restaurant",
        "name": "Fairmount Pizza"
      },
      "geometry": {
        "type": "Point",
        "coordinates": [
          -75.170324,
          39.9671209
        ]
      },
      "id": "node/774334229"
    },
    {
      "type": "Feature",
      "properties": {
        "@id": "node/914761497",
        "amenity": "restaurant",
        "name": "Bibou"
      },
      "geometry": {
        "type": "Point",
        "coordinates": [
          -75.1565448,
          39.9368816
        ]
      },
      "id": "node/914761497"
    },
    {
      "type": "Feature",
      "properties": {
        "@id": "node/1033935437",
        "amenity": "restaurant",
        "name": "Mix"
      },
      "geometry": {
        "type": "Point",
        "coordinates": [
          -75.1755247,
          39.9524202
        ]
      },
      "id": "node/1033935437"
    },
    {
      "type": "Feature",
      "properties": {
        "@id": "node/1034424507",
        "amenity": "restaurant",
        "cuisine": "greek",
        "name": "Kanella"
      },
      "geometry": {
        "type": "Point",
        "coordinates": [
          -75.1444803,
          39.9383834
        ]
      },
      "id": "node/1034424507"
    },
    {
      "type": "Feature",
      "properties": {
        "@id": "node/1035941121",
        "amenity": "restaurant",
        "cuisine": "moroccan",
        "name": "Argan Moroccan Cuisine"
      },
      "geometry": {
        "type": "Point",
        "coordinates": [
          -75.169114,
          39.9504604
        ]
      },
      "id": "node/1035941121"
    },
    {
      "type": "Feature",
      "properties": {
        "@id": "node/1060440118",
        "addr:housenumber": "1107",
        "addr:street": "Walnut Street",
        "amenity": "restaurant",
        "cuisine": "pizza",
        "name": "Top Tomato Pizza"
      },
      "geometry": {
        "type": "Point",
        "coordinates": [
          -75.1594234,
          39.9488418
        ]
      },
      "id": "node/1060440118"
    },
    {
      "type": "Feature",
      "properties": {
        "@id": "node/1131465187",
        "amenity": "restaurant",
        "name": "August",
        "wheelchair": "no"
      },
      "geometry": {
        "type": "Point",
        "coordinates": [
          -75.1652615,
          39.9339378
        ]
      },
      "id": "node/1131465187"
    },
    {
      "type": "Feature",
      "properties": {
        "@id": "node/1167105119",
        "addr:city": "Philadelphia",
        "addr:housenumber": "1388",
        "addr:street": "Chestnut Street",
        "amenity": "restaurant",
        "name": "The Capital Grille"
      },
      "geometry": {
        "type": "Point",
        "coordinates": [
          -75.1637185,
          39.9507269
        ]
      },
      "id": "node/1167105119"
    },
    {
      "type": "Feature",
      "properties": {
        "@id": "node/1167105751",
        "amenity": "restaurant",
        "name": "Dunkin' Donuts"
      },
      "geometry": {
        "type": "Point",
        "coordinates": [
          -75.1623684,
          39.95241
        ]
      },
      "id": "node/1167105751"
    },
    {
      "type": "Feature",
      "properties": {
        "@id": "node/1190349091",
        "amenity": "restaurant",
        "name": "Cafe Lift"
      },
      "geometry": {
        "type": "Point",
        "coordinates": [
          -75.1669365,
          39.9639408
        ]
      },
      "id": "node/1190349091"
    },
    {
      "type": "Feature",
      "properties": {
        "@id": "node/1204753172",
        "amenity": "restaurant",
        "cuisine": "pizza",
        "name": "Marras Pizza"
      },
      "geometry": {
        "type": "Point",
        "coordinates": [
          -75.1658709,
          39.9279897
        ]
      },
      "id": "node/1204753172"
    },
    {
      "type": "Feature",
      "properties": {
        "@id": "node/1204759133",
        "amenity": "restaurant",
        "name": "Red East Chinese aka \"Fenny's\""
      },
      "geometry": {
        "type": "Point",
        "coordinates": [
          -75.1637315,
          39.9274511
        ]
      },
      "id": "node/1204759133"
    },
    {
      "type": "Feature",
      "properties": {
        "@id": "node/1215190381",
        "addr:city": "Philadelphia",
        "addr:housenumber": "4800",
        "addr:state": "PA",
        "addr:street": "Baltimore Avenue",
        "amenity": "restaurant",
        "email": "eat@thegoldstandardcafe.com",
        "fax": "215-727-7793",
        "name": "The Gold Standard",
        "opening_hours": "Mo-Fr 07:00-21:00; Sa-Su 08:00-21:00",
        "phone": "215-727-8247",
        "website": "http://www.thegoldstandardcafe.com/"
      },
      "geometry": {
        "type": "Point",
        "coordinates": [
          -75.2195775,
          39.9482008
        ]
      },
      "id": "node/1215190381"
    },
    {
      "type": "Feature",
      "properties": {
        "@id": "node/1223899512",
        "amenity": "restaurant",
        "name": "Oregon Diner"
      },
      "geometry": {
        "type": "Point",
        "coordinates": [
          -75.1529301,
          39.9140514
        ]
      },
      "id": "node/1223899512"
    },
    {
      "type": "Feature",
      "properties": {
        "@id": "node/1463841254",
        "addr:city": "Philadelphia",
        "addr:housenumber": "217-219",
        "addr:postcode": "19106",
        "addr:state": "PA",
        "addr:street": "Chestnut Street",
        "amenity": "restaurant",
        "cuisine": "spanish",
        "name": "Amada"
      },
      "geometry": {
        "type": "Point",
        "coordinates": [
          -75.1448374,
          39.9485657
        ]
      },
      "id": "node/1463841254"
    },
    {
      "type": "Feature",
      "properties": {
        "@id": "node/1475229905",
        "addr:city": "Philadelphia",
        "addr:housenumber": "1033",
        "addr:postcode": "19123",
        "addr:street": "North 2nd Street",
        "amenity": "restaurant",
        "cuisine": "burger",
        "name": "Whalburgers",
        "opening_hours": "Su-We 11:00-22:00, Th 11:00-23:00, Fr,Sa 11:00-24:00",
        "phone": "267-239-5775",
        "website": "https://www.wahlburgersphilly.com/"
      },
      "geometry": {
        "type": "Point",
        "coordinates": [
          -75.1396965,
          39.9674809
        ]
      },
      "id": "node/1475229905"
    },
    {
      "type": "Feature",
      "properties": {
        "@id": "node/1475239798",
        "amenity": "restaurant",
        "cuisine": "mexican",
        "name": "Cantina Los Caballitos"
      },
      "geometry": {
        "type": "Point",
        "coordinates": [
          -75.1644867,
          39.9289112
        ]
      },
      "id": "node/1475239798"
    },
    {
      "type": "Feature",
      "properties": {
        "@id": "node/1475267566",
        "addr:housenumber": "2010",
        "addr:postcode": "19120",
        "addr:street": "Broad Street",
        "amenity": "restaurant",
        "cuisine": "pizza",
        "name": "Owl's Nest",
        "website": "http://www.campusfood.com/restaurant.asp?campusid=118&mlid=262944"
      },
      "geometry": {
        "type": "Point",
        "coordinates": [
          -75.1570355,
          39.9836852
        ]
      },
      "id": "node/1475267566"
    },
    {
      "type": "Feature",
      "properties": {
        "@id": "node/1479226444",
        "amenity": "restaurant",
        "cuisine": "vegetarian",
        "diet:vegetarian": "only",
        "name": "Sabrina's Cafe",
        "website": "sabrinascafe.com"
      },
      "geometry": {
        "type": "Point",
        "coordinates": [
          -75.1582485,
          39.938962
        ]
      },
      "id": "node/1479226444"
    },
    {
      "type": "Feature",
      "properties": {
        "@id": "node/1479227496",
        "amenity": "restaurant",
        "cuisine": "pizza",
        "name": "Lorenzo's Pizza",
        "website": "lorenzospizza.net"
      },
      "geometry": {
        "type": "Point",
        "coordinates": [
          -75.1579425,
          39.9389166
        ]
      },
      "id": "node/1479227496"
    },
    {
      "type": "Feature",
      "properties": {
        "@id": "node/1479237282",
        "amenity": "restaurant",
        "cuisine": "mexican",
        "name": "Paloma",
        "website": "palomafinedining.com"
      },
      "geometry": {
        "type": "Point",
        "coordinates": [
          -75.1562664,
          39.9384973
        ]
      },
      "id": "node/1479237282"
    },
    {
      "type": "Feature",
      "properties": {
        "@id": "node/1482487571",
        "addr:housenumber": "534",
        "addr:postcode": "19146",
        "addr:street": "South 15th Street",
        "amenity": "restaurant",
        "cuisine": "thai",
        "designation": "South 15th Street",
        "name": "Sawatdee"
      },
      "geometry": {
        "type": "Point",
        "coordinates": [
          -75.1672866,
          39.9439478
        ]
      },
      "id": "node/1482487571"
    },
    {
      "type": "Feature",
      "properties": {
        "@id": "node/1482492640",
        "addr:postcode": "19146",
        "addr:street": "1314 South Street",
        "amenity": "restaurant",
        "cuisine": "american",
        "name": "Ms. Tootsies"
      },
      "geometry": {
        "type": "Point",
        "coordinates": [
          -75.1638436,
          39.9433583
        ]
      },
      "id": "node/1482492640"
    },
    {
      "type": "Feature",
      "properties": {
        "@id": "node/1482514627",
        "addr:housenumber": "1408",
        "addr:postcode": "19146",
        "addr:street": "South Street",
        "amenity": "restaurant",
        "cuisine": "vegetarian",
        "diet:vegetarian": "only",
        "name": "Govindas",
        "wheelchair": "limited"
      },
      "geometry": {
        "type": "Point",
        "coordinates": [
          -75.1657929,
          39.9435865
        ]
      },
      "id": "node/1482514627"
    },
    {
      "type": "Feature",
      "properties": {
        "@id": "node/1482514637",
        "addr:city": "Philadelphia",
        "addr:housename": "Jamacian Jerk Hut",
        "addr:housenumber": "1436",
        "addr:postcode": "19146",
        "addr:street": "South Street",
        "amenity": "restaurant",
        "cuisine": "international",
        "name": "Jamaican Jerk Hut",
        "wheelchair": "limited"
      },
      "geometry": {
        "type": "Point",
        "coordinates": [
          -75.1666388,
          39.9436423
        ]
      },
      "id": "node/1482514637"
    },
    {
      "type": "Feature",
      "properties": {
        "@id": "node/1482514639",
        "addr:postcode": "19102",
        "addr:street": "1410 Pine Street",
        "amenity": "restaurant",
        "cuisine": "italian",
        "name": "Girasole"
      },
      "geometry": {
        "type": "Point",
        "coordinates": [
          -75.1654742,
          39.9455278
        ]
      },
      "id": "node/1482514639"
    },
    {
      "type": "Feature",
      "properties": {
        "@id": "node/1486029688",
        "addr:housenumber": "1600",
        "addr:postcode": "19121",
        "addr:street": "Broad Street",
        "amenity": "restaurant",
        "cuisine": "mexican",
        "name": "Qdoba"
      },
      "geometry": {
        "type": "Point",
        "coordinates": [
          -75.1585024,
          39.9785422
        ]
      },
      "id": "node/1486029688"
    },
    {
      "type": "Feature",
      "properties": {
        "@id": "node/1486106670",
        "addr:housename": "Lolitas",
        "addr:housenumber": "106",
        "addr:street": "South Street",
        "amenity": "restaurant",
        "name": "Lolitas Restaurant"
      },
      "geometry": {
        "type": "Point",
        "coordinates": [
          -75.1620651,
          39.9499316
        ]
      },
      "id": "node/1486106670"
    },
    {
      "type": "Feature",
      "properties": {
        "@id": "node/1489279350",
        "addr:housename": "Pinefish",
        "addr:housenumber": "1138",
        "addr:postcode": "19107",
        "addr:street": "Pine Street",
        "amenity": "restaurant",
        "cuisine": "seafood",
        "name": "Pinefish",
        "website": "pinestreetpizza.com"
      },
      "geometry": {
        "type": "Point",
        "coordinates": [
          -75.1612852,
          39.9450117
        ]
      },
      "id": "node/1489279350"
    },
    {
      "type": "Feature",
      "properties": {
        "@id": "node/1489580845",
        "addr:housenumber": "1431",
        "addr:postcode": "19121",
        "addr:street": "Cecil B. Moore Avenue",
        "amenity": "restaurant",
        "cuisine": "american",
        "name": "Draught Horse"
      },
      "geometry": {
        "type": "Point",
        "coordinates": [
          -75.1588816,
          39.9789247
        ]
      },
      "id": "node/1489580845"
    },
    {
      "type": "Feature",
      "properties": {
        "@id": "node/1489690688",
        "addr:housename": "13th Street Pizza",
        "addr:housenumber": "209",
        "addr:postcode": "19107",
        "addr:street": "South 13th Street",
        "amenity": "restaurant",
        "cuisine": "pizza",
        "name": "13th Street Pizza",
        "website": "13streetpizza.com"
      },
      "geometry": {
        "type": "Point",
        "coordinates": [
          -75.1621587,
          39.9484315
        ]
      },
      "id": "node/1489690688"
    },
    {
      "type": "Feature",
      "properties": {
        "@id": "node/1489697259",
        "addr:housename": "Zio Pizza",
        "addr:housenumber": "111",
        "addr:postcode": "19107",
        "addr:street": "South 13th Street",
        "amenity": "restaurant",
        "cuisine": "pizza",
        "name": "Zio Pizza",
        "source": "Good Maps",
        "website": "ziospizzaphilly.com"
      },
      "geometry": {
        "type": "Point",
        "coordinates": [
          -75.161799,
          39.950078
        ]
      },
      "id": "node/1489697259"
    },
    {
      "type": "Feature",
      "properties": {
        "@id": "node/1489698375",
        "addr:housename": "Dolce Carini",
        "addr:housenumber": "1929",
        "addr:postcode": "19103",
        "addr:street": "Chestnut Street",
        "amenity": "restaurant",
        "cuisine": "pizza",
        "name": "Dolce Carini",
        "website": "dolce-carini.com"
      },
      "geometry": {
        "type": "Point",
        "coordinates": [
          -75.1726819,
          39.9520544
        ]
      },
      "id": "node/1489698375"
    },
    {
      "type": "Feature",
      "properties": {
        "@id": "node/1572825730",
        "addr:city": "Philadelphia",
        "addr:postcode": "19106",
        "addr:state": "PA",
        "addr:street": "Chestnut Street",
        "amenity": "restaurant",
        "name": "Triumph Brewing Company"
      },
      "geometry": {
        "type": "Point",
        "coordinates": [
          -75.1435047,
          39.9484166
        ]
      },
      "id": "node/1572825730"
    },
    {
      "type": "Feature",
      "properties": {
        "@id": "node/1606846530",
        "amenity": "restaurant",
        "cuisine": "chinese",
        "diet:vegan": "yes",
        "name": "Golden Empress Garden"
      },
      "geometry": {
        "type": "Point",
        "coordinates": [
          -75.1509296,
          39.9416237
        ]
      },
      "id": "node/1606846530"
    },
    {
      "type": "Feature",
      "properties": {
        "@id": "node/1608847598",
        "addr:city": "Philadelphia",
        "addr:housenumber": "507",
        "addr:postcode": "19147",
        "addr:street": "South 6th Street",
        "amenity": "restaurant",
        "cuisine": "pizza",
        "diet:vegan": "only",
        "email": "contact@blackbirdpizzeria.com",
        "name": "Blackbird Pizzeria",
        "opening_hours": "Mo-Sa 11:00-22:00;Su 11:00-21:00",
        "phone": "+1 215 625 6660",
        "smoking": "no",
        "website": "http://www.blackbirdpizzeria.com"
      },
      "geometry": {
        "type": "Point",
        "coordinates": [
          -75.1520442,
          39.9428469
        ]
      },
      "id": "node/1608847598"
    },
    {
      "type": "Feature",
      "properties": {
        "@id": "node/1687412069",
        "addr:housename": "Sahara Indian Cuisine",
        "addr:postcode": "19123",
        "addr:street": "517 W Girard Ave",
        "amenity": "restaurant",
        "cuisine": "indian",
        "name": "Sahara Indian Cuisine"
      },
      "geometry": {
        "type": "Point",
        "coordinates": [
          -75.1457235,
          39.9704584
        ]
      },
      "id": "node/1687412069"
    },
    {
      "type": "Feature",
      "properties": {
        "@id": "node/1687439286",
        "addr:housename": "Owl Breakfast and Lunch",
        "addr:housenumber": "1424",
        "addr:postcode": "19121",
        "addr:street": "Cecil B. Moore",
        "amenity": "restaurant",
        "name": "Owl Breakfast and Lunch"
      },
      "geometry": {
        "type": "Point",
        "coordinates": [
          -75.1590773,
          39.9787377
        ]
      },
      "id": "node/1687439286"
    },
    {
      "type": "Feature",
      "properties": {
        "@id": "node/1687517896",
        "amenity": "restaurant",
        "name": "Plaza Pizza"
      },
      "geometry": {
        "type": "Point",
        "coordinates": [
          -75.158221,
          39.9783946
        ]
      },
      "id": "node/1687517896"
    },
    {
      "type": "Feature",
      "properties": {
        "@id": "node/1687518567",
        "amenity": "restaurant",
        "name": "Koja Grille"
      },
      "geometry": {
        "type": "Point",
        "coordinates": [
          -75.1582425,
          39.9782511
        ]
      },
      "id": "node/1687518567"
    },
    {
      "type": "Feature",
      "properties": {
        "@id": "node/1687525292",
        "amenity": "restaurant",
        "cuisine": "chinese",
        "name": "Temple Garden"
      },
      "geometry": {
        "type": "Point",
        "coordinates": [
          -75.1586167,
          39.9767801
        ]
      },
      "id": "node/1687525292"
    },
    {
      "type": "Feature",
      "properties": {
        "@id": "node/1693849091",
        "addr:street": "Broad street",
        "amenity": "restaurant",
        "cuisine": "sandwich",
        "name": "Paesanos philly"
      },
      "geometry": {
        "type": "Point",
        "coordinates": [
          -75.1569947,
          39.9838477
        ]
      },
      "id": "node/1693849091"
    },
    {
      "type": "Feature",
      "properties": {
        "@id": "node/1697912581",
        "amenity": "restaurant",
        "name": "Fare"
      },
      "geometry": {
        "type": "Point",
        "coordinates": [
          -75.1713,
          39.967178
        ]
      },
      "id": "node/1697912581"
    },
    {
      "type": "Feature",
      "properties": {
        "@id": "node/1697912584",
        "addr:city": "Philadelphia",
        "addr:housenumber": "1501-1503",
        "addr:postcode": "19130",
        "addr:state": "PA",
        "addr:street": "Spring Garden Street",
        "amenity": "restaurant",
        "cuisine": "pizza",
        "name": "LaScala's Pronto Pizza and Italian Restaurant"
      },
      "geometry": {
        "type": "Point",
        "coordinates": [
          -75.163202,
          39.9628874
        ]
      },
      "id": "node/1697912584"
    },
    {
      "type": "Feature",
      "properties": {
        "@id": "node/1698067762",
        "amenity": "restaurant",
        "name": "Petes Pizza"
      },
      "geometry": {
        "type": "Point",
        "coordinates": [
          -75.1608231,
          39.9668301
        ]
      },
      "id": "node/1698067762"
    },
    {
      "type": "Feature",
      "properties": {
        "@id": "node/1702834399",
        "addr:city": "Philadelphia",
        "addr:housenumber": "146",
        "addr:street": "North 10th Street",
        "amenity": "restaurant",
        "cuisine": "chinese",
        "name": "Imperial Inn"
      },
      "geometry": {
        "type": "Point",
        "coordinates": [
          -75.1561251,
          39.9548883
        ]
      },
      "id": "node/1702834399"
    },
    {
      "type": "Feature",
      "properties": {
        "@id": "node/1702834404",
        "addr:city": "Philadelphia",
        "addr:housenumber": "238",
        "addr:postcode": "19107",
        "addr:street": "North 9th Street",
        "alt_name": "SangKee",
        "amenity": "restaurant",
        "cuisine": "chinese",
        "name": "Sang Kee Peking Duck House",
        "opening_hours": "Mo-Su 10:00-22:45; Fr,Sa 10:00-23:45",
        "short_name": "Sang Kee",
        "source": "Official website, http://www.phillychinatown.com/sangkee.htm",
        "website": "http://www.sangkeechinatown.com/"
      },
      "geometry": {
        "type": "Point",
        "coordinates": [
          -75.1541726,
          39.9564002
        ]
      },
      "id": "node/1702834404"
    },
    {
      "type": "Feature",
      "properties": {
        "@id": "node/1702834414",
        "addr:city": "Philadelphia",
        "addr:housenumber": "1001",
        "addr:postcode": "19107",
        "addr:street": "Race St",
        "amenity": "restaurant",
        "cuisine": "chinese",
        "name": "David's Mai Lai Wah"
      },
      "geometry": {
        "type": "Point",
        "coordinates": [
          -75.1559832,
          39.9554721
        ]
      },
      "id": "node/1702834414"
    },
    {
      "type": "Feature",
      "properties": {
        "@id": "node/1702834419",
        "addr:city": "Philadelphia",
        "addr:housenumber": "211",
        "addr:postcode": "19107",
        "addr:street": "North 11th Street",
        "amenity": "restaurant",
        "cuisine": "japanese",
        "name": "Yakitori Boy",
        "website": "http://www.yakitoriboy.com/"
      },
      "geometry": {
        "type": "Point",
        "coordinates": [
          -75.1572716,
          39.955961
        ]
      },
      "id": "node/1702834419"
    },
    {
      "type": "Feature",
      "properties": {
        "@id": "node/1702834425",
        "addr:city": "Philadelphia",
        "addr:housenumber": "1026",
        "addr:postcode": "19107",
        "addr:street": "Race St",
        "amenity": "restaurant",
        "cuisine": "chinese",
        "name": "Joy Tsin Lau",
        "source": "http://www.yelp.com/biz/joy-tsin-lau-philadelphia-2"
      },
      "geometry": {
        "type": "Point",
        "coordinates": [
          -75.1569989,
          39.9554203
        ]
      },
      "id": "node/1702834425"
    },
    {
      "type": "Feature",
      "properties": {
        "@id": "node/1706534939",
        "addr:housenumber": "3505",
        "addr:postcode": "19104",
        "addr:street": "Lancaster Ave",
        "amenity": "restaurant",
        "cuisine": "pizza",
        "name": "Savas Brick Oven Pizza",
        "website": "savaspizza.com"
      },
      "geometry": {
        "type": "Point",
        "coordinates": [
          -75.1926192,
          39.9582374
        ]
      },
      "id": "node/1706534939"
    },
    {
      "type": "Feature",
      "properties": {
        "@id": "node/1712028161",
        "addr:city": "Philadelphia",
        "addr:housenumber": "901",
        "addr:postcode": "19123",
        "addr:street": "North 2nd Street",
        "amenity": "restaurant",
        "name": "Standard Tap",
        "phone": "215 -238-0630",
        "website": "standardtap.com"
      },
      "geometry": {
        "type": "Point",
        "coordinates": [
          -75.1405666,
          39.9641583
        ]
      },
      "id": "node/1712028161"
    },
    {
      "type": "Feature",
      "properties": {
        "@id": "node/1712038605",
        "addr:city": "Philadelphia",
        "addr:housenumber": "308",
        "addr:postcode": "19147",
        "addr:state": "PA",
        "addr:street": "South Street",
        "amenity": "restaurant",
        "name": "Steaks on South",
        "website": "steaksonsouth.com"
      },
      "geometry": {
        "type": "Point",
        "coordinates": [
          -75.1482991,
          39.9414158
        ]
      },
      "id": "node/1712038605"
    },
    {
      "type": "Feature",
      "properties": {
        "@id": "node/1712050828",
        "addr:housenumber": "931",
        "addr:postcode": "19123",
        "addr:street": "North 2nd Street",
        "amenity": "restaurant",
        "cuisine": "mexican",
        "name": "Cantina Dos Segundos",
        "phone": "215-629-0500",
        "website": "http://www.cantinadossegundos.com/"
      },
      "geometry": {
        "type": "Point",
        "coordinates": [
          -75.1404185,
          39.9648309
        ]
      },
      "id": "node/1712050828"
    },
    {
      "type": "Feature",
      "properties": {
        "@id": "node/1746173358",
        "amenity": "restaurant",
        "name": "Applebees Resteraunt"
      },
      "geometry": {
        "type": "Point",
        "coordinates": [
          -75.1188904,
          39.9768096
        ]
      },
      "id": "node/1746173358"
    },
    {
      "type": "Feature",
      "properties": {
        "@id": "node/1847081953",
        "amenity": "restaurant",
        "cuisine": "sandwich",
        "name": "Rybread"
      },
      "geometry": {
        "type": "Point",
        "coordinates": [
          -75.1759424,
          39.9674684
        ]
      },
      "id": "node/1847081953"
    },
    {
      "type": "Feature",
      "properties": {
        "@id": "node/1847081973",
        "addr:housenumber": "640 ",
        "addr:postcode": "19130",
        "addr:street": "Waterworks Drive ",
        "amenity": "restaurant",
        "cuisine": "american",
        "designation": "Anna McPeak",
        "name": "Water Works Restaurant and Lounge"
      },
      "geometry": {
        "type": "Point",
        "coordinates": [
          -75.1833882,
          39.9658568
        ]
      },
      "id": "node/1847081973"
    },
    {
      "type": "Feature",
      "properties": {
        "@id": "node/1889907923",
        "addr:housenumber": "901",
        "addr:postcode": "19147",
        "addr:street": "South St",
        "amenity": "restaurant",
        "cuisine": "pizza",
        "name": "Little Italy Pizza",
        "website": "http://www.littleitalyone.com"
      },
      "geometry": {
        "type": "Point",
        "coordinates": [
          -75.1571176,
          39.9429467
        ]
      },
      "id": "node/1889907923"
    },
    {
      "type": "Feature",
      "properties": {
        "@id": "node/1896674285",
        "addr:housename": "Bierstube Tsingtau",
        "addr:housenumber": "206",
        "addr:postcode": "19106",
        "addr:street": "Market",
        "amenity": "restaurant",
        "name": "Bierstube Tsingtau",
        "phone": "2159222958",
        "website": "http://www.mybierstube.com"
      },
      "geometry": {
        "type": "Point",
        "coordinates": [
          -75.1441297,
          39.9498086
        ]
      },
      "id": "node/1896674285"
    },
    {
      "type": "Feature",
      "properties": {
        "@id": "node/1896696651",
        "addr:housename": "Eulogy",
        "addr:housenumber": "136",
        "addr:postcode": "19106",
        "addr:street": "Chestnut",
        "amenity": "restaurant",
        "cuisine": "international",
        "name": "Eulogy Belgian Tavern",
        "twitter": "http://www.twitter.com/eulogybar",
        "website": "http://www.eulogybar.com"
      },
      "geometry": {
        "type": "Point",
        "coordinates": [
          -75.1438758,
          39.9482745
        ]
      },
      "id": "node/1896696651"
    },
    {
      "type": "Feature",
      "properties": {
        "@id": "node/1937637142",
        "amenity": "restaurant",
        "name": "Mace's Crossing",
        "source": "survey"
      },
      "geometry": {
        "type": "Point",
        "coordinates": [
          -75.1682972,
          39.9558788
        ]
      },
      "id": "node/1937637142"
    },
    {
      "type": "Feature",
      "properties": {
        "@id": "node/1940775046",
        "amenity": "restaurant"
      },
      "geometry": {
        "type": "Point",
        "coordinates": [
          -75.1791961,
          39.9473988
        ]
      },
      "id": "node/1940775046"
    },
    {
      "type": "Feature",
      "properties": {
        "@id": "node/1940776523",
        "addr:housenumber": "2012",
        "addr:street": "Sansom Street",
        "amenity": "restaurant",
        "cuisine": "italian",
        "name": "Melograno",
        "website": "http://www.melogranorestaurant.com/"
      },
      "geometry": {
        "type": "Point",
        "coordinates": [
          -75.1741414,
          39.9512797
        ]
      },
      "id": "node/1940776523"
    },
    {
      "type": "Feature",
      "properties": {
        "@id": "node/1961021689",
        "addr:city": "Philadelphia",
        "addr:housenumber": "200",
        "addr:postcode": "19104",
        "addr:street": "South 40th Street",
        "amenity": "restaurant",
        "cuisine": "american",
        "name": "Harvest Seasonal Grill & Wine Bar"
      },
      "geometry": {
        "type": "Point",
        "coordinates": [
          -75.2029124,
          39.9539597
        ]
      },
      "id": "node/1961021689"
    },
    {
      "type": "Feature",
      "properties": {
        "@id": "node/1998207348",
        "amenity": "restaurant",
        "cuisine": "sandwich",
        "name": "Subway"
      },
      "geometry": {
        "type": "Point",
        "coordinates": [
          -75.1557618,
          39.9825949
        ]
      },
      "id": "node/1998207348"
    },
    {
      "type": "Feature",
      "properties": {
        "@id": "node/2002973851",
        "addr:city": "Philadelphia",
        "addr:housenumber": "700",
        "addr:postcode": "19016",
        "addr:street": "Chestnut",
        "amenity": "restaurant",
        "cuisine": "american",
        "designation": "Anna McPeak",
        "name": "Jones Restaurant",
        "website": "jones-restaurant.com"
      },
      "geometry": {
        "type": "Point",
        "coordinates": [
          -75.1525595,
          39.9493583
        ]
      },
      "id": "node/2002973851"
    },
    {
      "type": "Feature",
      "properties": {
        "@id": "node/2002981006",
        "amenity": "restaurant",
        "cuisine": "chinese",
        "name": "Happy Dragon"
      },
      "geometry": {
        "type": "Point",
        "coordinates": [
          -75.1504022,
          39.9220168
        ]
      },
      "id": "node/2002981006"
    },
    {
      "type": "Feature",
      "properties": {
        "@id": "node/2002997662",
        "addr:housenumber": "2120",
        "addr:postcode": "19130",
        "addr:street": "Farimount Avenue",
        "amenity": "restaurant",
        "cuisine": "american",
        "designation": "Anna McPeak",
        "name": "Urban Saloon",
        "website": "urbansaloon.com"
      },
      "geometry": {
        "type": "Point",
        "coordinates": [
          -75.1726926,
          39.9671584
        ]
      },
      "id": "node/2002997662"
    },
    {
      "type": "Feature",
      "properties": {
        "@id": "node/2003008235",
        "addr:housenumber": "1500",
        "addr:postcode": "19102",
        "addr:street": "Walnut Street",
        "amenity": "restaurant",
        "cuisine": "american",
        "designation": "Anna McPeak",
        "name": "Max Brenner",
        "website": "maxbrenner.com"
      },
      "geometry": {
        "type": "Point",
        "coordinates": [
          -75.1660838,
          39.9494509
        ]
      },
      "id": "node/2003008235"
    },
    {
      "type": "Feature",
      "properties": {
        "@id": "node/2003023048",
        "addr:housenumber": "1921",
        "addr:postcode": "19130",
        "addr:street": "Fairmount Avenue",
        "amenity": "restaurant",
        "cuisine": "american",
        "designation": "Anna McPeak",
        "name": "BlueCat",
        "website": "bluecatrestaurant.com/"
      },
      "geometry": {
        "type": "Point",
        "coordinates": [
          -75.1697104,
          39.9674022
        ]
      },
      "id": "node/2003023048"
    },
    {
      "type": "Feature",
      "properties": {
        "@id": "node/2012635213",
        "addr:housenumber": "603",
        "addr:street": "South 4th Street",
        "amenity": "restaurant",
        "cuisine": "middle_eastern",
        "name": "Alayan's Restaurant"
      },
      "geometry": {
        "type": "Point",
        "coordinates": [
          -75.1491095,
          39.9414059
        ]
      },
      "id": "node/2012635213"
    },
    {
      "type": "Feature",
      "properties": {
        "@id": "node/2012639870",
        "addr:housenumber": "400",
        "addr:postcode": "19147",
        "addr:street": "South Street",
        "amenity": "restaurant",
        "cuisine": "american",
        "name": "Jim's Steaks",
        "website": "jimssteaks.com"
      },
      "geometry": {
        "type": "Point",
        "coordinates": [
          -75.1493127,
          39.9415498
        ]
      },
      "id": "node/2012639870"
    },
    {
      "type": "Feature",
      "properties": {
        "@id": "node/2012650624",
        "addr:housename": "Temple Star",
        "addr:housenumber": "1412 West Diamond Street",
        "addr:street": "Diamond St.",
        "amenity": "restaurant",
        "cuisine": "asian",
        "name": "Temple Star"
      },
      "geometry": {
        "type": "Point",
        "coordinates": [
          -75.1572288,
          39.98467
        ]
      },
      "id": "node/2012650624"
    },
    {
      "type": "Feature",
      "properties": {
        "@id": "node/2012656013",
        "addr:housenumber": "1434",
        "addr:street": "Cecil B. Moore Avenue",
        "amenity": "restaurant",
        "cuisine": "pizza",
        "name": "City View Pizza"
      },
      "geometry": {
        "type": "Point",
        "coordinates": [
          -75.1594789,
          39.978803
        ]
      },
      "id": "node/2012656013"
    },
    {
      "type": "Feature",
      "properties": {
        "@id": "node/2012656014",
        "addr:housenumber": "1533",
        "addr:street": "Cecil B. Moore Avenue",
        "amenity": "restaurant",
        "cuisine": "chinese",
        "name": "China Express"
      },
      "geometry": {
        "type": "Point",
        "coordinates": [
          -75.1606054,
          39.9791381
        ]
      },
      "id": "node/2012656014"
    },
    {
      "type": "Feature",
      "properties": {
        "@id": "node/2012656015",
        "addr:housename": "7/11",
        "addr:housenumber": "1501",
        "addr:street": "Cecil B. Moore Avenue ",
        "amenity": "restaurant",
        "name": "7/11"
      },
      "geometry": {
        "type": "Point",
        "coordinates": [
          -75.1596076,
          39.9790106
        ]
      },
      "id": "node/2012656015"
    },
    {
      "type": "Feature",
      "properties": {
        "@id": "node/2012656016",
        "addr:housenumber": "1521 ",
        "addr:street": "Cecil B. Moore",
        "amenity": "restaurant",
        "cuisine": "chinese",
        "name": "Maple Buffet"
      },
      "geometry": {
        "type": "Point",
        "coordinates": [
          -75.1604445,
          39.9791175
        ]
      },
      "id": "node/2012656016"
    },
    {
      "type": "Feature",
      "properties": {
        "@id": "node/2040315443",
        "addr:city": "Philadelphia",
        "addr:housenumber": "412",
        "addr:postcode": "19147",
        "addr:state": "PA",
        "addr:street": "South 13th Street",
        "amenity": "restaurant",
        "cuisine": "italian",
        "designation": "13th and Waverly street",
        "name": "Amis",
        "website": "www.amisphilly.com"
      },
      "geometry": {
        "type": "Point",
        "coordinates": [
          -75.1632105,
          39.944812
        ]
      },
      "id": "node/2040315443"
    },
    {
      "type": "Feature",
      "properties": {
        "@id": "node/2040424579",
        "addr:housenumber": "1312 Spruce Street  Philadelphia, PA 19107",
        "addr:street": "Spruce",
        "amenity": "restaurant",
        "cuisine": "italian",
        "name": "Vetri",
        "website": "www.vetristorante.com"
      },
      "geometry": {
        "type": "Point",
        "coordinates": [
          -75.163189,
          39.9467368
        ]
      },
      "id": "node/2040424579"
    },
    {
      "type": "Feature",
      "properties": {
        "@id": "node/2040436590",
        "addr:housenumber": "640",
        "addr:street": "North Broad Street",
        "amenity": "restaurant",
        "cuisine": "italian",
        "name": "Osteria",
        "website": "www.osteriaphilly.com"
      },
      "geometry": {
        "type": "Point",
        "coordinates": [
          -75.1611073,
          39.964982
        ]
      },
      "id": "node/2040436590"
    },
    {
      "type": "Feature",
      "properties": {
        "@id": "node/2040440589",
        "addr:housenumber": "1410",
        "addr:street": "Mount Vernon Street",
        "amenity": "restaurant",
        "cuisine": "italian",
        "name": "Alla Spina",
        "website": "www.allaspinaphilly.com"
      },
      "geometry": {
        "type": "Point",
        "coordinates": [
          -75.1615233,
          39.9644178
        ]
      },
      "id": "node/2040440589"
    },
    {
      "type": "Feature",
      "properties": {
        "@id": "node/2040446963",
        "addr:housenumber": "760 South 9th Street philadelphia,Pa 19147",
        "addr:street": "9th street",
        "amenity": "restaurant",
        "cuisine": "italian",
        "name": "Ralphs",
        "website": "www.ralpsresturant.com"
      },
      "geometry": {
        "type": "Point",
        "coordinates": [
          -75.1576476,
          39.940255
        ]
      },
      "id": "node/2040446963"
    },
    {
      "type": "Feature",
      "properties": {
        "@id": "node/2065987563",
        "addr:housename": "Banana Leaf",
        "addr:housenumber": "1009",
        "addr:postcode": "19107",
        "addr:street": "Arch Street",
        "amenity": "restaurant",
        "cuisine": "asian",
        "name": "Banana Leaf",
        "opening_hours": "Mo-Su 11:00-01:00"
      },
      "geometry": {
        "type": "Point",
        "coordinates": [
          -75.1567262,
          39.9537489
        ]
      },
      "id": "node/2065987563"
    },
    {
      "type": "Feature",
      "properties": {
        "@id": "node/2065987946",
        "addr:housename": "Pho Cali",
        "addr:housenumber": "1000",
        "addr:postcode": "19107",
        "addr:street": "Arch Street",
        "amenity": "restaurant",
        "cuisine": "vietnamese",
        "name": "Pho Cali",
        "opening_hours": "Su-Th 10:30-22:30, Fr,Sa 11:00-23:00"
      },
      "geometry": {
        "type": "Point",
        "coordinates": [
          -75.1564447,
          39.9534483
        ]
      },
      "id": "node/2065987946"
    },
    {
      "type": "Feature",
      "properties": {
        "@id": "node/2065988627",
        "addr:housename": "Mixx Fusions & Sushi",
        "addr:housenumber": "1002",
        "addr:postcode": "19107",
        "addr:street": "Arch Street",
        "amenity": "restaurant",
        "cuisine": "sushi",
        "name": "Mixx Fusions & Sushi",
        "opening_hours": "Mo-Th 12:00-23:30, Fr 12:00-00:30, Sa 11:30-00:30, Su 11:30-11:00"
      },
      "geometry": {
        "type": "Point",
        "coordinates": [
          -75.1565412,
          39.9534651
        ]
      },
      "id": "node/2065988627"
    },
    {
      "type": "Feature",
      "properties": {
        "@id": "node/2065989577",
        "addr:housename": "Yummy Yummy",
        "addr:housenumber": "52",
        "addr:postcode": "19107",
        "addr:street": "North 10th Street",
        "amenity": "restaurant",
        "cuisine": "asian",
        "name": "Yummy Yummy"
      },
      "geometry": {
        "type": "Point",
        "coordinates": [
          -75.1564662,
          39.9532745
        ]
      },
      "id": "node/2065989577"
    },
    {
      "type": "Feature",
      "properties": {
        "@id": "node/2065990011",
        "addr:housename": "Empress Gardens",
        "addr:housenumber": "108",
        "addr:postcode": "19107",
        "addr:street": "North 10th Street",
        "amenity": "restaurant",
        "cuisine": "chinese",
        "name": "Empress Gardens"
      },
      "geometry": {
        "type": "Point",
        "coordinates": [
          -75.1563195,
          39.9539498
        ]
      },
      "id": "node/2065990011"
    },
    {
      "type": "Feature",
      "properties": {
        "@id": "node/2078082474",
        "addr:housenumber": "306",
        "addr:street": "South 16th Street",
        "amenity": "restaurant",
        "cuisine": "thai",
        "name": "Jasmine Rice"
      },
      "geometry": {
        "type": "Point",
        "coordinates": [
          -75.1682365,
          39.9470731
        ]
      },
      "id": "node/2078082474"
    },
    {
      "type": "Feature",
      "properties": {
        "@id": "node/2078663667",
        "addr:housenumber": "222",
        "addr:postcode": "19104",
        "addr:street": "S. 40th St.",
        "amenity": "restaurant",
        "cuisine": "greek",
        "name": "Greek Lady",
        "opening_hours": "Mo-Su 09:00-23:00",
        "website": "http://www.greeklady.com"
      },
      "geometry": {
        "type": "Point",
        "coordinates": [
          -75.202905,
          39.9533602
        ]
      },
      "id": "node/2078663667"
    },
    {
      "type": "Feature",
      "properties": {
        "@id": "node/2100697085",
        "amenity": "restaurant",
        "cuisine": "indian",
        "name": "Tandoor India Restaurant"
      },
      "geometry": {
        "type": "Point",
        "coordinates": [
          -75.2025163,
          39.955089
        ]
      },
      "id": "node/2100697085"
    },
    {
      "type": "Feature",
      "properties": {
        "@id": "node/2100697093",
        "amenity": "restaurant",
        "name": "Lee's Deli"
      },
      "geometry": {
        "type": "Point",
        "coordinates": [
          -75.2171566,
          39.9484744
        ]
      },
      "id": "node/2100697093"
    },
    {
      "type": "Feature",
      "properties": {
        "@id": "node/2100740225",
        "amenity": "restaurant",
        "cuisine": "japanese",
        "name": "Nara Japanese Restaurant"
      },
      "geometry": {
        "type": "Point",
        "coordinates": [
          -75.2033472,
          39.9516081
        ]
      },
      "id": "node/2100740225"
    },
    {
      "type": "Feature",
      "properties": {
        "@id": "node/2100740228",
        "amenity": "restaurant",
        "name": "Copabanana"
      },
      "geometry": {
        "type": "Point",
        "coordinates": [
          -75.2032626,
          39.9515673
        ]
      },
      "id": "node/2100740228"
    },
    {
      "type": "Feature",
      "properties": {
        "@id": "node/2100751399",
        "addr:city": "Philadelphia",
        "addr:housenumber": "4034",
        "addr:postcode": "19104",
        "addr:street": "Walnut Street",
        "amenity": "restaurant",
        "cuisine": "Fried_Chicken",
        "delivery": "yes",
        "name": "Wishbone Restaurant",
        "opening_hours": "Mo-We 08:00-22:00; Th 08:00-24:00; Fr 00:00-03:00,08:00-24:00; Sa 00:00-03:00,11:00-24:00; Su 00:00-03:00,11:00-22:00",
        "payment:bitcoin": "no",
        "website": "http://wishbonephilly.com/"
      },
      "geometry": {
        "type": "Point",
        "coordinates": [
          -75.2042721,
          39.9541781
        ]
      },
      "id": "node/2100751399"
    },
    {
      "type": "Feature",
      "properties": {
        "@id": "node/2100751406",
        "amenity": "restaurant",
        "cuisine": "haitian",
        "name": "Atiya Ola's"
      },
      "geometry": {
        "type": "Point",
        "coordinates": [
          -75.2132325,
          39.9491571
        ]
      },
      "id": "node/2100751406"
    },
    {
      "type": "Feature",
      "properties": {
        "@id": "node/2100751407",
        "amenity": "restaurant",
        "cuisine": "mediterranean",
        "name": "Aksum"
      },
      "geometry": {
        "type": "Point",
        "coordinates": [
          -75.2164418,
          39.9485567
        ]
      },
      "id": "node/2100751407"
    },
    {
      "type": "Feature",
      "properties": {
        "@id": "node/2102072175",
        "addr:city": "Philadelphia",
        "addr:housenumber": "269",
        "addr:postcode": "19104",
        "addr:street": "South 44th Street",
        "amenity": "restaurant",
        "cuisine": "asian",
        "email": "tampopo.ben@gmail.com",
        "name": "Tampopo",
        "opening_hours": "Tu-Sa 11:30-15:00,16:30-21:30; Su 12:00-20:30",
        "phone": "215-386-3866",
        "website": "http://www.tampoporestaurant.com/"
      },
      "geometry": {
        "type": "Point",
        "coordinates": [
          -75.210382,
          39.9529001
        ]
      },
      "id": "node/2102072175"
    },
    {
      "type": "Feature",
      "properties": {
        "@id": "node/2102072177",
        "amenity": "restaurant",
        "cuisine": "dessert",
        "name": "Pop Shop"
      },
      "geometry": {
        "type": "Point",
        "coordinates": [
          -75.2103348,
          39.9530103
        ]
      },
      "id": "node/2102072177"
    },
    {
      "type": "Feature",
      "properties": {
        "@id": "node/2102323140",
        "addr:housenumber": "214",
        "addr:postcode": "19104",
        "addr:street": "South 40th St",
        "amenity": "restaurant",
        "name": "Won Oriental Restaurant",
        "phone": "(215) 386-4622",
        "shop": "closed"
      },
      "geometry": {
        "type": "Point",
        "coordinates": [
          -75.2028699,
          39.9535607
        ]
      },
      "id": "node/2102323140"
    },
    {
      "type": "Feature",
      "properties": {
        "@id": "node/2105012245",
        "amenity": "restaurant",
        "name": "Cedar Park Cafe"
      },
      "geometry": {
        "type": "Point",
        "coordinates": [
          -75.2219608,
          39.9479763
        ]
      },
      "id": "node/2105012245"
    },
    {
      "type": "Feature",
      "properties": {
        "@id": "node/2105012246",
        "amenity": "restaurant",
        "name": "Gojjo Ethiopan Restaurant & Bar"
      },
      "geometry": {
        "type": "Point",
        "coordinates": [
          -75.2140828,
          39.9488067
        ]
      },
      "id": "node/2105012246"
    },
    {
      "type": "Feature",
      "properties": {
        "@id": "node/2108021992",
        "addr:housenumber": "4500",
        "addr:postcode": "19139",
        "addr:street": "Walnut Street",
        "amenity": "restaurant",
        "cuisine": "middle_eastern",
        "diet:halal": "only",
        "name": "Saad's Halal Restaurant",
        "opening_hours": "Mo-Th 11:00-21:00; Fr,Sa 11:00-22:00",
        "phone": "(215) 222-7223",
        "website": "http://www.saadhalal.com"
      },
      "geometry": {
        "type": "Point",
        "coordinates": [
          -75.2119329,
          39.9549944
        ]
      },
      "id": "node/2108021992"
    },
    {
      "type": "Feature",
      "properties": {
        "@id": "node/2108022395",
        "addr:city": "Philadelphia",
        "addr:housenumber": "4420",
        "addr:postcode": "19104",
        "addr:street": "Walnut Street",
        "amenity": "restaurant",
        "cuisine": "lebanese",
        "name": "Manakeesh Cafe & Bakery",
        "opening_hours": "Mo-Th 10:00-21:30; Fr 09:00-13:00,14:15-22:00; Sa 09:00-22:00; Su 10:00-20:30",
        "phone": "215-921-2135",
        "short_name": "Manakeesh",
        "website": "http://www.manakeeshcafebakery.net/"
      },
      "geometry": {
        "type": "Point",
        "coordinates": [
          -75.2115052,
          39.9550431
        ]
      },
      "id": "node/2108022395"
    },
    {
      "type": "Feature",
      "properties": {
        "@id": "node/2119806336",
        "amenity": "restaurant",
        "cuisine": "mexican",
        "name": "Guacamole",
        "opening_hours": "Tu-Fr 11:00-20:00",
        "takeaway": "yes"
      },
      "geometry": {
        "type": "Point",
        "coordinates": [
          -75.2099747,
          39.9440535
        ]
      },
      "id": "node/2119806336"
    },
    {
      "type": "Feature",
      "properties": {
        "@id": "node/2122820422",
        "addr:city": "Philadelphia",
        "addr:housenumber": "4309",
        "addr:postcode": "19104",
        "addr:street": "Locust Street",
        "amenity": "restaurant",
        "cuisine": "sandwich",
        "fax": "215-222-2434",
        "name": "Koch's Deli",
        "opening_hours": "Mo-Su 11:00-20:00",
        "phone": "215-222-8662",
        "website": "http://www.kochsdeli.com/"
      },
      "geometry": {
        "type": "Point",
        "coordinates": [
          -75.2097322,
          39.9539336
        ]
      },
      "id": "node/2122820422"
    },
    {
      "type": "Feature",
      "properties": {
        "@id": "node/2125322041",
        "amenity": "restaurant",
        "cuisine": "sushi",
        "name": "Mizu Sushi Bar"
      },
      "geometry": {
        "type": "Point",
        "coordinates": [
          -75.2022203,
          39.9552548
        ]
      },
      "id": "node/2125322041"
    },
    {
      "type": "Feature",
      "properties": {
        "@id": "node/2129707998",
        "amenity": "restaurant",
        "cuisine": "Ethiopian",
        "name": "Dahlak"
      },
      "geometry": {
        "type": "Point",
        "coordinates": [
          -75.2173617,
          39.9484518
        ]
      },
      "id": "node/2129707998"
    },
    {
      "type": "Feature",
      "properties": {
        "@id": "node/2129707999",
        "amenity": "restaurant",
        "cuisine": "vietnamese",
        "name": "Vietnam Cafe"
      },
      "geometry": {
        "type": "Point",
        "coordinates": [
          -75.2167901,
          39.9481786
        ]
      },
      "id": "node/2129707999"
    },
    {
      "type": "Feature",
      "properties": {
        "@id": "node/2132421303",
        "amenity": "restaurant",
        "name": "Queen of Sheeba"
      },
      "geometry": {
        "type": "Point",
        "coordinates": [
          -75.2135182,
          39.949118
        ]
      },
      "id": "node/2132421303"
    },
    {
      "type": "Feature",
      "properties": {
        "@id": "node/2132923252",
        "amenity": "restaurant",
        "name": "Le Bercail"
      },
      "geometry": {
        "type": "Point",
        "coordinates": [
          -75.2137515,
          39.9491119
        ]
      },
      "id": "node/2132923252"
    },
    {
      "type": "Feature",
      "properties": {
        "@id": "node/2151156371",
        "amenity": "restaurant",
        "name": "Slainte"
      },
      "geometry": {
        "type": "Point",
        "coordinates": [
          -75.1836572,
          39.9546677
        ]
      },
      "id": "node/2151156371"
    },
    {
      "type": "Feature",
      "properties": {
        "@id": "node/2152397239",
        "amenity": "restaurant",
        "cuisine": "Lao-Thai",
        "name": "Vientiane Café"
      },
      "geometry": {
        "type": "Point",
        "coordinates": [
          -75.2179265,
          39.9483935
        ]
      },
      "id": "node/2152397239"
    },
    {
      "type": "Feature",
      "properties": {
        "@id": "node/2153812247",
        "amenity": "restaurant",
        "cuisine": "vietnamese",
        "name": "Pho & Café Saigon",
        "opening_hours": "Tu-Su 11:00-21:00",
        "phone": "215-222-6800"
      },
      "geometry": {
        "type": "Point",
        "coordinates": [
          -75.2091691,
          39.9523109
        ]
      },
      "id": "node/2153812247"
    },
    {
      "type": "Feature",
      "properties": {
        "@id": "node/2158088061",
        "amenity": "restaurant",
        "name": "Penne"
      },
      "geometry": {
        "type": "Point",
        "coordinates": [
          -75.1960572,
          39.9534649
        ]
      },
      "id": "node/2158088061"
    },
    {
      "type": "Feature",
      "properties": {
        "@id": "node/2167213787",
        "addr:city": "Philadelphia",
        "addr:housenumber": "4527",
        "addr:postcode": "19143",
        "addr:state": "PA",
        "addr:street": "Baltimore Avenue",
        "amenity": "restaurant",
        "cuisine": "indian",
        "delivery": "yes",
        "name": "Desi Village",
        "opening_hours": "Mo-Th 12:00-22:00; Fr-Sa 12:00-23:00; Su 12:00-22:00",
        "phone": "215-382-6000",
        "source": "Paper menu",
        "takeaway": "yes",
        "website": "http://www.DesiVillageRestaurant.com"
      },
      "geometry": {
        "type": "Point",
        "coordinates": [
          -75.2142196,
          39.9490533
        ]
      },
      "id": "node/2167213787"
    },
    {
      "type": "Feature",
      "properties": {
        "@id": "node/2179184388",
        "addr:city": "Philadelphia",
        "addr:street": "Chestnut Street",
        "amenity": "restaurant",
        "cuisine": "indian",
        "name": "New Delhi Indian Restaurant"
      },
      "geometry": {
        "type": "Point",
        "coordinates": [
          -75.2025865,
          39.9555387
        ]
      },
      "id": "node/2179184388"
    },
    {
      "type": "Feature",
      "properties": {
        "@id": "node/2179184397",
        "addr:city": "Philadelphia",
        "addr:street": "Chestnut Street",
        "amenity": "restaurant",
        "cuisine": "thai",
        "name": "Pattaya Thai Cuisine"
      },
      "geometry": {
        "type": "Point",
        "coordinates": [
          -75.2026576,
          39.9555451
        ]
      },
      "id": "node/2179184397"
    },
    {
      "type": "Feature",
      "properties": {
        "@id": "node/2182345733",
        "amenity": "restaurant",
        "name": "Saigon Cuisine"
      },
      "geometry": {
        "type": "Point",
        "coordinates": [
          -75.2024358,
          39.9555252
        ]
      },
      "id": "node/2182345733"
    },
    {
      "type": "Feature",
      "properties": {
        "@id": "node/2182345747",
        "amenity": "restaurant",
        "name": "Hamilton Restaurant"
      },
      "geometry": {
        "type": "Point",
        "coordinates": [
          -75.2024325,
          39.9570608
        ]
      },
      "id": "node/2182345747"
    },
    {
      "type": "Feature",
      "properties": {
        "@id": "node/2186349324",
        "amenity": "restaurant",
        "name": "Del Frisco's"
      },
      "geometry": {
        "type": "Point",
        "coordinates": [
          -75.1655084,
          39.9509449
        ]
      },
      "id": "node/2186349324"
    },
    {
      "type": "Feature",
      "properties": {
        "@id": "node/2188757768",
        "amenity": "restaurant",
        "cuisine": "chinese",
        "name": "Beijing"
      },
      "geometry": {
        "type": "Point",
        "coordinates": [
          -75.198405,
          39.9510545
        ]
      },
      "id": "node/2188757768"
    },
    {
      "type": "Feature",
      "properties": {
        "@id": "node/2226025522",
        "amenity": "restaurant",
        "name": "Chili's"
      },
      "geometry": {
        "type": "Point",
        "coordinates": [
          -75.1610942,
          39.9532308
        ]
      },
      "id": "node/2226025522"
    },
    {
      "type": "Feature",
      "properties": {
        "@id": "node/2232292471",
        "addr:city": "Philadelphia",
        "addr:housenumber": "229",
        "addr:postcode": "19104",
        "addr:state": "PA",
        "addr:street": "South 45th Street",
        "amenity": "restaurant",
        "cuisine": "ethiopian",
        "name": "Abyssinia",
        "opening_hours": "Su-Sa 10:00 AM-24:00",
        "phone": "215-387-2424",
        "source": "Survey, website",
        "website": "http://www.abyssiniarestaurantpa.com/"
      },
      "geometry": {
        "type": "Point",
        "coordinates": [
          -75.2117749,
          39.9541784
        ]
      },
      "id": "node/2232292471"
    },
    {
      "type": "Feature",
      "properties": {
        "@id": "node/2235670574",
        "addr:city": "Philadelphia",
        "addr:housenumber": "4443",
        "addr:street": "Spruce Street",
        "amenity": "restaurant",
        "email": "Rxthefarmacy@gmail.com",
        "name": "Rx: the farmacy",
        "note": "The name shown on the menu (displayed outside) is \"Rx the farmacy\" (spelled with that capitalization and Rx offset)",
        "opening_hours": "Sa 09:00-14:00; Su 09:00-14:00",
        "phone": "267-432-1082",
        "short_name": "the farmacy",
        "website": "http://www.thefarmacyrx.com"
      },
      "geometry": {
        "type": "Point",
        "coordinates": [
          -75.212011,
          39.9530265
        ]
      },
      "id": "node/2235670574"
    },
    {
      "type": "Feature",
      "properties": {
        "@id": "node/2247020283",
        "amenity": "restaurant",
        "name": "Callahan's Grille"
      },
      "geometry": {
        "type": "Point",
        "coordinates": [
          -75.1831638,
          39.945937
        ]
      },
      "id": "node/2247020283"
    },
    {
      "type": "Feature",
      "properties": {
        "@id": "node/2253188235",
        "addr:city": "Philadelphia",
        "amenity": "restaurant",
        "name": "Tsuki Sushi"
      },
      "geometry": {
        "type": "Point",
        "coordinates": [
          -75.1771765,
          39.9510658
        ]
      },
      "id": "node/2253188235"
    },
    {
      "type": "Feature",
      "properties": {
        "@id": "node/2254889194",
        "amenity": "restaurant",
        "cuisine": "italian",
        "name": "Fratelli's"
      },
      "geometry": {
        "type": "Point",
        "coordinates": [
          -75.1632498,
          39.9508971
        ]
      },
      "id": "node/2254889194"
    },
    {
      "type": "Feature",
      "properties": {
        "@id": "node/2254889201",
        "addr:city": "Philadelphia",
        "amenity": "restaurant",
        "cuisine": "brazilian",
        "name": "Fogo de Chao"
      },
      "geometry": {
        "type": "Point",
        "coordinates": [
          -75.1629441,
          39.9508621
        ]
      },
      "id": "node/2254889201"
    },
    {
      "type": "Feature",
      "properties": {
        "@id": "node/2256040033",
        "addr:city": "Philadelphia",
        "addr:housenumber": "3131",
        "addr:postcode": "19104",
        "addr:street": "Walnut Street",
        "amenity": "restaurant",
        "name": "The Fat Ham",
        "phone": "+12157351914",
        "website": "http://www.sbragadining.com/fatham/"
      },
      "geometry": {
        "type": "Point",
        "coordinates": [
          -75.1875235,
          39.9523838
        ]
      },
      "id": "node/2256040033"
    },
    {
      "type": "Feature",
      "properties": {
        "@id": "node/2256040035",
        "amenity": "restaurant",
        "cuisine": "italian",
        "name": "Maggiano's",
        "wheelchair": "yes"
      },
      "geometry": {
        "type": "Point",
        "coordinates": [
          -75.1598822,
          39.9531112
        ]
      },
      "id": "node/2256040035"
    },
    {
      "type": "Feature",
      "properties": {
        "@id": "node/2256040037",
        "addr:city": "Philadelphia",
        "addr:postcode": "19103",
        "addr:street": "South 24th Street",
        "amenity": "restaurant",
        "capacity": "max ~25",
        "cuisine": "italian",
        "name": "Sotto",
        "note": "ele: 24th St. at grade level;ca. 24 ft below Walnut St.",
        "opening_hours": "evenings",
        "smoking": "no",
        "wheelchair": "no"
      },
      "geometry": {
        "type": "Point",
        "coordinates": [
          -75.1793805,
          39.9513778
        ]
      },
      "id": "node/2256040037"
    },
    {
      "type": "Feature",
      "properties": {
        "@id": "node/2256040059",
        "amenity": "restaurant",
        "name": "Picnic"
      },
      "geometry": {
        "type": "Point",
        "coordinates": [
          -75.187309,
          39.9523632
        ]
      },
      "id": "node/2256040059"
    },
    {
      "type": "Feature",
      "properties": {
        "@id": "node/2267258437",
        "addr:city": "Philadelphia",
        "addr:housenumber": "1411",
        "addr:street": "Walnut Street",
        "amenity": "restaurant",
        "cuisine": "american",
        "name": "Morton's Steakhouse"
      },
      "geometry": {
        "type": "Point",
        "coordinates": [
          -75.1648416,
          39.9495155
        ]
      },
      "id": "node/2267258437"
    },
    {
      "type": "Feature",
      "properties": {
        "@id": "node/2267258438",
        "amenity": "restaurant",
        "name": "Rouge"
      },
      "geometry": {
        "type": "Point",
        "coordinates": [
          -75.1706366,
          39.9497204
        ]
      },
      "id": "node/2267258438"
    },
    {
      "type": "Feature",
      "properties": {
        "@id": "node/2267258439",
        "addr:housenumber": "1714",
        "addr:street": "Walnut Street",
        "amenity": "restaurant",
        "name": "Pietro's Coal Oven Pizza"
      },
      "geometry": {
        "type": "Point",
        "coordinates": [
          -75.1699232,
          39.9499539
        ]
      },
      "id": "node/2267258439"
    },
    {
      "type": "Feature",
      "properties": {
        "@id": "node/2267258440",
        "addr:city": "Philadelphia",
        "addr:housenumber": "1334",
        "addr:postcode": "19107",
        "addr:street": "Walnut Street",
        "amenity": "restaurant",
        "cuisine": "middle_eastern",
        "name": "Sahara Grill"
      },
      "geometry": {
        "type": "Point",
        "coordinates": [
          -75.1636593,
          39.9491709
        ]
      },
      "id": "node/2267258440"
    },
    {
      "type": "Feature",
      "properties": {
        "@id": "node/2267258442",
        "addr:city": "Philadelphia",
        "addr:postcode": "19107",
        "addr:street": "Market Street",
        "amenity": "restaurant",
        "name": "Hard Rock Cafe"
      },
      "geometry": {
        "type": "Point",
        "coordinates": [
          -75.1596357,
          39.9520693
        ]
      },
      "id": "node/2267258442"
    },
    {
      "type": "Feature",
      "properties": {
        "@id": "node/2267258443",
        "amenity": "restaurant",
        "cuisine": "fondue",
        "name": "The Melting Pot",
        "wheelchair": "no"
      },
      "geometry": {
        "type": "Point",
        "coordinates": [
          -75.1605205,
          39.9531666
        ]
      },
      "id": "node/2267258443"
    },
    {
      "type": "Feature",
      "properties": {
        "@id": "node/2296211827",
        "addr:city": "Philadelphia",
        "addr:housenumber": "768",
        "addr:postcode": "19147",
        "addr:street": "South 8th Street",
        "amenity": "restaurant",
        "cuisine": "italian",
        "name": "Cucina Forte",
        "phone": "(215) 238-0778",
        "website": "https://www.cucinaforte.com/"
      },
      "geometry": {
        "type": "Point",
        "coordinates": [
          -75.1561811,
          39.9397655
        ]
      },
      "id": "node/2296211827"
    },
    {
      "type": "Feature",
      "properties": {
        "@id": "node/2296287498",
        "addr:city": "Philadelphia",
        "addr:housenumber": "1646",
        "addr:postcode": "19148",
        "addr:street": "East Passyunk Avenue",
        "amenity": "restaurant",
        "cuisine": "italian",
        "name": "Mr. Martino's Trattoria",
        "phone": "(215) 755-0663"
      },
      "geometry": {
        "type": "Point",
        "coordinates": [
          -75.1646756,
          39.9290161
        ]
      },
      "id": "node/2296287498"
    },
    {
      "type": "Feature",
      "properties": {
        "@id": "node/2296287506",
        "amenity": "restaurant",
        "cuisine": "New_American",
        "name": "Fond"
      },
      "geometry": {
        "type": "Point",
        "coordinates": [
          -75.1629724,
          39.9298702
        ]
      },
      "id": "node/2296287506"
    },
    {
      "type": "Feature",
      "properties": {
        "@id": "node/2296287510",
        "amenity": "restaurant",
        "cuisine": "nordic",
        "name": "Noord"
      },
      "geometry": {
        "type": "Point",
        "coordinates": [
          -75.1630245,
          39.9296954
        ]
      },
      "id": "node/2296287510"
    },
    {
      "type": "Feature",
      "properties": {
        "@id": "node/2296287513",
        "amenity": "restaurant",
        "cuisine": "sushi",
        "name": "Izumi"
      },
      "geometry": {
        "type": "Point",
        "coordinates": [
          -75.1634446,
          39.9297478
        ]
      },
      "id": "node/2296287513"
    },
    {
      "type": "Feature",
      "properties": {
        "@id": "node/2296287516",
        "amenity": "restaurant",
        "cuisine": "italian",
        "name": "Chiarella's"
      },
      "geometry": {
        "type": "Point",
        "coordinates": [
          -75.1632687,
          39.9297279
        ]
      },
      "id": "node/2296287516"
    },
    {
      "type": "Feature",
      "properties": {
        "@id": "node/2296287519",
        "amenity": "restaurant",
        "cuisine": "pizza",
        "name": "Birra"
      },
      "geometry": {
        "type": "Point",
        "coordinates": [
          -75.1651251,
          39.9287214
        ]
      },
      "id": "node/2296287519"
    },
    {
      "type": "Feature",
      "properties": {
        "@id": "node/2296287523",
        "addr:city": "Philadelphia",
        "addr:housenumber": "1927",
        "addr:postcode": "19148",
        "addr:state": "PA",
        "addr:street": "East Passyunk Avenue",
        "amenity": "restaurant",
        "cuisine": "italian",
        "name": "Le Virtu",
        "opening_hours": "Mo-Th 17:00-22:00; Fr-Sa 17:00-22:30; Su 16:00-21:30",
        "website": "http://levirtu.com/"
      },
      "geometry": {
        "type": "Point",
        "coordinates": [
          -75.1678021,
          39.9259892
        ]
      },
      "id": "node/2296287523"
    },
    {
      "type": "Feature",
      "properties": {
        "@id": "node/2296287526",
        "amenity": "restaurant",
        "cuisine": "New_American",
        "name": "Stateside"
      },
      "geometry": {
        "type": "Point",
        "coordinates": [
          -75.1632221,
          39.9301938
        ]
      },
      "id": "node/2296287526"
    },
    {
      "type": "Feature",
      "properties": {
        "@id": "node/2296511242",
        "amenity": "restaurant",
        "name": "Bishop's Collar",
        "website": "http://thecollar.us/"
      },
      "geometry": {
        "type": "Point",
        "coordinates": [
          -75.176882,
          39.9674878
        ]
      },
      "id": "node/2296511242"
    },
    {
      "type": "Feature",
      "properties": {
        "@id": "node/2296511246",
        "addr:city": "Philadelphia",
        "addr:housenumber": "795",
        "addr:postcode": "19130",
        "addr:state": "PA",
        "addr:street": "North 24th Street",
        "amenity": "restaurant",
        "fax": "215-235-2360",
        "name": "Brown Street Pub",
        "phone": "215-235-0506",
        "takeaway": "yes",
        "website": "http://www.brownstreetpub.com/"
      },
      "geometry": {
        "type": "Point",
        "coordinates": [
          -75.1763509,
          39.9698189
        ]
      },
      "id": "node/2296511246"
    },
    {
      "type": "Feature",
      "properties": {
        "@id": "node/2296514766",
        "addr:city": "Philadelphia",
        "addr:housenumber": "726",
        "addr:postcode": "19130",
        "addr:street": "N 24th St.",
        "amenity": "restaurant",
        "name": "Bridgid's",
        "website": "http://bridgids.com/"
      },
      "geometry": {
        "type": "Point",
        "coordinates": [
          -75.1768339,
          39.9684673
        ]
      },
      "id": "node/2296514766"
    },
    {
      "type": "Feature",
      "properties": {
        "@id": "node/2298696746",
        "amenity": "restaurant",
        "cuisine": "french",
        "name": "Cochon"
      },
      "geometry": {
        "type": "Point",
        "coordinates": [
          -75.1526694,
          39.938686
        ]
      },
      "id": "node/2298696746"
    },
    {
      "type": "Feature",
      "properties": {
        "@id": "node/2302752751",
        "amenity": "restaurant",
        "cuisine": "byob,_seafood",
        "name": "Little Fish"
      },
      "geometry": {
        "type": "Point",
        "coordinates": [
          -75.1529309,
          39.9399838
        ]
      },
      "id": "node/2302752751"
    },
    {
      "type": "Feature",
      "properties": {
        "@id": "node/2311701347",
        "addr:housenumber": "2313",
        "addr:street": "Frankford Avenue",
        "amenity": "restaurant",
        "cuisine": "pizza",
        "drive_in": "no",
        "microbrewery": "no",
        "name": "Pizza Brain",
        "outdoor_seating": "no",
        "smoking": "no",
        "takeaway": "yes"
      },
      "geometry": {
        "type": "Point",
        "coordinates": [
          -75.128224,
          39.980672
        ]
      },
      "id": "node/2311701347"
    },
    {
      "type": "Feature",
      "properties": {
        "@id": "node/2340613008",
        "addr:housenumber": "627",
        "addr:street": "s 3rd st",
        "amenity": "restaurant",
        "name": "Ela",
        "website": "http://elaphilly.com/"
      },
      "geometry": {
        "type": "Point",
        "coordinates": [
          -75.1476173,
          39.9406222
        ]
      },
      "id": "node/2340613008"
    },
    {
      "type": "Feature",
      "properties": {
        "@id": "node/2340693461",
        "addr:housenumber": "624",
        "addr:street": "S 3rd St",
        "amenity": "restaurant",
        "cuisine": "sushi",
        "name": "Sushi Planet",
        "website": "http://www.sushiplanetphiladelphia.com/"
      },
      "geometry": {
        "type": "Point",
        "coordinates": [
          -75.147855,
          39.940722
        ]
      },
      "id": "node/2340693461"
    },
    {
      "type": "Feature",
      "properties": {
        "@id": "node/2340697895",
        "addr:housenumber": "701",
        "addr:street": "S 4th St",
        "amenity": "restaurant",
        "name": "SouthWark",
        "website": "http://www.southwarkrestaurant.com/"
      },
      "geometry": {
        "type": "Point",
        "coordinates": [
          -75.1492578,
          39.9404505
        ]
      },
      "id": "node/2340697895"
    },
    {
      "type": "Feature",
      "properties": {
        "@id": "node/2390519810",
        "amenity": "restaurant",
        "name": "Kennett Restaurant"
      },
      "geometry": {
        "type": "Point",
        "coordinates": [
          -75.146852,
          39.9362197
        ]
      },
      "id": "node/2390519810"
    },
    {
      "type": "Feature",
      "properties": {
        "@id": "node/2443962972",
        "addr:city": "Philadelphia",
        "addr:housenumber": "4726",
        "addr:postcode": "19139",
        "addr:street": "Spruce Street",
        "amenity": "restaurant",
        "cuisine": "chinese",
        "fax": "215-476-0321",
        "name": "Evergreen",
        "opening_hours": "Mo-Th 11:00-23:00; Fr,Sa 11:00-24:00; Su 12:00-23:00",
        "phone": "215-476-0371",
        "website": "http://www.evergreentogo.com/"
      },
      "geometry": {
        "type": "Point",
        "coordinates": [
          -75.2170262,
          39.9532879
        ]
      },
      "id": "node/2443962972"
    },
    {
      "type": "Feature",
      "properties": {
        "@id": "node/2447800872",
        "addr:city": "Philadelphia",
        "addr:housenumber": "4746",
        "addr:postcode": "19139",
        "addr:street": "Spruce Street",
        "amenity": "restaurant",
        "cuisine": "pizza",
        "fax": "267-284-0366",
        "name": "Aladdin Pizzeria",
        "opening_hours": "Mo-Su 00:00-02:00,08:00-24:00",
        "phone": "215-476-4090",
        "source": "Web site and survey",
        "website": "http://www.aladdinpizzeria.com/"
      },
      "geometry": {
        "type": "Point",
        "coordinates": [
          -75.2175355,
          39.953351
        ]
      },
      "id": "node/2447800872"
    },
    {
      "type": "Feature",
      "properties": {
        "@id": "node/2507745088",
        "amenity": "restaurant",
        "name": "Catahoula Bar & Restaurant"
      },
      "geometry": {
        "type": "Point",
        "coordinates": [
          -75.1446142,
          39.9378591
        ]
      },
      "id": "node/2507745088"
    },
    {
      "type": "Feature",
      "properties": {
        "@id": "node/2570122961",
        "addr:city": "Philadelphia",
        "addr:housenumber": "115",
        "addr:postcode": "19125",
        "addr:street": "East Girard Avenue",
        "amenity": "restaurant",
        "cuisine": "pizza",
        "name": "Pizzeria Beddia",
        "payment:bitcoin": "no",
        "website": "http://pizzeriabeddia.wordpress.com/"
      },
      "geometry": {
        "type": "Point",
        "coordinates": [
          -75.1339014,
          39.969169
        ]
      },
      "id": "node/2570122961"
    },
    {
      "type": "Feature",
      "properties": {
        "@id": "node/2571727374",
        "addr:city": "Philadelphia",
        "addr:housenumber": "532",
        "addr:street": "North 15th Street",
        "amenity": "restaurant",
        "cuisine": "pizza",
        "name": "Brandywine Pizza"
      },
      "geometry": {
        "type": "Point",
        "coordinates": [
          -75.1631076,
          39.9632788
        ]
      },
      "id": "node/2571727374"
    },
    {
      "type": "Feature",
      "properties": {
        "@id": "node/2571727377",
        "addr:city": "Philadelphia",
        "addr:housenumber": "1547",
        "addr:postcode": "19130",
        "addr:state": "PA",
        "addr:street": "Spring Garden St",
        "amenity": "restaurant",
        "cuisine": "pizza",
        "name": "City View Pizza"
      },
      "geometry": {
        "type": "Point",
        "coordinates": [
          -75.1644215,
          39.9630367
        ]
      },
      "id": "node/2571727377"
    },
    {
      "type": "Feature",
      "properties": {
        "@id": "node/2571727551",
        "addr:city": "Philadelphia",
        "addr:housenumber": "1537",
        "addr:postcode": "19130",
        "addr:state": "PA",
        "addr:street": "Spring Garden St",
        "amenity": "restaurant",
        "name": "I Tea"
      },
      "geometry": {
        "type": "Point",
        "coordinates": [
          -75.1641786,
          39.963007
        ]
      },
      "id": "node/2571727551"
    },
    {
      "type": "Feature",
      "properties": {
        "@id": "node/2571727557",
        "addr:housenumber": "1529-31",
        "addr:street": "Spring Garden St",
        "amenity": "restaurant",
        "contact:phone": "215-665-0972",
        "cuisine": "pizza",
        "description": "BTC payment via Menufy.",
        "name": "John's Place",
        "payment:bitcoin": "yes",
        "source": "http://www.coindesk.com/menufy-now-supports-bitcoin-payments-400-us-restaurants/",
        "website": "http://johnsplacepa.com/"
      },
      "geometry": {
        "type": "Point",
        "coordinates": [
          -75.1639324,
          39.9629768
        ]
      },
      "id": "node/2571727557"
    },
    {
      "type": "Feature",
      "properties": {
        "@id": "node/2571727575",
        "addr:city": "Philadelphia",
        "addr:housenumber": "1543",
        "addr:postcode": "19130",
        "addr:state": "PA",
        "addr:street": "Spring Garden St",
        "amenity": "restaurant",
        "cuisine": "chinese",
        "name": "Long River Chinese Food"
      },
      "geometry": {
        "type": "Point",
        "coordinates": [
          -75.1643352,
          39.9630261
        ]
      },
      "id": "node/2571727575"
    },
    {
      "type": "Feature",
      "properties": {
        "@id": "node/2571727598",
        "addr:city": "Philadelphia",
        "addr:housenumber": "600",
        "addr:postcode": "19130",
        "addr:state": "PA",
        "addr:street": "North Broad Street",
        "amenity": "restaurant",
        "name": "Route 6"
      },
      "geometry": {
        "type": "Point",
        "coordinates": [
          -75.1613228,
          39.9643953
        ]
      },
      "id": "node/2571727598"
    },
    {
      "type": "Feature",
      "properties": {
        "@id": "node/2571727603",
        "addr:city": "Philadelphia",
        "addr:housenumber": "1521",
        "addr:postcode": "19130",
        "addr:state": "PA",
        "addr:street": "Spring Garden St",
        "amenity": "restaurant",
        "cuisine": "japanese",
        "name": "Saukra Japanese Cuisine"
      },
      "geometry": {
        "type": "Point",
        "coordinates": [
          -75.1637314,
          39.9629522
        ]
      },
      "id": "node/2571727603"
    },
    {
      "type": "Feature",
      "properties": {
        "@id": "node/2571727616",
        "addr:city": "Philadelphia",
        "addr:housenumber": "545",
        "addr:postcode": "19123",
        "addr:street": "North Broad Street",
        "amenity": "restaurant",
        "name": "Subway"
      },
      "geometry": {
        "type": "Point",
        "coordinates": [
          -75.161005,
          39.9629742
        ]
      },
      "id": "node/2571727616"
    },
    {
      "type": "Feature",
      "properties": {
        "@id": "node/2571727632",
        "addr:city": "Philadelphia",
        "addr:housenumber": "600",
        "addr:state": "PA",
        "addr:street": "North Broad Street",
        "amenity": "restaurant",
        "name": "Vie",
        "operator": "Cescaphe Event Group"
      },
      "geometry": {
        "type": "Point",
        "coordinates": [
          -75.1613742,
          39.9639992
        ]
      },
      "id": "node/2571727632"
    },
    {
      "type": "Feature",
      "properties": {
        "@id": "node/2571955549",
        "addr:city": "Philadelphia",
        "addr:housenumber": "1820",
        "addr:street": "Spring Garden St",
        "amenity": "restaurant",
        "cuisine": "chinese",
        "name": "Golden Chopsticks"
      },
      "geometry": {
        "type": "Point",
        "coordinates": [
          -75.1679977,
          39.9630799
        ]
      },
      "id": "node/2571955549"
    },
    {
      "type": "Feature",
      "properties": {
        "@id": "node/2571955811",
        "amenity": "restaurant",
        "cuisine": "japanese",
        "name": "Kansai Japanese Cuisine",
        "phone": "(215) 568-0888",
        "website": "www.kansaiphilly.com"
      },
      "geometry": {
        "type": "Point",
        "coordinates": [
          -75.1693334,
          39.9632266
        ]
      },
      "id": "node/2571955811"
    },
    {
      "type": "Feature",
      "properties": {
        "@id": "node/2571956193",
        "amenity": "restaurant",
        "name": "Christie's Deli",
        "phone": "(215) 563-0555"
      },
      "geometry": {
        "type": "Point",
        "coordinates": [
          -75.169352,
          39.9631434
        ]
      },
      "id": "node/2571956193"
    },
    {
      "type": "Feature",
      "properties": {
        "@id": "node/2572010838",
        "addr:housenumber": "3636",
        "addr:street": "Sansom Street",
        "amenity": "restaurant",
        "cuisine": "asian",
        "name": "Pod",
        "operator": "Starr Restarants",
        "website": "http://www.podrestaurant.com/"
      },
      "geometry": {
        "type": "Point",
        "coordinates": [
          -75.1963833,
          39.9539673
        ]
      },
      "id": "node/2572010838"
    },
    {
      "type": "Feature",
      "properties": {
        "@id": "node/2573865973",
        "amenity": "restaurant",
        "name": "Saladworks"
      },
      "geometry": {
        "type": "Point",
        "coordinates": [
          -75.1634059,
          39.9624345
        ]
      },
      "id": "node/2573865973"
    },
    {
      "type": "Feature",
      "properties": {
        "@id": "node/2573928772",
        "amenity": "restaurant",
        "name": "Little Pete's Restaurant"
      },
      "geometry": {
        "type": "Point",
        "coordinates": [
          -75.1775762,
          39.9668619
        ]
      },
      "id": "node/2573928772"
    },
    {
      "type": "Feature",
      "properties": {
        "@id": "node/2575194593",
        "addr:housenumber": "2230",
        "addr:street": "Fairmount Avenue",
        "amenity": "restaurant",
        "cuisine": "greek",
        "name": "Zorba's Tavern"
      },
      "geometry": {
        "type": "Point",
        "coordinates": [
          -75.1748542,
          39.967182
        ]
      },
      "id": "node/2575194593"
    },
    {
      "type": "Feature",
      "properties": {
        "@id": "node/2581146172",
        "addr:city": "Philadelphia",
        "addr:housenumber": "1743",
        "addr:postcode": "19146",
        "addr:street": "South Street",
        "amenity": "restaurant",
        "cuisine": "pizza",
        "name": "Lazaro's Pizzeria & Grill",
        "phone": "215-545-2775"
      },
      "geometry": {
        "type": "Point",
        "coordinates": [
          -75.1717261,
          39.9445056
        ]
      },
      "id": "node/2581146172"
    },
    {
      "type": "Feature",
      "properties": {
        "@id": "node/2581938913",
        "addr:housenumber": "529",
        "addr:street": "North 20th Street",
        "amenity": "restaurant",
        "name": "McCrossen's Tavern"
      },
      "geometry": {
        "type": "Point",
        "coordinates": [
          -75.170932,
          39.9630609
        ]
      },
      "id": "node/2581938913"
    },
    {
      "type": "Feature",
      "properties": {
        "@id": "node/2581946414",
        "addr:housenumber": "1822",
        "addr:street": "Callowhill Street",
        "amenity": "restaurant",
        "cuisine": "japanese",
        "name": "Doma Japanese Restaurant"
      },
      "geometry": {
        "type": "Point",
        "coordinates": [
          -75.169326,
          39.9603604
        ]
      },
      "id": "node/2581946414"
    },
    {
      "type": "Feature",
      "properties": {
        "@id": "node/2581946416",
        "addr:housenumber": "1824",
        "addr:street": "Callowhill Street",
        "amenity": "restaurant",
        "cuisine": "indian",
        "name": "King of Tandoor"
      },
      "geometry": {
        "type": "Point",
        "coordinates": [
          -75.169451,
          39.9603759
        ]
      },
      "id": "node/2581946416"
    },
    {
      "type": "Feature",
      "properties": {
        "@id": "node/2583160710",
        "addr:city": "Philadelphia",
        "addr:housenumber": "1801",
        "addr:postcode": "19146",
        "addr:street": "Lombard Street",
        "amenity": "restaurant",
        "cuisine": "korean",
        "name": "Southgate",
        "smoking": "outside"
      },
      "geometry": {
        "type": "Point",
        "coordinates": [
          -75.1717866,
          39.9455589
        ]
      },
      "id": "node/2583160710"
    },
    {
      "type": "Feature",
      "properties": {
        "@id": "node/2584498142",
        "amenity": "restaurant",
        "cuisine": "pizza",
        "name": "Luigi's Pizzeria"
      },
      "geometry": {
        "type": "Point",
        "coordinates": [
          -75.1771768,
          39.9674614
        ]
      },
      "id": "node/2584498142"
    },
    {
      "type": "Feature",
      "properties": {
        "@id": "node/2599725035",
        "amenity": "restaurant",
        "name": "Sbraga"
      },
      "geometry": {
        "type": "Point",
        "coordinates": [
          -75.1653427,
          39.9455168
        ]
      },
      "id": "node/2599725035"
    },
    {
      "type": "Feature",
      "properties": {
        "@id": "node/2611799802",
        "addr:city": "Philadelphia",
        "addr:housenumber": "3131",
        "addr:postcode": "19104",
        "addr:street": "Walnut Street",
        "amenity": "restaurant",
        "cuisine": "Irish_American_pub",
        "name": "St. Declan's Well",
        "phone": "+12158830965",
        "website": "http://www.stdeclanswell.com/"
      },
      "geometry": {
        "type": "Point",
        "coordinates": [
          -75.186976,
          39.9523255
        ]
      },
      "id": "node/2611799802"
    },
    {
      "type": "Feature",
      "properties": {
        "@id": "node/2613831404",
        "addr:city": "Philadelphia",
        "addr:housenumber": "637",
        "addr:postcode": "19123",
        "addr:street": "North 3rd Street",
        "amenity": "restaurant",
        "name": "The Abbaye",
        "phone": "215-627-6711",
        "website": "http://theabbaye.net/"
      },
      "geometry": {
        "type": "Point",
        "coordinates": [
          -75.1429705,
          39.9622191
        ]
      },
      "id": "node/2613831404"
    },
    {
      "type": "Feature",
      "properties": {
        "@id": "node/2613831408",
        "addr:city": "Philadelphia",
        "addr:housenumber": "701",
        "addr:postcode": "19123",
        "addr:street": "North 3rd Street",
        "amenity": "restaurant",
        "cuisine": "italian",
        "name": "Il Cantuccio",
        "phone": "215-627-6573"
      },
      "geometry": {
        "type": "Point",
        "coordinates": [
          -75.1430267,
          39.9623771
        ]
      },
      "id": "node/2613831408"
    },
    {
      "type": "Feature",
      "properties": {
        "@id": "node/2613831409",
        "addr:city": "Philadelphia",
        "addr:housenumber": "801",
        "addr:postcode": "19123",
        "addr:street": "North 3rd Street",
        "amenity": "restaurant",
        "name": "North Third",
        "phone": "215-413-3666",
        "website": "http://www.norththird.com/"
      },
      "geometry": {
        "type": "Point",
        "coordinates": [
          -75.1427246,
          39.9634684
        ]
      },
      "id": "node/2613831409"
    },
    {
      "type": "Feature",
      "properties": {
        "@id": "node/2613831412",
        "addr:city": "Philadelphia",
        "addr:housenumber": "702",
        "addr:postcode": "19123",
        "addr:street": "North 2nd Street",
        "amenity": "restaurant",
        "name": "The Blind Pig",
        "phone": "267-639-4565",
        "website": "http://blindpigphilly.com"
      },
      "geometry": {
        "type": "Point",
        "coordinates": [
          -75.141314,
          39.9620979
        ]
      },
      "id": "node/2613831412"
    },
    {
      "type": "Feature",
      "properties": {
        "@id": "node/2613831416",
        "addr:city": "Philadelphia",
        "addr:housenumber": "903",
        "addr:postcode": "19123",
        "addr:street": "North 2nd Street",
        "amenity": "restaurant",
        "cuisine": "pizza",
        "name": "Rustica",
        "phone": "215-627-1393",
        "website": "http://rusticaphilly.com/"
      },
      "geometry": {
        "type": "Point",
        "coordinates": [
          -75.1405536,
          39.9642318
        ]
      },
      "id": "node/2613831416"
    },
    {
      "type": "Feature",
      "properties": {
        "@id": "node/2613831430",
        "addr:city": "Philadelphia",
        "addr:housenumber": "944",
        "addr:postcode": "19123",
        "addr:street": "North 2nd Street",
        "amenity": "restaurant",
        "cuisine": "greek",
        "name": "Dmitri's",
        "phone": "215-592-4550",
        "website": "http://www.dmitrisrestaurant.com/"
      },
      "geometry": {
        "type": "Point",
        "coordinates": [
          -75.140575,
          39.9653219
        ]
      },
      "id": "node/2613831430"
    },
    {
      "type": "Feature",
      "properties": {
        "@id": "node/2613831441",
        "addr:city": "Philadelphia",
        "addr:housenumber": "1040",
        "addr:postcode": "19123",
        "addr:street": "North 2nd Street",
        "amenity": "restaurant",
        "cuisine": "mexican",
        "name": "El Camino Real",
        "opening_hours": "Mo-Fr 11:00-02:00, Sa,Su 10:00-02:00",
        "phone": "215-925-1110",
        "website": "http://www.elcaminophilly.com/"
      },
      "geometry": {
        "type": "Point",
        "coordinates": [
          -75.1401647,
          39.9672635
        ]
      },
      "id": "node/2613831441"
    },
    {
      "type": "Feature",
      "properties": {
        "@id": "node/2613831451",
        "addr:city": "Philadelphia",
        "addr:housenumber": "719",
        "addr:postcode": "19123",
        "addr:street": "North 2nd Street",
        "amenity": "restaurant",
        "name": "Green Eggs Cafe",
        "phone": "215-922-3447",
        "website": "http://greeneggscafe.com/"
      },
      "geometry": {
        "type": "Point",
        "coordinates": [
          -75.1408693,
          39.962323
        ]
      },
      "id": "node/2613831451"
    },
    {
      "type": "Feature",
      "properties": {
        "@id": "node/2613831471",
        "addr:city": "Philadelphia",
        "addr:housenumber": "129",
        "addr:postcode": "19123",
        "addr:street": "West Laurel Street",
        "amenity": "restaurant",
        "name": "Jerry's Bar",
        "phone": "267-273-1632",
        "website": "http://jerrysbarphilly.com/"
      },
      "geometry": {
        "type": "Point",
        "coordinates": [
          -75.1388966,
          39.965098
        ]
      },
      "id": "node/2613831471"
    },
    {
      "type": "Feature",
      "properties": {
        "@id": "node/2613831481",
        "addr:city": "Philadelphia",
        "addr:housenumber": "812",
        "addr:postcode": "19123",
        "addr:street": "North 2nd Street",
        "amenity": "restaurant",
        "cuisine": "thai",
        "name": "Circles",
        "website": "http://circlesthai.com/"
      },
      "geometry": {
        "type": "Point",
        "coordinates": [
          -75.1410703,
          39.9633761
        ]
      },
      "id": "node/2613831481"
    },
    {
      "type": "Feature",
      "properties": {
        "@id": "node/2613854615",
        "addr:city": "Philadelphia",
        "addr:housenumber": "604",
        "addr:postcode": "19123",
        "addr:street": "North 2nd Street",
        "amenity": "restaurant",
        "cuisine": "japanese",
        "name": "Koi",
        "phone": "215-413-1606",
        "website": "http://koiphila.com/"
      },
      "geometry": {
        "type": "Point",
        "coordinates": [
          -75.1414663,
          39.961184
        ]
      },
      "id": "node/2613854615"
    },
    {
      "type": "Feature",
      "properties": {
        "@id": "node/2613854616",
        "addr:city": "Philadelphia",
        "addr:housenumber": "301",
        "addr:postcode": "19123",
        "addr:street": "Spring Garden Street",
        "amenity": "restaurant",
        "cuisine": "asian",
        "name": "KenShin Asian Diner",
        "phone": "215-925-8887",
        "website": "http://kenshinasiandiner.com/"
      },
      "geometry": {
        "type": "Point",
        "coordinates": [
          -75.1435377,
          39.9610437
        ]
      },
      "id": "node/2613854616"
    },
    {
      "type": "Feature",
      "properties": {
        "@id": "node/2624839604",
        "addr:city": "Philadelphia",
        "addr:housenumber": "800",
        "addr:postcode": "19123",
        "addr:street": "N 4th St",
        "amenity": "restaurant",
        "name": "Honey's Sit 'n Eat",
        "opening_hours": "M-F 7am-4pm, S-S 7am-5pm",
        "phone": "215-925-1150",
        "website": "http://honeyssitneat.com/"
      },
      "geometry": {
        "type": "Point",
        "coordinates": [
          -75.1444912,
          39.9638849
        ]
      },
      "id": "node/2624839604"
    },
    {
      "type": "Feature",
      "properties": {
        "@id": "node/2654371485",
        "amenity": "restaurant",
        "cuisine": "sandwich",
        "name": "Panera Bread"
      },
      "geometry": {
        "type": "Point",
        "coordinates": [
          -75.1596927,
          39.9538437
        ]
      },
      "id": "node/2654371485"
    },
    {
      "type": "Feature",
      "properties": {
        "@id": "node/2654393206",
        "amenity": "restaurant",
        "cuisine": "steak",
        "name": "The Strip Joint"
      },
      "geometry": {
        "type": "Point",
        "coordinates": [
          -75.1796943,
          39.9407975
        ]
      },
      "id": "node/2654393206"
    },
    {
      "type": "Feature",
      "properties": {
        "@id": "node/2699315011",
        "addr:city": "Philadelphia",
        "addr:housenumber": "1838",
        "addr:postcode": "19145",
        "addr:street": "South 18th Street",
        "amenity": "restaurant",
        "cuisine": "indonesian",
        "name": "Seulanga",
        "outdoor_seating": "no",
        "phone": "+1 267 357 4635",
        "smoking": "no",
        "takeaway": "yes"
      },
      "geometry": {
        "type": "Point",
        "coordinates": [
          -75.1756722,
          39.9277613
        ]
      },
      "id": "node/2699315011"
    },
    {
      "type": "Feature",
      "properties": {
        "@id": "node/2699324359",
        "addr:city": "Philadelphia",
        "addr:housenumber": "1801",
        "addr:postcode": "19145",
        "addr:street": "Moore Street",
        "amenity": "restaurant",
        "cuisine": "chinese",
        "delivery": "no",
        "internet_access": "no",
        "name": "Great Wall",
        "outdoor_seating": "no",
        "phone": "+1 215 336 7105",
        "smoking": "no",
        "takeaway": "only",
        "wheelchair": "no"
      },
      "geometry": {
        "type": "Point",
        "coordinates": [
          -75.1753953,
          39.928985
        ]
      },
      "id": "node/2699324359"
    },
    {
      "type": "Feature",
      "properties": {
        "@id": "node/2699345244",
        "addr:city": "Philadelphia",
        "addr:housenumber": "337",
        "addr:postcode": "19123",
        "addr:street": "Spring Garden Street",
        "amenity": "restaurant",
        "cuisine": "pizza",
        "name": "Plaza Pizza",
        "phone": "(215) 413-3200"
      },
      "geometry": {
        "type": "Point",
        "coordinates": [
          -75.1446329,
          39.9613644
        ]
      },
      "id": "node/2699345244"
    },
    {
      "type": "Feature",
      "properties": {
        "@id": "node/2699346738",
        "addr:city": "Philadelphia",
        "addr:housenumber": "800",
        "addr:postcode": "19123",
        "addr:street": "North 2nd Street",
        "amenity": "restaurant",
        "cuisine": "Ice_cream,_Water_Ice",
        "name": "Rita's Water Ice",
        "phone": "(267) 639-4602",
        "website": "http://www.ritasfranchises.com/stores/store.cfm/Northern%20Liberties-19123/store/3165"
      },
      "geometry": {
        "type": "Point",
        "coordinates": [
          -75.1411192,
          39.9630666
        ]
      },
      "id": "node/2699346738"
    },
    {
      "type": "Feature",
      "properties": {
        "@id": "node/2699547980",
        "amenity": "restaurant",
        "name": "Ed's Pizza & Wings"
      },
      "geometry": {
        "type": "Point",
        "coordinates": [
          -75.1928628,
          39.9583025
        ]
      },
      "id": "node/2699547980"
    },
    {
      "type": "Feature",
      "properties": {
        "@id": "node/2699562910",
        "amenity": "restaurant",
        "cuisine": "american",
        "name": "Landmark Americana"
      },
      "geometry": {
        "type": "Point",
        "coordinates": [
          -75.1905569,
          39.955926
        ]
      },
      "id": "node/2699562910"
    },
    {
      "type": "Feature",
      "properties": {
        "@id": "node/2700099428",
        "addr:city": "Philadelphia",
        "addr:housenumber": "435",
        "addr:postcode": "19123",
        "addr:street": "Spring Garden Street",
        "amenity": "restaurant",
        "name": "Silk City Diner Bar & Lounge",
        "opening_hours": "04:00-02:00",
        "website": "www.silkcityphilly.com"
      },
      "geometry": {
        "type": "Point",
        "coordinates": [
          -75.1461004,
          39.9613118
        ]
      },
      "id": "node/2700099428"
    },
    {
      "type": "Feature",
      "properties": {
        "@id": "node/2700130261",
        "addr:city": "Philadelphia",
        "addr:housenumber": "901",
        "addr:postcode": "19147",
        "addr:street": "S Christopher Columbus Blvd",
        "amenity": "restaurant",
        "cuisine": "sandwich",
        "name": "Shank's Pier 40",
        "website": "www.shanksoriginal.com"
      },
      "geometry": {
        "type": "Point",
        "coordinates": [
          -75.1420406,
          39.934808
        ]
      },
      "id": "node/2700130261"
    },
    {
      "type": "Feature",
      "properties": {
        "@id": "node/2700397851",
        "amenity": "restaurant",
        "name": "Market 16 & Noodle Bar"
      },
      "geometry": {
        "type": "Point",
        "coordinates": [
          -75.1912795,
          39.9556552
        ]
      },
      "id": "node/2700397851"
    },
    {
      "type": "Feature",
      "properties": {
        "@id": "node/2700416545",
        "addr:city": "Philadelphia",
        "addr:housenumber": "20",
        "addr:postcode": "19104",
        "addr:street": "South 36th Street",
        "amenity": "restaurant",
        "cuisine": "pizza",
        "delivery": "yes",
        "name": "The Axis Pizza",
        "opening_hours": "24/7",
        "phone": "215-382-2199",
        "takeaway": "yes",
        "website": "http://www.axispizza.com/"
      },
      "geometry": {
        "type": "Point",
        "coordinates": [
          -75.1945212,
          39.9551651
        ]
      },
      "id": "node/2700416545"
    },
    {
      "type": "Feature",
      "properties": {
        "@id": "node/2701472727",
        "addr:city": "Philadelphia",
        "addr:housenumber": "1511",
        "addr:postcode": "19146",
        "addr:street": "South Street",
        "amenity": "restaurant",
        "cuisine": "italian",
        "name": "Quick Fixx",
        "website": "http://thequickfixx.com/"
      },
      "geometry": {
        "type": "Point",
        "coordinates": [
          -75.1675414,
          39.9439783
        ]
      },
      "id": "node/2701472727"
    },
    {
      "type": "Feature",
      "properties": {
        "@id": "node/2701473727",
        "addr:city": "Philadelphia",
        "addr:housenumber": "1506",
        "addr:postcode": "19146",
        "addr:street": "South Street",
        "amenity": "restaurant",
        "name": "So Crepe",
        "phone": "(267) 761-9310",
        "website": "http://www.socrepe.com/"
      },
      "geometry": {
        "type": "Point",
        "coordinates": [
          -75.1675503,
          39.9438128
        ]
      },
      "id": "node/2701473727"
    },
    {
      "type": "Feature",
      "properties": {
        "@id": "node/2701474215",
        "addr:city": "Philadelphia",
        "addr:housenumber": "1508",
        "addr:postcode": "19146",
        "addr:street": "South Street",
        "amenity": "restaurant",
        "cuisine": "burger",
        "name": "The Cambridge",
        "phone": "(267) 455-0647",
        "website": "http://www.cambridgeonsouth.com/",
        "wheelchair": "yes"
      },
      "geometry": {
        "type": "Point",
        "coordinates": [
          -75.1676157,
          39.9438196
        ]
      },
      "id": "node/2701474215"
    },
    {
      "type": "Feature",
      "properties": {
        "@id": "node/2705744113",
        "addr:city": "Philadelphia",
        "addr:housenumber": "2000",
        "addr:postcode": "19145",
        "addr:street": "South Bouvier Street",
        "amenity": "restaurant",
        "cuisine": "pizza",
        "name": "San Lucas Pizzeria",
        "opening_hours": "Mo 11:00-01:00; Tu-Fr 11:00-22:00; Sa-Su 11:00-01:00",
        "phone": "+1 215 465 0134",
        "website": "http://sanlucasphila.webs.com"
      },
      "geometry": {
        "type": "Point",
        "coordinates": [
          -75.1753135,
          39.9262759
        ]
      },
      "id": "node/2705744113"
    },
    {
      "type": "Feature",
      "properties": {
        "@id": "node/2709149666",
        "addr:city": "Philadelphia",
        "addr:housenumber": "1219",
        "addr:postcode": "19147",
        "addr:street": "Federal Street",
        "amenity": "restaurant",
        "cuisine": "doughnut",
        "name": "Federal Donuts",
        "opening_hours": "Mo-Fr 07:00-15:00; Sa-Su 07:00-17:00",
        "outdoor_seating": "no",
        "phone": "+1 267 687 8258",
        "smoking": "no",
        "takeaway": "yes",
        "website": "http://federaldonuts.com/"
      },
      "geometry": {
        "type": "Point",
        "coordinates": [
          -75.147567,
          39.932242
        ]
      },
      "id": "node/2709149666"
    },
    {
      "type": "Feature",
      "properties": {
        "@id": "node/2722655942",
        "amenity": "restaurant",
        "name": "Crown Fried Chicken"
      },
      "geometry": {
        "type": "Point",
        "coordinates": [
          -75.1062343,
          39.9271159
        ]
      },
      "id": "node/2722655942"
    },
    {
      "type": "Feature",
      "properties": {
        "@id": "node/2740627574",
        "addr:city": "Philadelphia",
        "addr:housenumber": "917",
        "addr:postcode": "19146",
        "addr:street": "South 20th Street",
        "amenity": "restaurant",
        "cuisine": "pizza",
        "name": "South Side Pizza",
        "website": "http://www.southsidepizzaphilly.com/"
      },
      "geometry": {
        "type": "Point",
        "coordinates": [
          -75.1758852,
          39.9404355
        ]
      },
      "id": "node/2740627574"
    },
    {
      "type": "Feature",
      "properties": {
        "@id": "node/2795233692",
        "addr:city": "Philadelphia",
        "addr:housenumber": "325",
        "addr:postcode": "19107",
        "addr:street": "North 12th Street",
        "amenity": "restaurant",
        "cuisine": "american",
        "name": "Jany's"
      },
      "geometry": {
        "type": "Point",
        "coordinates": [
          -75.15836,
          39.9584652
        ]
      },
      "id": "node/2795233692"
    },
    {
      "type": "Feature",
      "properties": {
        "@id": "node/2805227282",
        "addr:city": "Philadelphia",
        "addr:housenumber": "2101",
        "addr:postcode": "19146",
        "addr:street": "South Street",
        "amenity": "restaurant",
        "name": "Honey's Sit N' Eat",
        "website": "http://honeyssitneat.com/",
        "wheelchair": "yes"
      },
      "geometry": {
        "type": "Point",
        "coordinates": [
          -75.177063,
          39.9451878
        ]
      },
      "id": "node/2805227282"
    },
    {
      "type": "Feature",
      "properties": {
        "@id": "node/2821950508",
        "amenity": "restaurant",
        "cuisine": "seafood",
        "name": "Luke's Lobster",
        "source:cuisine": "survey"
      },
      "geometry": {
        "type": "Point",
        "coordinates": [
          -75.1690861,
          39.9505355
        ]
      },
      "id": "node/2821950508"
    },
    {
      "type": "Feature",
      "properties": {
        "@id": "node/2845864074",
        "addr:city": "Philadelphia",
        "addr:housenumber": "1800",
        "addr:postcode": "19145",
        "addr:street": "South Broad Street",
        "amenity": "restaurant",
        "cuisine": "chinese",
        "name": "Oriental Chinese Restaurant",
        "opening_hours": "Mo-Th 11:00-23:00; Fr-Sa 11:00-00:00; Su 12:00-23:00",
        "phone": "+1 215 463 9333",
        "smoking": "no",
        "website": "http://www.orientalchinesephilly.com"
      },
      "geometry": {
        "type": "Point",
        "coordinates": [
          -75.1691381,
          39.9279847
        ]
      },
      "id": "node/2845864074"
    },
    {
      "type": "Feature",
      "properties": {
        "@id": "node/2848698990",
        "addr:city": "Philadelphia",
        "addr:housenumber": "1111",
        "addr:postcode": "19147",
        "addr:street": "South 11th Street",
        "amenity": "restaurant",
        "cuisine": "vietnamese",
        "name": "Pho Ta",
        "opening_hours": "Su-Th 10:00-22:00; Fr-Sa 10:00-23:00",
        "phone": "+1 215 755 4000",
        "website": "http://www.photarestaurant.com",
        "wheelchair": "yes"
      },
      "geometry": {
        "type": "Point",
        "coordinates": [
          -75.161376,
          39.9366754
        ]
      },
      "id": "node/2848698990"
    },
    {
      "type": "Feature",
      "properties": {
        "@id": "node/2910156409",
        "addr:city": "Philadelphia",
        "addr:housenumber": "2000",
        "addr:postcode": "19103",
        "addr:street": "Sansom Street",
        "amenity": "restaurant",
        "cuisine": "burger",
        "name": "Shake Shack",
        "opening_hours": "11:00-23:00",
        "phone": "+1 215 809 1742",
        "smoking": "no",
        "website": "http://www.shakeshack.com/location/philadelphia/"
      },
      "geometry": {
        "type": "Point",
        "coordinates": [
          -75.173792,
          39.9512405
        ]
      },
      "id": "node/2910156409"
    },
    {
      "type": "Feature",
      "properties": {
        "@id": "node/2910156414",
        "addr:city": "Philadelphia",
        "addr:housenumber": "118",
        "addr:postcode": "19103",
        "addr:street": "South 20th Street",
        "amenity": "restaurant",
        "cuisine": "american",
        "name": "Village Whiskey",
        "opening_hours": "Mo 11:00-23:00;Tu-Th 11:00-00:00;Fr 11:00-01:00;Sa 10:30-01:00;Su 10:30-23:00",
        "phone": "+1 215 665 1088",
        "website": "http://villagewhiskey.com"
      },
      "geometry": {
        "type": "Point",
        "coordinates": [
          -75.1737834,
          39.9513934
        ]
      },
      "id": "node/2910156414"
    },
    {
      "type": "Feature",
      "properties": {
        "@id": "node/2912805533",
        "addr:city": "Philadelphia",
        "addr:housenumber": "18",
        "addr:postcode": "19103",
        "addr:street": "South 20th Street",
        "amenity": "restaurant",
        "cuisine": "kosher",
        "name": "Mama's Vegetarian",
        "opening_hours": "Mo-Th 11:00-21:00;Fr 11:00-15:00;Sa closed;Su 12:00-19:00",
        "phone": "+1 215 751 0477",
        "website": "http://www.mamasvegetarian.com"
      },
      "geometry": {
        "type": "Point",
        "coordinates": [
          -75.1734897,
          39.9527069
        ]
      },
      "id": "node/2912805533"
    },
    {
      "type": "Feature",
      "properties": {
        "@id": "node/2973059795",
        "addr:city": "Philadelphia",
        "addr:housenumber": "611",
        "addr:postcode": "19147",
        "addr:street": "South 7th Street",
        "amenity": "restaurant",
        "cuisine": "pizza",
        "name": "Nomad Pizza Company",
        "opening_hours": "Tu-Th 17:00-22:00;Fr-Sa 12:00-23:00;Su 12:00-21:00",
        "phone": "+1 215 238 0900",
        "smoking": "no",
        "website": "http://www.nomadpizzaco.com/philadelphia.html"
      },
      "geometry": {
        "type": "Point",
        "coordinates": [
          -75.1538652,
          39.9418452
        ]
      },
      "id": "node/2973059795"
    },
    {
      "type": "Feature",
      "properties": {
        "@id": "node/3010671470",
        "amenity": "restaurant",
        "cuisine": "pizza",
        "name": "California Pizza",
        "opening_hours": "Mo-We 11:00-00:30, Th 11:00-01:30, Fr-Sa 11:00-02:30, Su 12:00-00:30",
        "phone": "+1215 387 8700",
        "website": "http://californiapizzaphilly.com/"
      },
      "geometry": {
        "type": "Point",
        "coordinates": [
          -75.1890785,
          39.9605402
        ]
      },
      "id": "node/3010671470"
    },
    {
      "type": "Feature",
      "properties": {
        "@id": "node/3028921120",
        "addr:city": "Philadelphia",
        "addr:country": "US",
        "addr:housenumber": "529",
        "addr:postcode": "19125",
        "addr:street": "East Girard Avenue",
        "amenity": "restaurant",
        "name": "Lloyd Whiskey Bar",
        "phone": "215-425-4600",
        "website": "http://lloydwhiskeybar.com/"
      },
      "geometry": {
        "type": "Point",
        "coordinates": [
          -75.1262997,
          39.9717762
        ]
      },
      "id": "node/3028921120"
    },
    {
      "type": "Feature",
      "properties": {
        "@id": "node/3040246034",
        "addr:city": "Philadelphia",
        "addr:housenumber": "210",
        "addr:postcode": "19106",
        "addr:street": "West Washington Square",
        "amenity": "restaurant",
        "cuisine": "american",
        "name": "Talula's Garden"
      },
      "geometry": {
        "type": "Point",
        "coordinates": [
          -75.1534825,
          39.9471555
        ]
      },
      "id": "node/3040246034"
    },
    {
      "type": "Feature",
      "properties": {
        "@id": "node/3072954827",
        "addr:city": "Philadelphia",
        "addr:housenumber": "25",
        "addr:postcode": "19462",
        "addr:street": "South 11th Street",
        "amenity": "restaurant",
        "capacity": "20",
        "cuisine": "pizza",
        "name": "Rosa Fresh Pizza",
        "opening_hours": "Sunday - Thursday 10 am to 8 pm;Friday and Saturday 10 am - 3 am",
        "phone": "215 627 6727",
        "smoking": "no",
        "website": "http://rosasfreshpizza.com/"
      },
      "geometry": {
        "type": "Point",
        "coordinates": [
          -75.1583656,
          39.9507253
        ]
      },
      "id": "node/3072954827"
    },
    {
      "type": "Feature",
      "properties": {
        "@id": "node/3076971133",
        "amenity": "restaurant",
        "name": "Fat Salmon",
        "wheelchair": "yes"
      },
      "geometry": {
        "type": "Point",
        "coordinates": [
          -75.1534068,
          39.9480904
        ]
      },
      "id": "node/3076971133"
    },
    {
      "type": "Feature",
      "properties": {
        "@id": "node/3076983433",
        "addr:city": "Philadelphia",
        "addr:housenumber": "929",
        "addr:postcode": "19107",
        "addr:street": "Walnut Street",
        "amenity": "restaurant",
        "cuisine": "pizza",
        "name": "Stella Rosa Pizzeria",
        "phone": "(215) 644-9074",
        "website": "http://www.stellarossaristorante.com/",
        "wheelchair": "yes",
        "wheelchair:description": "entrance at right of front accessible."
      },
      "geometry": {
        "type": "Point",
        "coordinates": [
          -75.157268,
          39.9485669
        ]
      },
      "id": "node/3076983433"
    },
    {
      "type": "Feature",
      "properties": {
        "@id": "node/3092951029",
        "amenity": "restaurant",
        "name": "Las Cazuelas",
        "source": "bug report"
      },
      "geometry": {
        "type": "Point",
        "coordinates": [
          -75.1440071,
          39.9699311
        ]
      },
      "id": "node/3092951029"
    },
    {
      "type": "Feature",
      "properties": {
        "@id": "node/3094941729",
        "addr:city": "Philadelphia",
        "addr:housenumber": "1137",
        "addr:postcode": "19107",
        "addr:street": "Spruce Street",
        "amenity": "restaurant",
        "internet_access": "wlan",
        "name": "Tria",
        "phone": "+1 215 629 92 00",
        "website": "https://triaphilly.com/tria-cafe/",
        "wheelchair": "limited",
        "wheelchair:description": "Entrance and restroom accessible but unfortunately all seating in wheelchair accessible indoor area is high top tables. Outdoor seating tables in warmer weather."
      },
      "geometry": {
        "type": "Point",
        "coordinates": [
          -75.161027,
          39.946541
        ]
      },
      "id": "node/3094941729"
    },
    {
      "type": "Feature",
      "properties": {
        "@id": "node/3103172318",
        "addr:city": "Philadelphia",
        "addr:postcode": "19106",
        "amenity": "restaurant",
        "cuisine": "american",
        "name": "Farmicia",
        "wheelchair": "yes",
        "wheelchair:description": "Accessible entrance at left side of main entrance; sign visible with bell saying 'ring for assistance'."
      },
      "geometry": {
        "type": "Point",
        "coordinates": [
          -75.1456727,
          39.9497063
        ]
      },
      "id": "node/3103172318"
    },
    {
      "type": "Feature",
      "properties": {
        "@id": "node/3103177329",
        "addr:city": "Philadelphia",
        "addr:housenumber": "248",
        "addr:postcode": "19106",
        "addr:street": "Market Street",
        "amenity": "restaurant",
        "cuisine": "indian",
        "name": "Karma",
        "wheelchair": "yes",
        "wheelchair:description": "Front entrance and seating is wheelchair accessible. Restroom not yet assessed."
      },
      "geometry": {
        "type": "Point",
        "coordinates": [
          -75.1455883,
          39.9499816
        ]
      },
      "id": "node/3103177329"
    },
    {
      "type": "Feature",
      "properties": {
        "@id": "node/3103189629",
        "addr:city": "Philadelphia",
        "addr:housenumber": "7",
        "addr:postcode": "19106",
        "addr:street": "North 3rd Street",
        "amenity": "restaurant",
        "cuisine": "french",
        "name": "Bistro 7",
        "wheelchair": "limited",
        "wheelchair:description": "One step at entrance. Business says restroom is wheelchair accessible but needs to be reviewed and updated here."
      },
      "geometry": {
        "type": "Point",
        "coordinates": [
          -75.1454962,
          39.9505254
        ]
      },
      "id": "node/3103189629"
    },
    {
      "type": "Feature",
      "properties": {
        "@id": "node/3148785738",
        "addr:city": "Haddontownship",
        "addr:housenumber": "2898",
        "addr:postcode": "NJ 08107",
        "addr:street": "Mt.Ephraim Ave",
        "amenity": "restaurant",
        "cuisine": "mexican",
        "name": "Fiesta Mexicana",
        "payment:bitcoin": "yes",
        "phone": "+1 856 858 3322",
        "source": "http://usebitcoins.info/index.php/leisure/caffes-restaurants-bars/3486-fiesta-mexicana",
        "website": "http://www.fiestamexicananj.com/"
      },
      "geometry": {
        "type": "Point",
        "coordinates": [
          -75.0969892,
          39.9076957
        ]
      },
      "id": "node/3148785738"
    },
    {
      "type": "Feature",
      "properties": {
        "@id": "node/3153814190",
        "addr:city": "Philadelphia",
        "addr:housenumber": "310",
        "addr:postcode": "19143",
        "addr:street": "South 48th Street",
        "amenity": "restaurant",
        "cuisine": "caribbean/american",
        "name": "48th Street Grille",
        "opening_hours": "Tu-Th 11:00-21:00; Fr 09:00-22:00; Sa 10:00-22:00; Su 13:00-20:00",
        "phone": "267-244-4764",
        "source": "Survey, web site",
        "website": "http://www.48thstreetgrille.com/"
      },
      "geometry": {
        "type": "Point",
        "coordinates": [
          -75.2184698,
          39.9530951
        ]
      },
      "id": "node/3153814190"
    },
    {
      "type": "Feature",
      "properties": {
        "@id": "node/3163882710",
        "addr:city": "Philadelphia",
        "addr:housenumber": "4317",
        "addr:state": "PA",
        "addr:street": "Chestnut Street",
        "amenity": "restaurant",
        "cuisine": "african",
        "name": "Kilimandjaro"
      },
      "geometry": {
        "type": "Point",
        "coordinates": [
          -75.2089643,
          39.9567336
        ]
      },
      "id": "node/3163882710"
    },
    {
      "type": "Feature",
      "properties": {
        "@id": "node/3265628446",
        "addr:city": "Philadelphia",
        "addr:housenumber": "900",
        "addr:street": "South Street",
        "amenity": "restaurant",
        "cuisine": "barbecue",
        "name": "Percy Street Barbecue",
        "smoking": "no",
        "website": "http://www.percystreet.com/"
      },
      "geometry": {
        "type": "Point",
        "coordinates": [
          -75.1575045,
          39.9425823
        ]
      },
      "id": "node/3265628446"
    },
    {
      "type": "Feature",
      "properties": {
        "@id": "node/3295299261",
        "addr:city": "Philadelphia",
        "addr:housenumber": "5019",
        "addr:postcode": "19143",
        "addr:state": "Pa",
        "addr:street": "Baltimore Avenue",
        "amenity": "restaurant",
        "cuisine": "mexican",
        "name": "Taco Angeleno"
      },
      "geometry": {
        "type": "Point",
        "coordinates": [
          -75.2241663,
          39.9480153
        ]
      },
      "id": "node/3295299261"
    },
    {
      "type": "Feature",
      "properties": {
        "@id": "node/3306928574",
        "amenity": "restaurant",
        "name": "Fette Sau"
      },
      "geometry": {
        "type": "Point",
        "coordinates": [
          -75.1346547,
          39.9692787
        ]
      },
      "id": "node/3306928574"
    },
    {
      "type": "Feature",
      "properties": {
        "@id": "node/3306928575",
        "amenity": "restaurant",
        "name": "Stock"
      },
      "geometry": {
        "type": "Point",
        "coordinates": [
          -75.1313239,
          39.9696906
        ]
      },
      "id": "node/3306928575"
    },
    {
      "type": "Feature",
      "properties": {
        "@id": "node/3306928576",
        "amenity": "restaurant",
        "name": "El Cafeito"
      },
      "geometry": {
        "type": "Point",
        "coordinates": [
          -75.1402503,
          39.9765782
        ]
      },
      "id": "node/3306928576"
    },
    {
      "type": "Feature",
      "properties": {
        "@id": "node/3306928577",
        "amenity": "restaurant",
        "cuisine": "mexican",
        "name": "Que Chula Es Puebla",
        "opening_hours": "Mo-Th, Su 10:00-21:00; Fr, Sa 10:00-22:00"
      },
      "geometry": {
        "type": "Point",
        "coordinates": [
          -75.1391215,
          39.9723637
        ]
      },
      "id": "node/3306928577"
    },
    {
      "type": "Feature",
      "properties": {
        "@id": "node/3454064542",
        "addr:housenumber": "1200",
        "addr:postcode": "19107",
        "addr:street": "Market Street",
        "amenity": "restaurant",
        "name": "Bank & Bourbon"
      },
      "geometry": {
        "type": "Point",
        "coordinates": [
          -75.1600409,
          39.9517789
        ]
      },
      "id": "node/3454064542"
    },
    {
      "type": "Feature",
      "properties": {
        "@id": "node/3470849309",
        "addr:city": "Philadelphia",
        "addr:housenumber": "132",
        "addr:postcode": "19106",
        "addr:street": "Chestnut Street",
        "amenity": "restaurant",
        "cuisine": "sushi",
        "name": "Nara"
      },
      "geometry": {
        "type": "Point",
        "coordinates": [
          -75.1437699,
          39.9482622
        ]
      },
      "id": "node/3470849309"
    },
    {
      "type": "Feature",
      "properties": {
        "@id": "node/3470849326",
        "addr:city": "Philadelphia",
        "addr:postcode": "19106",
        "addr:street": "South 2nd Street",
        "amenity": "restaurant",
        "cuisine": "pizza",
        "name": "Margherita Pizzeria"
      },
      "geometry": {
        "type": "Point",
        "coordinates": [
          -75.1441653,
          39.9485312
        ]
      },
      "id": "node/3470849326"
    },
    {
      "type": "Feature",
      "properties": {
        "@id": "node/3470849328",
        "addr:city": "Philadelphia",
        "addr:housenumber": "48",
        "addr:street": "South 2nd Street",
        "amenity": "restaurant",
        "email": "contact@sassafrasbar.com",
        "facebook": "https://www.facebook.com/Sassafrasbar",
        "name": "Sassafras",
        "phone": "(215) 925-2317",
        "website": "http://sassafrasbar.com/"
      },
      "geometry": {
        "type": "Point",
        "coordinates": [
          -75.1441117,
          39.9487996
        ]
      },
      "id": "node/3470849328"
    },
    {
      "type": "Feature",
      "properties": {
        "@id": "node/3473730794",
        "addr:city": "Philadelphia",
        "addr:housenumber": "120",
        "addr:postcode": "19106",
        "addr:street": "Market Street",
        "amenity": "restaurant",
        "name": "The Gaslight"
      },
      "geometry": {
        "type": "Point",
        "coordinates": [
          -75.1430838,
          39.949677
        ]
      },
      "id": "node/3473730794"
    },
    {
      "type": "Feature",
      "properties": {
        "@id": "node/3475530937",
        "amenity": "restaurant",
        "name": "Serafina"
      },
      "geometry": {
        "type": "Point",
        "coordinates": [
          -75.1706453,
          39.9508426
        ]
      },
      "id": "node/3475530937"
    },
    {
      "type": "Feature",
      "properties": {
        "@id": "node/3496953291",
        "amenity": "restaurant",
        "name": "Brigantessa"
      },
      "geometry": {
        "type": "Point",
        "coordinates": [
          -75.1628377,
          39.9305276
        ]
      },
      "id": "node/3496953291"
    },
    {
      "type": "Feature",
      "properties": {
        "@id": "node/3496961797",
        "amenity": "restaurant",
        "cuisine": "mexican",
        "name": "El Maguey"
      },
      "geometry": {
        "type": "Point",
        "coordinates": [
          -75.1616419,
          39.9296975
        ]
      },
      "id": "node/3496961797"
    },
    {
      "type": "Feature",
      "properties": {
        "@id": "node/3511373649",
        "amenity": "restaurant",
        "name": "Chart House"
      },
      "geometry": {
        "type": "Point",
        "coordinates": [
          -75.1404988,
          39.941185
        ]
      },
      "id": "node/3511373649"
    },
    {
      "type": "Feature",
      "properties": {
        "@id": "node/3524777069",
        "addr:city": "Philadelphia",
        "addr:housenumber": "1635",
        "addr:postcode": "19103",
        "addr:street": "Market Street",
        "amenity": "restaurant",
        "cuisine": "sandwich",
        "name": "Potbelly Sandwich Shop",
        "website": "http://www.potbelly.com/"
      },
      "geometry": {
        "type": "Point",
        "coordinates": [
          -75.1682079,
          39.9534766
        ]
      },
      "id": "node/3524777069"
    },
    {
      "type": "Feature",
      "properties": {
        "@id": "node/3529171171",
        "addr:housenumber": "1311",
        "addr:street": "Sansom Street",
        "amenity": "restaurant",
        "cuisine": "greek",
        "name": "Opa"
      },
      "geometry": {
        "type": "Point",
        "coordinates": [
          -75.1624278,
          39.9499718
        ]
      },
      "id": "node/3529171171"
    },
    {
      "type": "Feature",
      "properties": {
        "@id": "node/3529171172",
        "addr:housenumber": "1315",
        "addr:street": "Sansom Street",
        "amenity": "restaurant",
        "name": "Time"
      },
      "geometry": {
        "type": "Point",
        "coordinates": [
          -75.162644,
          39.9500002
        ]
      },
      "id": "node/3529171172"
    },
    {
      "type": "Feature",
      "properties": {
        "@id": "node/3532578442",
        "addr:street": "South 13th Street",
        "amenity": "restaurant",
        "name": "Green Eggs Cafe"
      },
      "geometry": {
        "type": "Point",
        "coordinates": [
          -75.1624047,
          39.9483204
        ]
      },
      "id": "node/3532578442"
    },
    {
      "type": "Feature",
      "properties": {
        "@id": "node/3545078824",
        "addr:housenumber": "124",
        "addr:street": "South 15th Street",
        "amenity": "restaurant",
        "name": "Ocean Prime"
      },
      "geometry": {
        "type": "Point",
        "coordinates": [
          -75.1659493,
          39.9501513
        ]
      },
      "id": "node/3545078824"
    },
    {
      "type": "Feature",
      "properties": {
        "@id": "node/3545078826",
        "addr:city": "Philadelphia",
        "addr:housenumber": "1504",
        "addr:street": "Sansom Street",
        "amenity": "restaurant",
        "name": "500º"
      },
      "geometry": {
        "type": "Point",
        "coordinates": [
          -75.1662762,
          39.9503043
        ]
      },
      "id": "node/3545078826"
    },
    {
      "type": "Feature",
      "properties": {
        "@id": "node/3548494994",
        "addr:housenumber": "1405",
        "addr:street": "Locust Street",
        "amenity": "restaurant",
        "cuisine": "greek",
        "name": "Estia"
      },
      "geometry": {
        "type": "Point",
        "coordinates": [
          -75.1653065,
          39.9484091
        ]
      },
      "id": "node/3548494994"
    },
    {
      "type": "Feature",
      "properties": {
        "@id": "node/3548911780",
        "addr:city": "Philadelphia",
        "addr:housenumber": "1102",
        "addr:postcode": "19107",
        "addr:street": "Chestnut Street",
        "amenity": "restaurant",
        "cuisine": "ramen",
        "name": "Hiro Ramen"
      },
      "geometry": {
        "type": "Point",
        "coordinates": [
          -75.1588484,
          39.9501147
        ]
      },
      "id": "node/3548911780"
    },
    {
      "type": "Feature",
      "properties": {
        "@id": "node/3548911782",
        "addr:city": "Philadelphia",
        "addr:housenumber": "117",
        "addr:postcode": "19107",
        "addr:street": "South 12th Street",
        "amenity": "restaurant",
        "name": "Kitchenette"
      },
      "geometry": {
        "type": "Point",
        "coordinates": [
          -75.1602317,
          39.9498213
        ]
      },
      "id": "node/3548911782"
    },
    {
      "type": "Feature",
      "properties": {
        "@id": "node/3554597100",
        "addr:city": "Philadelphia",
        "addr:postcode": "19107",
        "addr:street": "Race Street",
        "amenity": "restaurant",
        "cuisine": "chinese",
        "name": "Jade Harbor Restaurant"
      },
      "geometry": {
        "type": "Point",
        "coordinates": [
          -75.1558097,
          39.9552966
        ]
      },
      "id": "node/3554597100"
    },
    {
      "type": "Feature",
      "properties": {
        "@id": "node/3554597113",
        "addr:city": "Philadelphia",
        "addr:housenumber": "204",
        "addr:postcode": "19107",
        "addr:street": "North 9th Street",
        "amenity": "restaurant",
        "cuisine": "ramen",
        "name": "Terakawa Ramen",
        "name:ja": "寺川らーめん"
      },
      "geometry": {
        "type": "Point",
        "coordinates": [
          -75.1543879,
          39.9553983
        ]
      },
      "id": "node/3554597113"
    },
    {
      "type": "Feature",
      "properties": {
        "@id": "node/3573041119",
        "addr:city": "Philadelphia",
        "addr:housenumber": "234",
        "addr:postcode": "19107",
        "addr:street": "North 9th Street",
        "amenity": "restaurant",
        "cuisine": "chinese",
        "name": "Ocean City Restaurant"
      },
      "geometry": {
        "type": "Point",
        "coordinates": [
          -75.1542048,
          39.9562945
        ]
      },
      "id": "node/3573041119"
    },
    {
      "type": "Feature",
      "properties": {
        "@id": "node/3587740667",
        "addr:city": "Philadelphia",
        "addr:housenumber": "228",
        "addr:postcode": "19106",
        "addr:street": "Market Street",
        "amenity": "restaurant",
        "name": "Sonny's Famous Steaks",
        "opening_hours": "Mo-Th 11:00-22:00; Fr 11:00-24:00; Sa 00:00-03:00,11:00-24:00; Su 00:00-03:00,11:00-22:00",
        "phone": "215-629-5760"
      },
      "geometry": {
        "type": "Point",
        "coordinates": [
          -75.1447997,
          39.9498952
        ]
      },
      "id": "node/3587740667"
    },
    {
      "type": "Feature",
      "properties": {
        "@id": "node/3587740668",
        "addr:city": "Philadelphia",
        "addr:housenumber": "214",
        "addr:postcode": "19106",
        "addr:street": "Market Street",
        "amenity": "restaurant",
        "name": "Campo's Deli"
      },
      "geometry": {
        "type": "Point",
        "coordinates": [
          -75.1443109,
          39.9498391
        ]
      },
      "id": "node/3587740668"
    },
    {
      "type": "Feature",
      "properties": {
        "@id": "node/3629224847",
        "addr:city": "Philadelphia",
        "addr:housenumber": "1917",
        "addr:postcode": "19148",
        "addr:state": "PA",
        "addr:street": "East Passyunk Avenue",
        "amenity": "restaurant",
        "delivery": "yes",
        "name": "Fuel",
        "opening_hours": "Mo-Sa 11:00 - 22:00; Su 11:00 - 21:00",
        "takeaway": "yes",
        "website": "http://fuelrechargeyourself.com/"
      },
      "geometry": {
        "type": "Point",
        "coordinates": [
          -75.1676031,
          39.9261974
        ]
      },
      "id": "node/3629224847"
    },
    {
      "type": "Feature",
      "properties": {
        "@id": "node/3629235052",
        "addr:city": "Philadelphia",
        "addr:housenumber": "1919",
        "addr:postcode": "19148",
        "addr:state": "PA",
        "addr:street": "East Passyunk Avenue",
        "amenity": "restaurant",
        "cuisine": "pizza",
        "delivery": "yes",
        "name": "Adobe Cafe",
        "opening_hours": "Mo-We 15:00-24:00; Th 12:00-24:00; Fr-Su 11:30-24:00",
        "phone": "215-551-2243",
        "takeaway": "yes",
        "website": "http://www.myadobecafe.com/"
      },
      "geometry": {
        "type": "Point",
        "coordinates": [
          -75.1676903,
          39.9261012
        ]
      },
      "id": "node/3629235052"
    },
    {
      "type": "Feature",
      "properties": {
        "@id": "node/3629237317",
        "addr:city": "Philadelphia",
        "addr:housenumber": "1915",
        "addr:postcode": "19148",
        "addr:state": "PA",
        "addr:street": "East Passyunk Avenue",
        "amenity": "restaurant",
        "cuisine": "italian",
        "name": "Tre Scalini",
        "opening_hours": "Tu-Sa 17:00 - 22:00; Su 16:00-21:00; Mo Closed",
        "website": "http://www.trescaliniphiladelphia.com/"
      },
      "geometry": {
        "type": "Point",
        "coordinates": [
          -75.1675615,
          39.926243
        ]
      },
      "id": "node/3629237317"
    },
    {
      "type": "Feature",
      "properties": {
        "@id": "node/3629250848",
        "addr:city": "Philadelphia",
        "addr:housenumber": "1909",
        "addr:postcode": "19148",
        "addr:state": "PA",
        "addr:street": "East Passyunk Avenue",
        "amenity": "restaurant",
        "amenity_1": "bar",
        "cuisine": "italian",
        "name": "Noir",
        "website": "http://www.noirrestaurantandbar.com/"
      },
      "geometry": {
        "type": "Point",
        "coordinates": [
          -75.1674991,
          39.9262992
        ]
      },
      "id": "node/3629250848"
    },
    {
      "type": "Feature",
      "properties": {
        "@id": "node/3669067543",
        "amenity": "restaurant",
        "cuisine": "chinese",
        "name": "Great Wall"
      },
      "geometry": {
        "type": "Point",
        "coordinates": [
          -75.0995255,
          39.9122188
        ]
      },
      "id": "node/3669067543"
    },
    {
      "type": "Feature",
      "properties": {
        "@id": "node/3669115467",
        "amenity": "restaurant",
        "cuisine": "chinese",
        "name": "Wing Shing"
      },
      "geometry": {
        "type": "Point",
        "coordinates": [
          -75.0961835,
          39.9058118
        ]
      },
      "id": "node/3669115467"
    },
    {
      "type": "Feature",
      "properties": {
        "@id": "node/3669115468",
        "amenity": "restaurant",
        "cuisine": "chinese",
        "name": "China Wonder"
      },
      "geometry": {
        "type": "Point",
        "coordinates": [
          -75.0969239,
          39.9074049
        ]
      },
      "id": "node/3669115468"
    },
    {
      "type": "Feature",
      "properties": {
        "@id": "node/3669174250",
        "amenity": "restaurant",
        "name": "Shirley's Brass Rail"
      },
      "geometry": {
        "type": "Point",
        "coordinates": [
          -75.1213683,
          39.9459021
        ]
      },
      "id": "node/3669174250"
    },
    {
      "type": "Feature",
      "properties": {
        "@id": "node/3669223225",
        "amenity": "restaurant",
        "name": "Fresh Fruits & Salads",
        "website": "http://www.freshfruitsandsalads.com"
      },
      "geometry": {
        "type": "Point",
        "coordinates": [
          -75.1233692,
          39.9467617
        ]
      },
      "id": "node/3669223225"
    },
    {
      "type": "Feature",
      "properties": {
        "@id": "node/3669223226",
        "amenity": "restaurant",
        "cuisine": "vietnamese",
        "name": "Cafe and Salad Works"
      },
      "geometry": {
        "type": "Point",
        "coordinates": [
          -75.1232298,
          39.9462476
        ]
      },
      "id": "node/3669223226"
    },
    {
      "type": "Feature",
      "properties": {
        "@id": "node/3669229232",
        "amenity": "restaurant",
        "name": "George's Restaurant"
      },
      "geometry": {
        "type": "Point",
        "coordinates": [
          -75.1241581,
          39.9463915
        ]
      },
      "id": "node/3669229232"
    },
    {
      "type": "Feature",
      "properties": {
        "@id": "node/3669249150",
        "amenity": "restaurant",
        "name": "Tony & Ruth's Steaks"
      },
      "geometry": {
        "type": "Point",
        "coordinates": [
          -75.1139171,
          39.9528604
        ]
      },
      "id": "node/3669249150"
    },
    {
      "type": "Feature",
      "properties": {
        "@id": "node/3669250660",
        "amenity": "restaurant",
        "name": "Rutgers Dining Hall"
      },
      "geometry": {
        "type": "Point",
        "coordinates": [
          -75.1228057,
          39.9482874
        ]
      },
      "id": "node/3669250660"
    },
    {
      "type": "Feature",
      "properties": {
        "@id": "node/3669258651",
        "amenity": "restaurant",
        "cuisine": "italian",
        "name": "Vitarelli's on the Delaware Cafe / Bistro"
      },
      "geometry": {
        "type": "Point",
        "coordinates": [
          -75.1298484,
          39.9442292
        ]
      },
      "id": "node/3669258651"
    },
    {
      "type": "Feature",
      "properties": {
        "@id": "node/3669467399",
        "amenity": "restaurant",
        "name": "Oasis Restaurant"
      },
      "geometry": {
        "type": "Point",
        "coordinates": [
          -75.1161457,
          39.9416732
        ]
      },
      "id": "node/3669467399"
    },
    {
      "type": "Feature",
      "properties": {
        "@id": "node/3669467400",
        "amenity": "restaurant",
        "name": "Cooper Court",
        "note": "food court"
      },
      "geometry": {
        "type": "Point",
        "coordinates": [
          -75.1166042,
          39.9414109
        ]
      },
      "id": "node/3669467400"
    },
    {
      "type": "Feature",
      "properties": {
        "@id": "node/3674035685",
        "amenity": "restaurant",
        "name": "the kroc cafe"
      },
      "geometry": {
        "type": "Point",
        "coordinates": [
          -75.1014035,
          39.9556884
        ]
      },
      "id": "node/3674035685"
    },
    {
      "type": "Feature",
      "properties": {
        "@id": "node/3679979748",
        "amenity": "restaurant",
        "cuisine": "latin_american",
        "name": "El Castillo Restaurant"
      },
      "geometry": {
        "type": "Point",
        "coordinates": [
          -75.1088079,
          39.9315027
        ]
      },
      "id": "node/3679979748"
    },
    {
      "type": "Feature",
      "properties": {
        "@id": "node/3680700050",
        "amenity": "restaurant",
        "name": "DK's Soul Food"
      },
      "geometry": {
        "type": "Point",
        "coordinates": [
          -75.1057526,
          39.9338469
        ]
      },
      "id": "node/3680700050"
    },
    {
      "type": "Feature",
      "properties": {
        "@id": "node/3680817369",
        "amenity": "restaurant",
        "name": "Corinne's"
      },
      "geometry": {
        "type": "Point",
        "coordinates": [
          -75.1016944,
          39.9315403
        ]
      },
      "id": "node/3680817369"
    },
    {
      "type": "Feature",
      "properties": {
        "@id": "node/3681042162",
        "amenity": "restaurant",
        "name": "Arellis Restaurant"
      },
      "geometry": {
        "type": "Point",
        "coordinates": [
          -75.0967571,
          39.9529308
        ]
      },
      "id": "node/3681042162"
    },
    {
      "type": "Feature",
      "properties": {
        "@id": "node/3686425262",
        "amenity": "restaurant",
        "name": "Lee's Breakfast & Lunch"
      },
      "geometry": {
        "type": "Point",
        "coordinates": [
          -75.0901113,
          39.9461739
        ]
      },
      "id": "node/3686425262"
    },
    {
      "type": "Feature",
      "properties": {
        "@id": "node/3686426498",
        "amenity": "restaurant",
        "cuisine": "mexican",
        "name": "Su Casa Quetzal"
      },
      "geometry": {
        "type": "Point",
        "coordinates": [
          -75.0903796,
          39.9460762
        ]
      },
      "id": "node/3686426498"
    },
    {
      "type": "Feature",
      "properties": {
        "@id": "node/3686426499",
        "amenity": "restaurant",
        "cuisine": "chicken",
        "name": "Crown Fried Chicken"
      },
      "geometry": {
        "type": "Point",
        "coordinates": [
          -75.0905164,
          39.9460566
        ]
      },
      "id": "node/3686426499"
    },
    {
      "type": "Feature",
      "properties": {
        "@id": "node/3686426500",
        "amenity": "restaurant",
        "cuisine": "chinese",
        "name": "Great Taste 2"
      },
      "geometry": {
        "type": "Point",
        "coordinates": [
          -75.0904667,
          39.9461327
        ]
      },
      "id": "node/3686426500"
    },
    {
      "type": "Feature",
      "properties": {
        "@id": "node/3686428193",
        "amenity": "restaurant",
        "cuisine": "mexican",
        "name": "Los Tacos"
      },
      "geometry": {
        "type": "Point",
        "coordinates": [
          -75.0910553,
          39.9459981
        ]
      },
      "id": "node/3686428193"
    },
    {
      "type": "Feature",
      "properties": {
        "@id": "node/3686441970",
        "amenity": "restaurant",
        "cuisine": "jamaican",
        "name": "Island Vyber"
      },
      "geometry": {
        "type": "Point",
        "coordinates": [
          -75.0935458,
          39.945665
        ]
      },
      "id": "node/3686441970"
    },
    {
      "type": "Feature",
      "properties": {
        "@id": "node/3686443404",
        "amenity": "restaurant",
        "cuisine": "spanish",
        "name": "Faritza"
      },
      "geometry": {
        "type": "Point",
        "coordinates": [
          -75.0922021,
          39.9455056
        ]
      },
      "id": "node/3686443404"
    },
    {
      "type": "Feature",
      "properties": {
        "@id": "node/3690569561",
        "amenity": "restaurant",
        "cuisine": "mexican",
        "name": "El Paraiso Restaurant"
      },
      "geometry": {
        "type": "Point",
        "coordinates": [
          -75.1129169,
          39.9121428
        ]
      },
      "id": "node/3690569561"
    },
    {
      "type": "Feature",
      "properties": {
        "@id": "node/3690713482",
        "amenity": "restaurant",
        "cuisine": "chinese"
      },
      "geometry": {
        "type": "Point",
        "coordinates": [
          -75.0897947,
          39.9223187
        ]
      },
      "id": "node/3690713482"
    },
    {
      "type": "Feature",
      "properties": {
        "@id": "node/3691579239",
        "amenity": "restaurant",
        "cuisine": "mexican",
        "name": "Los Chulos"
      },
      "geometry": {
        "type": "Point",
        "coordinates": [
          -75.1035611,
          39.9041972
        ]
      },
      "id": "node/3691579239"
    },
    {
      "type": "Feature",
      "properties": {
        "@id": "node/3691586462",
        "amenity": "restaurant",
        "cuisine": "pizza",
        "name": "Bruno Steaks Pizza"
      },
      "geometry": {
        "type": "Point",
        "coordinates": [
          -75.1027136,
          39.9044617
        ]
      },
      "id": "node/3691586462"
    },
    {
      "type": "Feature",
      "properties": {
        "@id": "node/3694409825",
        "addr:housenumber": "233",
        "addr:street": "Chestnut Street",
        "amenity": "restaurant",
        "cuisine": "italian",
        "name": "Capofitto"
      },
      "geometry": {
        "type": "Point",
        "coordinates": [
          -75.1453872,
          39.9486523
        ]
      },
      "id": "node/3694409825"
    },
    {
      "type": "Feature",
      "properties": {
        "@id": "node/3696144857",
        "addr:housenumber": "420",
        "addr:postcode": "19106",
        "addr:street": "South 2nd Street",
        "amenity": "restaurant",
        "capacity": "150",
        "cuisine": "pizza",
        "name": "Pizzeria Stella",
        "opening_hours": "Sunday: 11-10, Monday-Thursday: 11:30-10, Friday: 11:30-11, Saturday: 11-11",
        "outdoor_seating": "yes",
        "smoking": "no",
        "takeaway": "yes"
      },
      "geometry": {
        "type": "Point",
        "coordinates": [
          -75.1456919,
          39.94239
        ]
      },
      "id": "node/3696144857"
    },
    {
      "type": "Feature",
      "properties": {
        "@id": "node/3713265390",
        "addr:city": "Philadelphia",
        "addr:housenumber": "1824",
        "addr:postcode": "19148",
        "addr:state": "PA",
        "addr:street": "East Passyunk Avenue",
        "amenity": "restaurant",
        "capacity": "10",
        "cuisine": "pizza",
        "delivery": "yes",
        "name": "Isabella Pizza",
        "opening_hours": "Su-Th 07:00-23:00; Fr-Sa 07:00-0:00",
        "smoking": "no",
        "takeaway": "yes"
      },
      "geometry": {
        "type": "Point",
        "coordinates": [
          -75.166773,
          39.9271944
        ]
      },
      "id": "node/3713265390"
    },
    {
      "type": "Feature",
      "properties": {
        "@id": "node/3713299198",
        "addr:city": "Philadelphia",
        "addr:housenumber": "1823",
        "addr:postcode": "19148",
        "addr:state": "PA",
        "addr:street": "East Passyunk Avenue",
        "amenity": "restaurant",
        "cuisine": "burger",
        "delivery": "yes",
        "name": "P'unk Burger",
        "opening_hours": "Su-Th 10:00-22:00; Fr 10:00-00:00; Sa 10:00-03:00",
        "smoking": "no",
        "takeaway": "yes"
      },
      "geometry": {
        "type": "Point",
        "coordinates": [
          -75.16655,
          39.9271441
        ]
      },
      "id": "node/3713299198"
    },
    {
      "type": "Feature",
      "properties": {
        "@id": "node/3773472022",
        "addr:city": "Philadelphia",
        "addr:housenumber": "1505",
        "addr:postcode": "19121",
        "addr:state": "PA",
        "addr:street": "Cecil B Moore Avenue",
        "amenity": "restaurant",
        "cuisine": "pizza",
        "name": "Pizza Hut"
      },
      "geometry": {
        "type": "Point",
        "coordinates": [
          -75.1598026,
          39.9790245
        ]
      },
      "id": "node/3773472022"
    },
    {
      "type": "Feature",
      "properties": {
        "@id": "node/3777019863",
        "addr:city": "Philadelphia",
        "addr:housenumber": "2217",
        "addr:postcode": "19148",
        "addr:state": "PA",
        "addr:street": "South 7th Street",
        "amenity": "restaurant",
        "name": "Heng Seng"
      },
      "geometry": {
        "type": "Point",
        "coordinates": [
          -75.1584159,
          39.9211739
        ]
      },
      "id": "node/3777019863"
    },
    {
      "type": "Feature",
      "properties": {
        "@id": "node/3832762234",
        "addr:city": "Philadelphia",
        "addr:housenumber": "1648",
        "addr:postcode": "19148",
        "addr:state": "PA",
        "addr:street": "East Passyunk Avenue",
        "amenity": "restaurant",
        "cuisine": "Asian",
        "name": "Bing Bing Dim Sum",
        "opening_hours": "M-Th 5p - 10p, F 5p - 11p, S 12p - 11p, Su 12p - 10p",
        "smoking": "no"
      },
      "geometry": {
        "type": "Point",
        "coordinates": [
          -75.164783,
          39.9289106
        ]
      },
      "id": "node/3832762234"
    },
    {
      "type": "Feature",
      "properties": {
        "@id": "node/3871051833",
        "addr:city": "Philadelphia",
        "addr:housenumber": "2101",
        "addr:postcode": "19130",
        "addr:state": "PA",
        "addr:street": "Pennsylvania Avenue",
        "amenity": "restaurant",
        "building": "yes",
        "name": "Whole Foods",
        "opening_hours": "7am-11pm"
      },
      "geometry": {
        "type": "Point",
        "coordinates": [
          -75.1743597,
          39.9629206
        ]
      },
      "id": "node/3871051833"
    },
    {
      "type": "Feature",
      "properties": {
        "@id": "node/3915648139",
        "addr:city": "Philadelphia",
        "addr:housenumber": "2302",
        "addr:postcode": "19125",
        "addr:state": "PA",
        "addr:street": "East Norris Street",
        "amenity": "restaurant",
        "capacity": "50",
        "cuisine": "american",
        "name": "Ida Mae's Bruncherie",
        "opening_hours": "09:00-14:30",
        "payment:bitcoin": "yes",
        "phone": "(267) 259-6493",
        "smoking": "outside",
        "takeaway": "yes",
        "website": "https://www.facebook.com/idamaesbruncherie/"
      },
      "geometry": {
        "type": "Point",
        "coordinates": [
          -75.1294662,
          39.9779053
        ]
      },
      "id": "node/3915648139"
    },
    {
      "type": "Feature",
      "properties": {
        "@id": "node/4004716091",
        "amenity": "restaurant",
        "cuisine": "mexican",
        "name": "Heffe"
      },
      "geometry": {
        "type": "Point",
        "coordinates": [
          -75.1337759,
          39.9732281
        ]
      },
      "id": "node/4004716091"
    },
    {
      "type": "Feature",
      "properties": {
        "@id": "node/4055253177",
        "addr:city": "Philadelphia",
        "addr:housenumber": "1716",
        "addr:postcode": "19103",
        "addr:state": "PA",
        "addr:street": "Chestnut Street",
        "amenity": "restaurant",
        "cuisine": "italian",
        "delivery": "no",
        "internet_access": "wlan",
        "name": "Gran Caffe L'Aquila",
        "opening_hours": "Mo-Th 07:00-23:00; Fr 07:00-24:00; Sa 08:00-24:00; Su 08:00-23:00",
        "phone": "+1 215 568 5600"
      },
      "geometry": {
        "type": "Point",
        "coordinates": [
          -75.1694699,
          39.9514573
        ]
      },
      "id": "node/4055253177"
    },
    {
      "type": "Feature",
      "properties": {
        "@id": "node/4082297513",
        "amenity": "restaurant",
        "name": "Bottle Bar East"
      },
      "geometry": {
        "type": "Point",
        "coordinates": [
          -75.1345739,
          39.9705728
        ]
      },
      "id": "node/4082297513"
    },
    {
      "type": "Feature",
      "properties": {
        "@id": "node/4115073190",
        "addr:housenumber": "1030",
        "addr:street": "North American Street",
        "amenity": "restaurant",
        "cuisine": "italian_pizza",
        "name": "Not Just Pizza",
        "opening_hours": "Mo-Su 11:00-22:45",
        "phone": "2159289280"
      },
      "geometry": {
        "type": "Point",
        "coordinates": [
          -75.1414315,
          39.9672588
        ]
      },
      "id": "node/4115073190"
    },
    {
      "type": "Feature",
      "properties": {
        "@id": "node/4132986627",
        "addr:city": "Philadelphia",
        "addr:housenumber": "701",
        "addr:postcode": "19123",
        "addr:state": "PA",
        "addr:street": "North 2nd Street",
        "amenity": "restaurant",
        "cuisine": "pizza",
        "name": "Spuntino Wood Fired Pizzeria",
        "opening_hours": "Mo 12:00-21:00; Tu-Th 12:00-22:00; Fr-Sa 12:00-23:00; Su off",
        "phone": "267-930-8486",
        "website": "https://www.spuntinophilly.com"
      },
      "geometry": {
        "type": "Point",
        "coordinates": [
          -75.1409635,
          39.9619672
        ]
      },
      "id": "node/4132986627"
    },
    {
      "type": "Feature",
      "properties": {
        "@id": "node/4140719306",
        "amenity": "restaurant",
        "name": "Jazz"
      },
      "geometry": {
        "type": "Point",
        "coordinates": [
          -75.1653423,
          39.9503121
        ]
      },
      "id": "node/4140719306"
    },
    {
      "type": "Feature",
      "properties": {
        "@id": "node/4175143394",
        "addr:housenumber": "1355",
        "addr:street": "North Front Street",
        "amenity": "restaurant",
        "name": "Wm Mulherin's Sons"
      },
      "geometry": {
        "type": "Point",
        "coordinates": [
          -75.1352505,
          39.9719007
        ]
      },
      "id": "node/4175143394"
    },
    {
      "type": "Feature",
      "properties": {
        "@id": "node/4175143395",
        "addr:housenumber": "1837",
        "addr:street": "East Passyunk Avenue",
        "amenity": "restaurant",
        "name": "Sate Kampar"
      },
      "geometry": {
        "type": "Point",
        "coordinates": [
          -75.166972,
          39.9268564
        ]
      },
      "id": "node/4175143395"
    },
    {
      "type": "Feature",
      "properties": {
        "@id": "node/4175144190",
        "addr:street": "Spruce Street",
        "amenity": "restaurant",
        "cuisine": "french",
        "name": "Audrey Claire"
      },
      "geometry": {
        "type": "Point",
        "coordinates": [
          -75.1744332,
          39.9482833
        ]
      },
      "id": "node/4175144190"
    },
    {
      "type": "Feature",
      "properties": {
        "@id": "node/4236656389",
        "amenity": "restaurant"
      },
      "geometry": {
        "type": "Point",
        "coordinates": [
          -75.1610596,
          39.9482416
        ]
      },
      "id": "node/4236656389"
    },
    {
      "type": "Feature",
      "properties": {
        "@id": "node/4236656391",
        "addr:city": "Philadelphia",
        "addr:housenumber": "1221",
        "addr:state": "PA",
        "addr:street": "Locust Street",
        "amenity": "restaurant",
        "cuisine": "vegan",
        "name": "Vedge",
        "phone": "+1 215 3207500",
        "smoking": "no",
        "website": "http://vedgerestaurant.com"
      },
      "geometry": {
        "type": "Point",
        "coordinates": [
          -75.1613868,
          39.9479023
        ]
      },
      "id": "node/4236656391"
    },
    {
      "type": "Feature",
      "properties": {
        "@id": "node/4236713604",
        "addr:city": "Philadelphia",
        "addr:housenumber": "126",
        "addr:state": "PA",
        "addr:street": "South 19th Street",
        "amenity": "restaurant",
        "cuisine": "vegan",
        "name": "Vstreet",
        "opening_hours": "Mo off",
        "phone": "+1 215 2787943",
        "smoking": "no",
        "website": "vstreetfood.com"
      },
      "geometry": {
        "type": "Point",
        "coordinates": [
          -75.1722659,
          39.9509517
        ]
      },
      "id": "node/4236713604"
    },
    {
      "type": "Feature",
      "properties": {
        "@id": "node/4271027594",
        "amenity": "restaurant",
        "name": "Jake's Sandwich Board"
      },
      "geometry": {
        "type": "Point",
        "coordinates": [
          -75.1604344,
          39.9495876
        ]
      },
      "id": "node/4271027594"
    },
    {
      "type": "Feature",
      "properties": {
        "@id": "node/4305816202",
        "amenity": "restaurant",
        "name": "Happily Ever After"
      },
      "geometry": {
        "type": "Point",
        "coordinates": [
          -75.1449101,
          39.9497775
        ]
      },
      "id": "node/4305816202"
    },
    {
      "type": "Feature",
      "properties": {
        "@id": "node/4307290990",
        "addr:housenumber": "943",
        "addr:street": "South 9th Street",
        "amenity": "restaurant",
        "name": "Neuf Restaurant"
      },
      "geometry": {
        "type": "Point",
        "coordinates": [
          -75.1578257,
          39.9386272
        ]
      },
      "id": "node/4307290990"
    },
    {
      "type": "Feature",
      "properties": {
        "@id": "node/4308140439",
        "addr:city": "Philadelphia",
        "addr:housenumber": "1832",
        "addr:postcode": "19122",
        "addr:state": "PA",
        "addr:street": "North Front Street",
        "amenity": "restaurant",
        "cuisine": "indian",
        "name": "Tandoor",
        "takeaway": "yes",
        "website": "http://www.TandoorFishtown.com"
      },
      "geometry": {
        "type": "Point",
        "coordinates": [
          -75.1339398,
          39.9780737
        ]
      },
      "id": "node/4308140439"
    },
    {
      "type": "Feature",
      "properties": {
        "@id": "node/4365255887",
        "addr:city": "Philadelphia",
        "addr:housenumber": "1133",
        "addr:postcode": "19147",
        "addr:state": "PA",
        "addr:street": "South Broad Street",
        "amenity": "restaurant",
        "cuisine": "chinese",
        "name": "Mui Chung",
        "smoking": "no",
        "takeaway": "yes"
      },
      "geometry": {
        "type": "Point",
        "coordinates": [
          -75.1667857,
          39.9367989
        ]
      },
      "id": "node/4365255887"
    },
    {
      "type": "Feature",
      "properties": {
        "@id": "node/4382618889",
        "amenity": "restaurant",
        "name": "Famous Daves BBQ",
        "name:en": "Famous Daves BBQ"
      },
      "geometry": {
        "type": "Point",
        "coordinates": [
          -75.1425108,
          39.9217757
        ]
      },
      "id": "node/4382618889"
    },
    {
      "type": "Feature",
      "properties": {
        "@id": "node/4416544758",
        "amenity": "restaurant",
        "cuisine": "new american",
        "name": "Federal Donuts"
      },
      "geometry": {
        "type": "Point",
        "coordinates": [
          -75.1491994,
          39.9640463
        ]
      },
      "id": "node/4416544758"
    },
    {
      "type": "Feature",
      "properties": {
        "@id": "node/4483041298",
        "addr:city": "Philadelphia",
        "addr:housenumber": "1428",
        "addr:state": "PA",
        "addr:street": "Cecil B Moore Avenue",
        "amenity": "restaurant",
        "cuisine": "sandwich",
        "name": "Lee's Hoagie House"
      },
      "geometry": {
        "type": "Point",
        "coordinates": [
          -75.1593229,
          39.9787709
        ]
      },
      "id": "node/4483041298"
    },
    {
      "type": "Feature",
      "properties": {
        "@id": "node/4483041299",
        "addr:city": "Philadelphia",
        "addr:housenumber": "1601",
        "addr:street": "North 15th Street",
        "amenity": "restaurant",
        "cuisine": "ice_cream",
        "name": "Luvin' Spoonful"
      },
      "geometry": {
        "type": "Point",
        "coordinates": [
          -75.159273,
          39.9781364
        ]
      },
      "id": "node/4483041299"
    },
    {
      "type": "Feature",
      "properties": {
        "@id": "node/4483041300",
        "amenity": "restaurant",
        "cuisine": "asian",
        "name": "Pho Ha Saigon"
      },
      "geometry": {
        "type": "Point",
        "coordinates": [
          -75.1593025,
          39.9782721
        ]
      },
      "id": "node/4483041300"
    },
    {
      "type": "Feature",
      "properties": {
        "@id": "node/4483041305",
        "addr:city": "Philadelphia",
        "addr:housenumber": "1620",
        "addr:street": "North Broad Street",
        "amenity": "restaurant",
        "cuisine": "sandwich",
        "name": "Tropical Cafe"
      },
      "geometry": {
        "type": "Point",
        "coordinates": [
          -75.1582994,
          39.9778117
        ]
      },
      "id": "node/4483041305"
    },
    {
      "type": "Feature",
      "properties": {
        "@id": "node/4483041306",
        "addr:city": "Philadelphia",
        "addr:housenumber": "1638",
        "addr:street": "N Broad Street",
        "amenity": "restaurant",
        "cuisine": "asian",
        "name": "China Star"
      },
      "geometry": {
        "type": "Point",
        "coordinates": [
          -75.1582967,
          39.9778959
        ]
      },
      "id": "node/4483041306"
    },
    {
      "type": "Feature",
      "properties": {
        "@id": "node/4483041307",
        "amenity": "restaurant",
        "cuisine": "burger",
        "name": "Burger King;Wingstop"
      },
      "geometry": {
        "type": "Point",
        "coordinates": [
          -75.1582387,
          39.9780026
        ]
      },
      "id": "node/4483041307"
    },
    {
      "type": "Feature",
      "properties": {
        "@id": "node/4483041319",
        "addr:city": "Philadelphia",
        "addr:housenumber": "1403",
        "addr:street": "West Oxford Street",
        "amenity": "restaurant",
        "cuisine": "steak_house",
        "name": "The New Barber's Hall"
      },
      "geometry": {
        "type": "Point",
        "coordinates": [
          -75.158919,
          39.9772876
        ]
      },
      "id": "node/4483041319"
    },
    {
      "type": "Feature",
      "properties": {
        "@id": "node/4514675789",
        "addr:housenumber": "133",
        "amenity": "restaurant",
        "name": "Bar Bombon"
      },
      "geometry": {
        "type": "Point",
        "coordinates": [
          -75.1704475,
          39.950618
        ]
      },
      "id": "node/4514675789"
    },
    {
      "type": "Feature",
      "properties": {
        "@id": "node/4532260719",
        "addr:city": "Philadelphia",
        "addr:housenumber": "1138",
        "addr:postcode": "19147",
        "addr:state": "PA",
        "addr:street": "South 13th Street",
        "amenity": "restaurant",
        "cuisine": "mexican",
        "delivery": "yes",
        "name": "El Jarocho",
        "smoking": "no",
        "takeaway": "yes"
      },
      "geometry": {
        "type": "Point",
        "coordinates": [
          -75.1649778,
          39.9364912
        ]
      },
      "id": "node/4532260719"
    },
    {
      "type": "Feature",
      "properties": {
        "@id": "node/4534023856",
        "addr:city": "Philadelphia",
        "addr:housenumber": "1549",
        "addr:postcode": "19147",
        "addr:state": "PA",
        "addr:street": "South 13th Street",
        "amenity": "restaurant",
        "cuisine": "italian",
        "name": "Francoluigi's Italian Restaurant & High Note Cafe",
        "takeaway": "yes"
      },
      "geometry": {
        "type": "Point",
        "coordinates": [
          -75.1660779,
          39.9302881
        ]
      },
      "id": "node/4534023856"
    },
    {
      "type": "Feature",
      "properties": {
        "@id": "node/4542120004",
        "addr:housenumber": "121",
        "addr:postcode": "19102",
        "addr:street": "South 16th Street",
        "amenity": "restaurant",
        "internet_access": "wlan",
        "name": "Marathon - 16th & Sansom",
        "name:en": "Marathon",
        "opening_hours": "Mo-Th 07:00-22:00; Fr 07:00-23:00; Sa 08:00-23:00; Su 08:00-21:00",
        "phone": "+1 215 569 32 78"
      },
      "geometry": {
        "type": "Point",
        "coordinates": [
          -75.1674914,
          39.9503899
        ]
      },
      "id": "node/4542120004"
    },
    {
      "type": "Feature",
      "properties": {
        "@id": "node/4562079042",
        "amenity": "restaurant",
        "cuisine": "pizza",
        "delivery": "yes",
        "name": "The Pizza Pub",
        "smoking": "outside",
        "takeaway": "yes"
      },
      "geometry": {
        "type": "Point",
        "coordinates": [
          -75.1795271,
          39.9235502
        ]
      },
      "id": "node/4562079042"
    },
    {
      "type": "Feature",
      "properties": {
        "@id": "node/4564414010",
        "addr:housenumber": "131",
        "addr:postcode": "19107",
        "addr:street": "North 10th Street",
        "amenity": "restaurant",
        "cuisine": "chinese",
        "name": "Spice C",
        "opening_hours": "Mo-Su 10:30-22:00",
        "phone": "215 923 2222",
        "website": "http://www.spicecnoodle.com/"
      },
      "geometry": {
        "type": "Point",
        "coordinates": [
          -75.1558561,
          39.9543654
        ]
      },
      "id": "node/4564414010"
    },
    {
      "type": "Feature",
      "properties": {
        "@id": "node/4564653733",
        "addr:city": "Camden",
        "addr:housenumber": "821",
        "addr:postcode": "08103",
        "addr:state": "NJ",
        "addr:street": "South 4th Street",
        "amenity": "restaurant",
        "cuisine": "pizza",
        "delivery": "yes",
        "name": "Ana's Pizzeria",
        "phone": "856-966-0303",
        "website": "http://anaspizzeria.com"
      },
      "geometry": {
        "type": "Point",
        "coordinates": [
          -75.1227588,
          39.9354861
        ]
      },
      "id": "node/4564653733"
    },
    {
      "type": "Feature",
      "properties": {
        "@id": "node/4635978149",
        "amenity": "restaurant",
        "cuisine": "breakfast",
        "name": "Texas Weiners"
      },
      "geometry": {
        "type": "Point",
        "coordinates": [
          -75.2020944,
          39.9631618
        ]
      },
      "id": "node/4635978149"
    },
    {
      "type": "Feature",
      "properties": {
        "@id": "node/4666484197",
        "amenity": "restaurant",
        "name": "Green Egg Cafe"
      },
      "geometry": {
        "type": "Point",
        "coordinates": [
          -75.1664886,
          39.9314024
        ]
      },
      "id": "node/4666484197"
    },
    {
      "type": "Feature",
      "properties": {
        "@id": "node/4668627861",
        "addr:city": "Philadelphia",
        "addr:housenumber": "1301",
        "addr:postcode": "19147",
        "addr:state": "PA",
        "addr:street": "South 11th Street",
        "amenity": "restaurant",
        "cuisine": "breakfast",
        "name": "Porto"
      },
      "geometry": {
        "type": "Point",
        "coordinates": [
          -75.1620718,
          39.9333535
        ]
      },
      "id": "node/4668627861"
    },
    {
      "type": "Feature",
      "properties": {
        "@id": "node/4670242220",
        "amenity": "restaurant",
        "cuisine": "breakfast",
        "name": "The Dutch"
      },
      "geometry": {
        "type": "Point",
        "coordinates": [
          -75.1519519,
          39.9287007
        ]
      },
      "id": "node/4670242220"
    },
    {
      "type": "Feature",
      "properties": {
        "@id": "node/4790082821",
        "addr:housenumber": "1615",
        "addr:street": "Chancellor Street",
        "amenity": "restaurant",
        "name": "Vetri"
      },
      "geometry": {
        "type": "Point",
        "coordinates": [
          -75.16841,
          39.9493994
        ]
      },
      "id": "node/4790082821"
    },
    {
      "type": "Feature",
      "properties": {
        "@id": "node/4792479676",
        "addr:city": "Philadelphia",
        "addr:housenumber": "1600",
        "addr:postcode": "19121",
        "addr:state": "PA",
        "addr:street": "North Broad Street",
        "amenity": "restaurant",
        "capacity": "30",
        "cuisine": "chinese_food",
        "delivery": "yes",
        "name": "China Star",
        "opening_hours": "11:00--23:00",
        "smoking": "no",
        "takeaway": "yes"
      },
      "geometry": {
        "type": "Point",
        "coordinates": [
          -75.158309,
          39.9777454
        ]
      },
      "id": "node/4792479676"
    },
    {
      "type": "Feature",
      "properties": {
        "@id": "node/4801346328",
        "amenity": "restaurant",
        "name": "16th Street Seafood"
      },
      "geometry": {
        "type": "Point",
        "coordinates": [
          -75.1715324,
          39.930805
        ]
      },
      "id": "node/4801346328"
    },
    {
      "type": "Feature",
      "properties": {
        "@id": "node/4802521961",
        "amenity": "restaurant",
        "name": "HoneyGrow"
      },
      "geometry": {
        "type": "Point",
        "coordinates": [
          -75.1574655,
          39.9784722
        ]
      },
      "id": "node/4802521961"
    },
    {
      "type": "Feature",
      "properties": {
        "@id": "node/4803982991",
        "amenity": "restaurant",
        "cuisine": "breakfast",
        "delivery": "no",
        "name": "Richie's Lunch Box",
        "takeaway": "only"
      },
      "geometry": {
        "type": "Point",
        "coordinates": [
          -75.1533538,
          39.9827499
        ]
      },
      "id": "node/4803982991"
    },
    {
      "type": "Feature",
      "properties": {
        "@id": "node/4803982993",
        "amenity": "restaurant",
        "cuisine": "crepes",
        "name": "Crepe Truck",
        "takeaway": "only"
      },
      "geometry": {
        "type": "Point",
        "coordinates": [
          -75.1543838,
          39.9829425
        ]
      },
      "id": "node/4803982993"
    },
    {
      "type": "Feature",
      "properties": {
        "@id": "node/4803982994",
        "amenity": "restaurant",
        "cuisine": "burger",
        "name": "Burger Tank",
        "takeaway": "only"
      },
      "geometry": {
        "type": "Point",
        "coordinates": [
          -75.1545625,
          39.9829653
        ]
      },
      "id": "node/4803982994"
    },
    {
      "type": "Feature",
      "properties": {
        "@id": "node/4804809250",
        "amenity": "restaurant",
        "cuisine": "american",
        "name": "Richie's Food Truck",
        "opening_hours": "Breakfast and Lunch",
        "outdoor_seating": "yes",
        "takeaway": "yes"
      },
      "geometry": {
        "type": "Point",
        "coordinates": [
          -75.153442,
          39.9828222
        ]
      },
      "id": "node/4804809250"
    },
    {
      "type": "Feature",
      "properties": {
        "@id": "node/4806495399",
        "amenity": "restaurant",
        "name": "Cosi"
      },
      "geometry": {
        "type": "Point",
        "coordinates": [
          -75.1576807,
          39.9810543
        ]
      },
      "id": "node/4806495399"
    },
    {
      "type": "Feature",
      "properties": {
        "@id": "node/4810181886",
        "amenity": "restaurant",
        "cuisine": "middle_eastern",
        "delivery": "yes",
        "name": "Pita Chip",
        "outdoor_seating": "yes",
        "takeaway": "yes"
      },
      "geometry": {
        "type": "Point",
        "coordinates": [
          -75.1582436,
          39.9781631
        ]
      },
      "id": "node/4810181886"
    },
    {
      "type": "Feature",
      "properties": {
        "@id": "node/4810181887",
        "amenity": "restaurant",
        "cuisine": "sandwich",
        "name": "Potbelly",
        "outdoor_seating": "yes",
        "takeaway": "yes"
      },
      "geometry": {
        "type": "Point",
        "coordinates": [
          -75.1535685,
          39.9795775
        ]
      },
      "id": "node/4810181887"
    },
    {
      "type": "Feature",
      "properties": {
        "@id": "node/4810181888",
        "amenity": "restaurant",
        "cuisine": "pizza",
        "name": "Blaze Pizza",
        "takeaway": "yes"
      },
      "geometry": {
        "type": "Point",
        "coordinates": [
          -75.1533925,
          39.9795306
        ]
      },
      "id": "node/4810181888"
    },
    {
      "type": "Feature",
      "properties": {
        "@id": "node/4810181889",
        "amenity": "restaurant",
        "cuisine": "pizza",
        "name": "Blaze Pizza"
      },
      "geometry": {
        "type": "Point",
        "coordinates": [
          -75.1531829,
          39.9794746
        ]
      },
      "id": "node/4810181889"
    },
    {
      "type": "Feature",
      "properties": {
        "@id": "node/4810181890",
        "amenity": "restaurant",
        "cuisine": "pizza",
        "name": "Philly Style"
      },
      "geometry": {
        "type": "Point",
        "coordinates": [
          -75.157006,
          39.9838192
        ]
      },
      "id": "node/4810181890"
    },
    {
      "type": "Feature",
      "properties": {
        "@id": "node/4810181891",
        "amenity": "restaurant",
        "cuisine": "salad_and_Stirfry",
        "name": "Crisp Kitchen"
      },
      "geometry": {
        "type": "Point",
        "coordinates": [
          -75.1531062,
          39.9794542
        ]
      },
      "id": "node/4810181891"
    },
    {
      "type": "Feature",
      "properties": {
        "@id": "node/4839107785",
        "amenity": "restaurant",
        "cuisine": "pizza",
        "name": "Santucci's "
      },
      "geometry": {
        "type": "Point",
        "coordinates": [
          -75.1593208,
          39.939066
        ]
      },
      "id": "node/4839107785"
    },
    {
      "type": "Feature",
      "properties": {
        "@id": "node/4880698721",
        "addr:postcode": "19106",
        "amenity": "restaurant",
        "cuisine": "italian",
        "email": "Eat@lascalasphilly.com",
        "internet_access": "wlan",
        "name": "LaScala's",
        "name:en": "LaScala's",
        "opening_hours": "Mo-Th 11:00-22:00; Fr-Sa 11:00-23:00; Su 11:00-21:00",
        "phone": "+1 215 928 09 00",
        "website": "http://lascalasphilly.com/"
      },
      "geometry": {
        "type": "Point",
        "coordinates": [
          -75.152127,
          39.9495012
        ]
      },
      "id": "node/4880698721"
    },
    {
      "type": "Feature",
      "properties": {
        "@id": "node/4900271521",
        "amenity": "restaurant",
        "cuisine": "mexican",
        "internet_access": "wlan",
        "name": "Lolita",
        "name:en": "Lolita"
      },
      "geometry": {
        "type": "Point",
        "coordinates": [
          -75.1621782,
          39.9499596
        ]
      },
      "id": "node/4900271521"
    },
    {
      "type": "Feature",
      "properties": {
        "@id": "node/5056439943",
        "addr:city": "Philadelphia",
        "addr:housenumber": "1709",
        "addr:street": "East Passyunk Avenue",
        "amenity": "restaurant",
        "cuisine": "spanish;wine",
        "name": "Barcelona Wine Bar",
        "opening_hours": "Mo-Su 4:00p-2:00a",
        "outdoor_seating": "yes"
      },
      "geometry": {
        "type": "Point",
        "coordinates": [
          -75.1652691,
          39.9281319
        ]
      },
      "id": "node/5056439943"
    },
    {
      "type": "Feature",
      "properties": {
        "@id": "node/5172104653",
        "amenity": "restaurant",
        "cuisine": "steak_house",
        "name": "Ruth's Chris Steak House"
      },
      "geometry": {
        "type": "Point",
        "coordinates": [
          -75.1701856,
          39.9530129
        ]
      },
      "id": "node/5172104653"
    },
    {
      "type": "Feature",
      "properties": {
        "@id": "node/5174799738",
        "amenity": "restaurant",
        "cuisine": "diner",
        "description": "breakfast all day",
        "wheelchair": "limited"
      },
      "geometry": {
        "type": "Point",
        "coordinates": [
          -75.1703208,
          39.9522932
        ]
      },
      "id": "node/5174799738"
    },
    {
      "type": "Feature",
      "properties": {
        "@id": "node/5252192844",
        "amenity": "restaurant",
        "name": "Subway"
      },
      "geometry": {
        "type": "Point",
        "coordinates": [
          -75.1559266,
          39.9825589
        ]
      },
      "id": "node/5252192844"
    },
    {
      "type": "Feature",
      "properties": {
        "@id": "node/5257945846",
        "addr:city": "Philadelphia",
        "addr:housenumber": "1001",
        "addr:postcode": "19123",
        "addr:state": "PA",
        "addr:street": "North 2nd Street",
        "amenity": "restaurant",
        "microbrewery": "yes",
        "name": "Urban Village Brewing Company",
        "opening_hours": "Mo-Su 11:00-02:00",
        "outdoor_seating": "yes",
        "phone": "267-687-1961",
        "website": "http://www.urbanvillagebrewing.com"
      },
      "geometry": {
        "type": "Point",
        "coordinates": [
          -75.1398455,
          39.9670501
        ]
      },
      "id": "node/5257945846"
    },
    {
      "type": "Feature",
      "properties": {
        "@id": "node/5281092753",
        "addr:city": "Philadelphia",
        "addr:housenumber": "140",
        "addr:postcode": "19106",
        "addr:state": "PA",
        "addr:street": "North Christopher Columbus Boulevard",
        "amenity": "restaurant",
        "cuisine": "bistro",
        "name": "La Peg",
        "opening_hours": "Mo-Th 17:00-22:30, Fr-Sa 17:00-23:30, Su 17:00-22:00",
        "outdoor_seating": "yes",
        "phone": "215.375.7744",
        "smoking": "outside",
        "website": "http://lapegbrasserie.com/"
      },
      "geometry": {
        "type": "Point",
        "coordinates": [
          -75.1404129,
          39.9533718
        ]
      },
      "id": "node/5281092753"
    }
  ]
}
